{"type":"FeatureCollection","name":"feeders","crs":{"type":"name","properties":{"name":"urn:ogc:def:crs:OGC:1.3:CRS84"}},"features":[{"type":"Feature","properties":{"name":"Tha Chang N9","kind":"boat"},"geometry":{"type":"Point","coordinates":[100.48827,13.75256]}},{"type":"Feature","properties":{"name":"Wibun Si Pier","kind":"boat"},"geometry":{"type":"Point","coordinates":[100.59575,13.59509]}},{"type":"Feature","properties":{"name":"Tha Tien","kind":"boat"},"geometry":{"type":"Point","coordinates":[100.49001,13.74598]}},{"type":"Feature","properties":{"name":"Phra Pinklao Bridge N12","kind":"boat"},"geometry":{"type":"Point","coordinates":[100.49069,13.76299]}},{"type":"Feature","properties":{"name":"Yodpiman","kind":"boat"},"geometry":{"type":"Point","coordinates":[100.49469,13.74098]}},{"type":"Feature","properties":{"name":"Icon Siam Pier 1","kind":"boat"},"geometry":{"type":"Point","coordinates":[100.51198,13.72585]}},{"type":"Feature","properties":{"name":"Wat Bang Namphueng Nok Pier","kind":"boat"},"geometry":{"type":"Point","coordinates":[100.58723,13.68248]}},{"type":"Feature","properties":{"name":"Wat Bang Na Nok Pier","kind":"boat"},"geometry":{"type":"Point","coordinates":[100.58737,13.67663]}},{"type":"Feature","properties":{"name":"Bang Kachao Pier","kind":"boat"},"geometry":{"type":"Point","coordinates":[100.56281,13.70429]}},{"type":"Feature","properties":{"name":"Pratunam","kind":"boat"},"geometry":{"type":"Point","coordinates":[100.54149,13.74936]}},{"type":"Feature","properties":{"name":"Chidlom","kind":"boat"},"geometry":{"type":"Point","coordinates":[100.54457,13.74871]}},{"type":"Feature","properties":{"name":"Wireless","kind":"boat"},"geometry":{"type":"Point","coordinates":[100.54818,13.74827]}},{"type":"Feature","properties":{"name":"Nana Nua","kind":"boat"},"geometry":{"type":"Point","coordinates":[100.55403,13.74825]}},{"type":"Feature","properties":{"name":"Nana Chard","kind":"boat"},"geometry":{"type":"Point","coordinates":[100.55912,13.74833]}},{"type":"Feature","properties":{"name":"Asok Pier","kind":"boat"},"geometry":{"type":"Point","coordinates":[100.56295,13.74785]}},{"type":"Feature","properties":{"name":"Prasanmit","kind":"boat"},"geometry":{"type":"Point","coordinates":[100.56574,13.74739]}},{"type":"Feature","properties":{"name":"Italthai","kind":"boat"},"geometry":{"type":"Point","coordinates":[100.57348,13.74592]}},{"type":"Feature","properties":{"name":"Wat Mai Chonglom","kind":"boat"},"geometry":{"type":"Point","coordinates":[100.57437,13.74571]}},{"type":"Feature","properties":{"name":"Baan Don Mosque","kind":"boat"},"geometry":{"type":"Point","coordinates":[100.58146,13.74415]}},{"type":"Feature","properties":{"name":"Soi Thonglor","kind":"boat"},"geometry":{"type":"Point","coordinates":[100.58589,13.74319]}},{"type":"Feature","properties":{"name":"Sapan Klongtun","kind":"boat"},"geometry":{"type":"Point","coordinates":[100.59826,13.74191]}},{"type":"Feature","properties":{"name":"The Mall Ram","kind":"boat"},"geometry":{"type":"Point","coordinates":[100.60813,13.75465]}},{"type":"Feature","properties":{"name":"Ramkhamhaeng 29","kind":"boat"},"geometry":{"type":"Point","coordinates":[100.61158,13.75782]}},{"type":"Feature","properties":{"name":"Wat Thepleela","kind":"boat"},"geometry":{"type":"Point","coordinates":[100.61378,13.75995]}},{"type":"Feature","properties":{"name":"Ramkhamhaeng","kind":"boat"},"geometry":{"type":"Point","coordinates":[100.61832,13.76153]}},{"type":"Feature","properties":{"name":"The Mall Bangkapi","kind":"boat"},"geometry":{"type":"Point","coordinates":[100.64345,13.76464]}},{"type":"Feature","properties":{"name":"Wat Sriboonrueng","kind":"boat"},"geometry":{"type":"Point","coordinates":[100.65211,13.76772]}},{"type":"Feature","properties":{"name":"Sapan Charoenpol","kind":"boat"},"geometry":{"type":"Point","coordinates":[100.52431,13.74982]}},{"type":"Feature","properties":{"name":"Talad Bobae","kind":"boat"},"geometry":{"type":"Point","coordinates":[100.51596,13.75342]}},{"type":"Feature","properties":{"name":"Phanfa Leelard","kind":"boat"},"geometry":{"type":"Point","coordinates":[100.50644,13.75551]}},{"type":"Feature","properties":{"name":"Tha Din Daeng","kind":"boat"},"geometry":{"type":"Point","coordinates":[100.50385,13.73698]}},{"type":"Feature","properties":{"name":"Ratchawong N 5","kind":"boat"},"geometry":{"type":"Point","coordinates":[100.50436,13.73847]}},{"type":"Feature","properties":{"name":"Phetra Pier","kind":"boat"},"geometry":{"type":"Point","coordinates":[100.53747,13.65707]}},{"type":"Feature","properties":{"name":"Phra Pradaeng Town Municipality Pier","kind":"boat"},"geometry":{"type":"Point","coordinates":[100.53509,13.65845]}},{"type":"Feature","properties":{"name":"Krung Thon Bridge","kind":"boat"},"geometry":{"type":"Point","coordinates":[100.50109,13.78155]}},{"type":"Feature","properties":{"name":"Pakkret","kind":"boat"},"geometry":{"type":"Point","coordinates":[100.49465,13.91533]}},{"type":"Feature","properties":{"name":"Wat Sanam Nuea Ferry Pier","kind":"boat"},"geometry":{"type":"Point","coordinates":[100.49168,13.91283]}},{"type":"Feature","properties":{"name":"Wat Pora Mai Yi Ka Wat Ferry Pier","kind":"boat"},"geometry":{"type":"Point","coordinates":[100.49069,13.91269]}},{"type":"Feature","properties":{"name":"Kiak Kai","kind":"boat"},"geometry":{"type":"Point","coordinates":[100.51685,13.79869]}},{"type":"Feature","properties":{"name":"Rama 5 Bridge","kind":"boat"},"geometry":{"type":"Point","coordinates":[100.49389,13.83221]}},{"type":"Feature","properties":{"name":"Wat Kien","kind":"boat"},"geometry":{"type":"Point","coordinates":[100.4969,13.82822]}},{"type":"Feature","properties":{"name":"Nonthaburi","kind":"boat"},"geometry":{"type":"Point","coordinates":[100.49116,13.84186]}},{"type":"Feature","properties":{"name":"Rama 7 Bridge","kind":"boat"},"geometry":{"type":"Point","coordinates":[100.51374,13.81284]}},{"type":"Feature","properties":{"name":"Payap","kind":"boat"},"geometry":{"type":"Point","coordinates":[100.50814,13.78754]}},{"type":"Feature","properties":{"name":"Rama 8 Bridge","kind":"boat"},"geometry":{"type":"Point","coordinates":[100.49773,13.76753]}},{"type":"Feature","properties":{"name":"Bang Po","kind":"boat"},"geometry":{"type":"Point","coordinates":[100.51879,13.80636]}},{"type":"Feature","properties":{"name":"Tha Wang Lang","kind":"boat"},"geometry":{"type":"Point","coordinates":[100.48683,13.75569]}},{"type":"Feature","properties":{"name":"Rachawong","kind":"boat"},"geometry":{"type":"Point","coordinates":[100.50474,13.73836]}},{"type":"Feature","properties":{"name":"Marine Department","kind":"boat"},"geometry":{"type":"Point","coordinates":[100.51188,13.73249]}},{"type":"Feature","properties":{"name":"Si Phraya","kind":"boat"},"geometry":{"type":"Point","coordinates":[100.51311,13.72842]}},{"type":"Feature","properties":{"name":"Oriental Pier","kind":"boat"},"geometry":{"type":"Point","coordinates":[100.51352,13.72331]}},{"type":"Feature","properties":{"name":"Wat Rajsingkorn","kind":"boat"},"geometry":{"type":"Point","coordinates":[100.50384,13.70654]}},{"type":"Feature","properties":{"name":"Wat Worachanyawas","kind":"boat"},"geometry":{"type":"Point","coordinates":[100.50686,13.70954]}},{"type":"Feature","properties":{"name":"Phra Pradaeng Pier","kind":"boat"},"geometry":{"type":"Point","coordinates":[100.53416,13.65703]}},{"type":"Feature","properties":{"name":"Phra Pin Klao Pier (Thon Buri) 12","kind":"boat"},"geometry":{"type":"Point","coordinates":[100.48998,13.76243]}},{"type":"Feature","properties":{"name":"Wat Daowaduengsaram","kind":"boat"},"geometry":{"type":"Point","coordinates":[100.4934,13.76539]}},{"type":"Feature","properties":{"name":"Wat Klangkret","kind":"boat"},"geometry":{"type":"Point","coordinates":[100.49138,13.90517]}},{"type":"Feature","properties":{"name":"Ministry of Commerce","kind":"boat"},"geometry":{"type":"Point","coordinates":[100.48516,13.88327]}},{"type":"Feature","properties":{"name":"boat","kind":"boat"},"geometry":{"type":"Point","coordinates":[100.50219,13.93242]}},{"type":"Feature","properties":{"name":"Phra Pin Klao Pier (Phra Nakhon)","kind":"boat"},"geometry":{"type":"Point","coordinates":[100.49169,13.76142]}},{"type":"Feature","properties":{"name":"Ta Luean Pier","kind":"boat"},"geometry":{"type":"Point","coordinates":[100.58001,13.67317]}},{"type":"Feature","properties":{"name":"Wat Bang Kachao Nok Pier","kind":"boat"},"geometry":{"type":"Point","coordinates":[100.55422,13.689]}},{"type":"Feature","properties":{"name":"Atsadang","kind":"boat"},"geometry":{"type":"Point","coordinates":[100.49419,13.74134]}},{"type":"Feature","properties":{"name":"Rajinee N7","kind":"boat"},"geometry":{"type":"Point","coordinates":[100.49385,13.74161]}},{"type":"Feature","properties":{"name":"Maharaj","kind":"boat"},"geometry":{"type":"Point","coordinates":[100.48843,13.75448]}},{"type":"Feature","properties":{"name":"Phra Arthit","kind":"boat"},"geometry":{"type":"Point","coordinates":[100.49404,13.76356]}},{"type":"Feature","properties":{"name":"Pibul 2","kind":"boat"},"geometry":{"type":"Point","coordinates":[100.49627,13.83291]}},{"type":"Feature","properties":{"name":"Sathorn (Taksin)","kind":"boat"},"geometry":{"type":"Point","coordinates":[100.51271,13.71886]}},{"type":"Feature","properties":{"name":"Asiatique","kind":"boat"},"geometry":{"type":"Point","coordinates":[100.50169,13.70495]}},{"type":"Feature","properties":{"name":"Vijit School","kind":"boat"},"geometry":{"type":"Point","coordinates":[100.59407,13.74148]}},{"type":"Feature","properties":{"name":"Chong Nonsi Pier","kind":"boat"},"geometry":{"type":"Point","coordinates":[100.55033,13.6909]}},{"type":"Feature","properties":{"name":"Bangkapi","kind":"boat"},"geometry":{"type":"Point","coordinates":[100.64739,13.76503]}},{"type":"Feature","properties":{"name":"Sapan Mit Mahadthai","kind":"boat"},"geometry":{"type":"Point","coordinates":[100.62369,13.76216]}},{"type":"Feature","properties":{"name":"Memorial Bridge","kind":"boat"},"geometry":{"type":"Point","coordinates":[100.49822,13.73974]}},{"type":"Feature","properties":{"name":"Khlong Lat Luang Pier","kind":"boat"},"geometry":{"type":"Point","coordinates":[100.52774,13.6698]}},{"type":"Feature","properties":{"name":"Sathu Pradit Pier","kind":"boat"},"geometry":{"type":"Point","coordinates":[100.52725,13.67698]}},{"type":"Feature","properties":{"name":"Wat Muang Kae","kind":"boat"},"geometry":{"type":"Point","coordinates":[100.51348,13.72631]}},{"type":"Feature","properties":{"name":"Charn Issara","kind":"boat"},"geometry":{"type":"Point","coordinates":[100.58846,13.74269]}},{"type":"Feature","properties":{"name":"Taling Chan Pier","kind":"boat"},"geometry":{"type":"Point","coordinates":[100.45637,13.7758]}},{"type":"Feature","properties":{"name":"Wat Klang Kret Ferry","kind":"boat"},"geometry":{"type":"Point","coordinates":[100.49159,13.90466]}},{"type":"Feature","properties":{"name":"Pa Fai","kind":"boat"},"geometry":{"type":"Point","coordinates":[100.49031,13.90466]}},{"type":"Feature","properties":{"name":"Wat Klang","kind":"boat"},"geometry":{"type":"Point","coordinates":[100.63357,13.76346]}},{"type":"Feature","properties":{"name":"Wat Rakhang","kind":"boat"},"geometry":{"type":"Point","coordinates":[100.48671,13.75251]}},{"type":"Feature","properties":{"name":"Wat Kanlayanamit Pier","kind":"boat"},"geometry":{"type":"Point","coordinates":[100.4922,13.74096]}},{"type":"Feature","properties":{"name":"Thonburi Railway","kind":"boat"},"geometry":{"type":"Point","coordinates":[100.4878,13.75921]}},{"type":"Feature","properties":{"name":"Prannok","kind":"boat"},"geometry":{"type":"Point","coordinates":[100.48687,13.75631]}},{"type":"Feature","properties":{"name":"Tha Chang","kind":"boat"},"geometry":{"type":"Point","coordinates":[100.48832,13.75315]}},{"type":"Feature","properties":{"name":"Tha Phra Chan","kind":"boat"},"geometry":{"type":"Point","coordinates":[100.48868,13.75652]}},{"type":"Feature","properties":{"name":"Wat Arun Pier","kind":"boat"},"geometry":{"type":"Point","coordinates":[100.48921,13.74497]}},{"type":"Feature","properties":{"name":"\u0e17\u0e48\u0e32\u0e40\u0e23\u0e37\u0e2d\u0e01\u0e2a\u0e17. \u0e42\u0e17\u0e23\u0e04\u0e21\u0e19\u0e32\u0e04\u0e21","kind":"boat"},"geometry":{"type":"Point","coordinates":[100.51347,13.72696]}},{"type":"Feature","properties":{"name":"Thewet","kind":"boat"},"geometry":{"type":"Point","coordinates":[100.5001,13.77204]}},{"type":"Feature","properties":{"name":"\u0e17\u0e48\u0e32\u0e40\u0e23\u0e37\u0e2d\u0e02\u0e49\u0e32\u0e21\u0e1f\u0e32\u0e01\u0e27\u0e31\u0e14\u0e1a\u0e32\u0e07\u0e08\u0e32\u0e01","kind":"boat"},"geometry":{"type":"Point","coordinates":[100.48502,13.91547]}},{"type":"Feature","properties":{"name":"\u0e17\u0e48\u0e32\u0e40\u0e23\u0e37\u0e2d\u0e02\u0e49\u0e32\u0e21\u0e1f\u0e32\u0e01\u0e27\u0e31\u0e14\u0e40\u0e2a\u0e32\u0e18\u0e07\u0e17\u0e2d\u0e07","kind":"boat"},"geometry":{"type":"Point","coordinates":[100.48329,13.91423]}},{"type":"Feature","properties":{"name":"Taksin Pier","kind":"boat"},"geometry":{"type":"Point","coordinates":[100.51132,13.72002]}},{"type":"Feature","properties":{"name":"Phra Samut Chedi Pier","kind":"boat"},"geometry":{"type":"Point","coordinates":[100.58656,13.59718]}},{"type":"Feature","properties":{"name":"Wat Kharuehabodi","kind":"boat"},"geometry":{"type":"Point","coordinates":[100.49717,13.77189]}},{"type":"Feature","properties":{"name":"Wat Bowon Mongkhon Pier","kind":"boat"},"geometry":{"type":"Point","coordinates":[100.49808,13.77421]}},{"type":"Feature","properties":{"name":"Wat Suwan Pier","kind":"boat"},"geometry":{"type":"Point","coordinates":[100.51184,13.72409]}},{"type":"Feature","properties":{"name":"Si Phraya Pier (Gate 1)","kind":"boat"},"geometry":{"type":"Point","coordinates":[100.51294,13.72943]}},{"type":"Feature","properties":{"name":"Khlong San Pier","kind":"boat"},"geometry":{"type":"Point","coordinates":[100.5116,13.72911]}},{"type":"Feature","properties":{"name":"Hua Lamphong Pier","kind":"boat"},"geometry":{"type":"Point","coordinates":[100.51576,13.74091]}},{"type":"Feature","properties":{"name":"Khlong Lat Pho Pier","kind":"boat"},"geometry":{"type":"Point","coordinates":[100.53876,13.66787]}},{"type":"Feature","properties":{"name":"Rama III Pier","kind":"boat"},"geometry":{"type":"Point","coordinates":[100.53845,13.67037]}},{"type":"Feature","properties":{"name":"Sathorn Pier","kind":"boat"},"geometry":{"type":"Point","coordinates":[100.51257,13.71837]}},{"type":"Feature","properties":{"name":"Sapan Hua Chang","kind":"boat"},"geometry":{"type":"Point","coordinates":[100.53088,13.7492]}},{"type":"Feature","properties":{"name":"Wat Khlong Toei Nok Pier","kind":"boat"},"geometry":{"type":"Point","coordinates":[100.56358,13.7072]}},{"type":"Feature","properties":{"name":"Tongsonghong pier","kind":"boat"},"geometry":{"type":"Point","coordinates":[100.58851,13.90067]}},{"type":"Feature","properties":{"name":"boat","kind":"boat"},"geometry":{"type":"Point","coordinates":[100.45001,13.74047]}},{"type":"Feature","properties":{"name":"Wat Soi Thong","kind":"boat"},"geometry":{"type":"Point","coordinates":[100.51748,13.8121]}},{"type":"Feature","properties":{"name":"Kllong Banglamphu (not operated)","kind":"boat"},"geometry":{"type":"Point","coordinates":[100.49837,13.76271]}},{"type":"Feature","properties":{"name":"Icon Siam Pier 2","kind":"boat"},"geometry":{"type":"Point","coordinates":[100.51185,13.72663]}},{"type":"Feature","properties":{"name":"Icon Siam Pier 4","kind":"boat"},"geometry":{"type":"Point","coordinates":[100.51179,13.72756]}},{"type":"Feature","properties":{"name":"Bang Si Mueang Ferry Pier","kind":"boat"},"geometry":{"type":"Point","coordinates":[100.48927,13.84189]}},{"type":"Feature","properties":{"name":"Phra Sumen Fort","kind":"boat"},"geometry":{"type":"Point","coordinates":[100.49631,13.76411]}},{"type":"Feature","properties":{"name":"Wat Arun Ratchawararam","kind":"boat"},"geometry":{"type":"Point","coordinates":[100.48994,13.74388]}},{"type":"Feature","properties":{"name":"boat","kind":"boat"},"geometry":{"type":"Point","coordinates":[100.48426,13.7613]}},{"type":"Feature","properties":{"name":"Bangwa Pier (Phasi Charoen Canal)","kind":"boat"},"geometry":{"type":"Point","coordinates":[100.45818,13.71862]}},{"type":"Feature","properties":{"name":"Wat Intharam Pier","kind":"boat"},"geometry":{"type":"Point","coordinates":[100.48217,13.72368]}},{"type":"Feature","properties":{"name":"Nonthaburi Ferry Pier","kind":"boat"},"geometry":{"type":"Point","coordinates":[100.49102,13.84251]}},{"type":"Feature","properties":{"name":"Wat Sawetachat","kind":"boat"},"geometry":{"type":"Point","coordinates":[100.50718,13.71266]}},{"type":"Feature","properties":{"name":"Wat Thepnahree","kind":"boat"},"geometry":{"type":"Point","coordinates":[100.50233,13.78397]}},{"type":"Feature","properties":{"name":"Wat Thepakorn","kind":"boat"},"geometry":{"type":"Point","coordinates":[100.50343,13.78553]}},{"type":"Feature","properties":{"name":"Irrigation Dept.","kind":"boat"},"geometry":{"type":"Point","coordinates":[100.50953,13.78884]}},{"type":"Feature","properties":{"name":"Wat Awut Wikasitaram Pier","kind":"boat"},"geometry":{"type":"Point","coordinates":[100.50698,13.7894]}},{"type":"Feature","properties":{"name":"Kheaw Khai Ka","kind":"boat"},"geometry":{"type":"Point","coordinates":[100.5116,13.79112]}},{"type":"Feature","properties":{"name":"Pibul 1","kind":"boat"},"geometry":{"type":"Point","coordinates":[100.50559,13.81769]}},{"type":"Feature","properties":{"name":"Wat Khema","kind":"boat"},"geometry":{"type":"Point","coordinates":[100.50208,13.82183]}},{"type":"Feature","properties":{"name":"Wat Tuek","kind":"boat"},"geometry":{"type":"Point","coordinates":[100.49887,13.8245]}},{"type":"Feature","properties":{"name":"Office Residence Tiwanon","kind":"boat"},"geometry":{"type":"Point","coordinates":[100.49098,13.89801]}},{"type":"Feature","properties":{"name":"Ramnueng","kind":"boat"},"geometry":{"type":"Point","coordinates":[100.5989,13.74332]}},{"type":"Feature","properties":{"name":"Saphan Pracharat","kind":"boat"},"geometry":{"type":"Point","coordinates":[100.46309,13.7204]}},{"type":"Feature","properties":{"name":"U Rot Me Sai 9","kind":"boat"},"geometry":{"type":"Point","coordinates":[100.46623,13.72135]}},{"type":"Feature","properties":{"name":"Pratunam Phasi Charoen","kind":"boat"},"geometry":{"type":"Point","coordinates":[100.46813,13.72215]}},{"type":"Feature","properties":{"name":"Wat Ang Kaeo","kind":"boat"},"geometry":{"type":"Point","coordinates":[100.45445,13.71721]}},{"type":"Feature","properties":{"name":"Phetchakasem 31","kind":"boat"},"geometry":{"type":"Point","coordinates":[100.44491,13.714]}},{"type":"Feature","properties":{"name":"Wat Rang Bua","kind":"boat"},"geometry":{"type":"Point","coordinates":[100.4387,13.71167]}},{"type":"Feature","properties":{"name":"Phetchakasem 35","kind":"boat"},"geometry":{"type":"Point","coordinates":[100.43246,13.70958]}},{"type":"Feature","properties":{"name":"Phetchakasem 37","kind":"boat"},"geometry":{"type":"Point","coordinates":[100.43118,13.70914]}},{"type":"Feature","properties":{"name":"Phetchakasem 39","kind":"boat"},"geometry":{"type":"Point","coordinates":[100.42916,13.70844]}},{"type":"Feature","properties":{"name":"Wat Nimmanoradi","kind":"boat"},"geometry":{"type":"Point","coordinates":[100.42699,13.70765]}},{"type":"Feature","properties":{"name":"Kaset Bang Khae","kind":"boat"},"geometry":{"type":"Point","coordinates":[100.42119,13.70563]}},{"type":"Feature","properties":{"name":"Saphan Kanchanaphisek","kind":"boat"},"geometry":{"type":"Point","coordinates":[100.40632,13.70031]}},{"type":"Feature","properties":{"name":"Wat Muang","kind":"boat"},"geometry":{"type":"Point","coordinates":[100.39256,13.69543]}},{"type":"Feature","properties":{"name":"Phetchakasem 69","kind":"boat"},"geometry":{"type":"Point","coordinates":[100.38142,13.69176]}},{"type":"Feature","properties":{"name":"Phetra Pier","kind":"boat"},"geometry":{"type":"Point","coordinates":[100.53743,13.65773]}},{"type":"Feature","properties":{"name":"Pae Jeab Pier","kind":"boat"},"geometry":{"type":"Point","coordinates":[100.55924,13.70511]}},{"type":"Feature","properties":{"name":"Wat Bang Phueng Pier","kind":"boat"},"geometry":{"type":"Point","coordinates":[100.5236,13.67505]}},{"type":"Feature","properties":{"name":"Sathon Pier","kind":"boat"},"geometry":{"type":"Point","coordinates":[100.5129,13.71931]}},{"type":"Feature","properties":{"name":"Wat Thong Thammachat Pier","kind":"boat"},"geometry":{"type":"Point","coordinates":[100.50828,13.73522]}},{"type":"Feature","properties":{"name":"Sawatdi Pier","kind":"boat"},"geometry":{"type":"Point","coordinates":[100.50931,13.7362]}},{"type":"Feature","properties":{"name":"Hua Lamphong Station Pier","kind":"boat"},"geometry":{"type":"Point","coordinates":[100.51574,13.73869]}},{"type":"Feature","properties":{"name":"Nopphawong Pier","kind":"boat"},"geometry":{"type":"Point","coordinates":[100.5163,13.74495]}},{"type":"Feature","properties":{"name":"Yotse Pier","kind":"boat"},"geometry":{"type":"Point","coordinates":[100.51647,13.74683]}},{"type":"Feature","properties":{"name":"Department of Energy Pier","kind":"boat"},"geometry":{"type":"Point","coordinates":[100.51701,13.74929]}},{"type":"Feature","properties":{"name":"Nakhon Sawan Pier","kind":"boat"},"geometry":{"type":"Point","coordinates":[100.51321,13.75977]}},{"type":"Feature","properties":{"name":"Ratchadamnoen Nok Pier","kind":"boat"},"geometry":{"type":"Point","coordinates":[100.51009,13.76286]}},{"type":"Feature","properties":{"name":"Praca Thippatai","kind":"boat"},"geometry":{"type":"Point","coordinates":[100.50796,13.76508]}},{"type":"Feature","properties":{"name":"Thevaraj Market","kind":"boat"},"geometry":{"type":"Point","coordinates":[100.50201,13.77116]}},{"type":"Feature","properties":{"name":"Lan Luang Intersection Pier","kind":"boat"},"geometry":{"type":"Point","coordinates":[100.51686,13.75544]}},{"type":"Feature","properties":{"name":"Thewet Pier","kind":"boat"},"geometry":{"type":"Point","coordinates":[100.50481,13.76857]}},{"type":"Feature","properties":{"name":"Phra Nang Klao Bridge","kind":"boat"},"geometry":{"type":"Point","coordinates":[100.4773,13.87062]}},{"type":"Feature","properties":{"name":"Prommitpittaya School","kind":"boat"},"geometry":{"type":"Point","coordinates":[100.65587,13.77053]}},{"type":"Feature","properties":{"name":"Paseo","kind":"boat"},"geometry":{"type":"Point","coordinates":[100.66587,13.77585]}},{"type":"Feature","properties":{"name":"Seri Thai 26","kind":"boat"},"geometry":{"type":"Point","coordinates":[100.67455,13.7808]}},{"type":"Feature","properties":{"name":"Khlong Rahat","kind":"boat"},"geometry":{"type":"Point","coordinates":[100.67869,13.78308]}},{"type":"Feature","properties":{"name":"Rom Sai Village","kind":"boat"},"geometry":{"type":"Point","coordinates":[100.68144,13.78463]}},{"type":"Feature","properties":{"name":"Red Mosque Pier","kind":"boat"},"geometry":{"type":"Point","coordinates":[100.68925,13.78886]}},{"type":"Feature","properties":{"name":"Lolae Yai Community","kind":"boat"},"geometry":{"type":"Point","coordinates":[100.69563,13.79251]}},{"type":"Feature","properties":{"name":"Lower Bang Chan Dam Pier","kind":"boat"},"geometry":{"type":"Point","coordinates":[100.70424,13.7972]}},{"type":"Feature","properties":{"name":"Upper Bang Chan Dam Pier","kind":"boat"},"geometry":{"type":"Point","coordinates":[100.70478,13.7975]}},{"type":"Feature","properties":{"name":"Talat Minburi Pier","kind":"boat"},"geometry":{"type":"Point","coordinates":[100.72907,13.81094]}},{"type":"Feature","properties":{"name":"Khet Minburi Pier","kind":"boat"},"geometry":{"type":"Point","coordinates":[100.73123,13.8121]}},{"type":"Feature","properties":{"name":"Hilton Pier","kind":"boat"},"geometry":{"type":"Point","coordinates":[100.5117,13.7286]}},{"type":"Feature","properties":{"name":"Wat Lad Sanun Pier","kind":"boat"},"geometry":{"type":"Point","coordinates":[100.63571,13.95998]}},{"type":"Feature","properties":{"name":"\u0e17\u0e48\u0e32\u0e40\u0e23\u0e37\u0e2d\u0e25\u0e1e\u0e0a\u0e31\u0e22 \u0e15\u0e25\u0e32\u0e14\u0e40\u0e01\u0e48\u0e32\u0e23\u0e34\u0e21\u0e19\u0e49\u0e33\u0e1b\u0e32\u0e01\u0e40\u0e01\u0e23\u0e47\u0e14","kind":"boat"},"geometry":{"type":"Point","coordinates":[100.4954,13.91564]}},{"type":"Feature","properties":{"name":"boat","kind":"boat"},"geometry":{"type":"Point","coordinates":[100.49495,13.9176]}},{"type":"Feature","properties":{"name":"\u0e17\u0e48\u0e32\u0e40\u0e23\u0e37\u0e2d\u0e1a\u0e49\u0e32\u0e19\u0e42\u0e2d\u0e48\u0e07\u0e2d\u0e48\u0e32\u0e07","kind":"boat"},"geometry":{"type":"Point","coordinates":[100.48852,13.91357]}},{"type":"Feature","properties":{"name":"Tha Tien","kind":"boat"},"geometry":{"type":"Point","coordinates":[100.49032,13.74555]}},{"type":"Feature","properties":{"name":"Royal Orchid Sheraton Jetty","kind":"boat"},"geometry":{"type":"Point","coordinates":[100.51307,13.72887]}},{"type":"Feature","properties":{"name":"\u0e17\u0e48\u0e32\u0e40\u0e23\u0e37\u0e2d\u0e27\u0e31\u0e14\u0e04\u0e39\u0e2b\u0e32\u0e2a\u0e27\u0e23\u0e23\u0e04\u0e4c","kind":"boat"},"geometry":{"type":"Point","coordinates":[100.46262,13.73273]}},{"type":"Feature","properties":{"name":"Siam Charoen Nakhon Pier","kind":"boat"},"geometry":{"type":"Point","coordinates":[100.49069,13.70193]}},{"type":"Feature","properties":{"name":"\u0e17\u0e48\u0e32\u0e40\u0e23\u0e37\u0e2d\u0e27\u0e31\u0e14\u0e04\u0e25\u0e2d\u0e07\u0e20\u0e39\u0e21\u0e34","kind":"boat"},"geometry":{"type":"Point","coordinates":[100.55039,13.68005]}},{"type":"Feature","properties":{"name":"boat","kind":"boat"},"geometry":{"type":"Point","coordinates":[100.5869,13.68191]}},{"type":"Feature","properties":{"name":"Seri Thai 16","kind":"boat"},"geometry":{"type":"Point","coordinates":[100.67122,13.77898]}},{"type":"Feature","properties":{"name":"boat","kind":"boat"},"geometry":{"type":"Point","coordinates":[100.6716,13.77904]}},{"type":"Feature","properties":{"name":"Ferry Pier Wat Pai Lom","kind":"boat"},"geometry":{"type":"Point","coordinates":[100.4858,13.91369]}},{"type":"Feature","properties":{"name":"Wat Pho Pier","kind":"boat"},"geometry":{"type":"Point","coordinates":[100.49152,13.74403]}},{"type":"Feature","properties":{"name":"Santa Cruz Church","kind":"boat"},"geometry":{"type":"Point","coordinates":[100.49415,13.73973]}},{"type":"Feature","properties":{"name":"\u0e15\u0e25\u0e32\u0e14\u0e1e\u0e25\u0e39","kind":"boat"},"geometry":{"type":"Point","coordinates":[100.47712,13.72244]}},{"type":"Feature","properties":{"name":"Naowachamnian","kind":"boat"},"geometry":{"type":"Point","coordinates":[100.48536,13.72773]}},{"type":"Feature","properties":{"name":"Chedi Pier","kind":"boat"},"geometry":{"type":"Point","coordinates":[100.58693,13.59924]}},{"type":"Feature","properties":{"name":"boat","kind":"boat"},"geometry":{"type":"Point","coordinates":[100.53612,13.65269]}}]}