{"type":"FeatureCollection","name":"khet","crs":{"type":"name","properties":{"name":"urn:ogc:def:crs:OGC:1.3:CRS84"}},"features":[{"type":"Feature","properties":{"name":"Lam Luk Ka"},"geometry":{"type":"Polygon","coordinates":[[[100.91398,13.94649],[100.91484,14.06821],[100.8535,14.04623],[100.75559,14.01376],[100.72001,13.99984],[100.71794,13.99605],[100.70832,13.99494],[100.69716,13.99132],[100.69709,13.98758],[100.69176,13.9853],[100.60514,13.96555],[100.60653,13.95438],[100.61285,13.9552],[100.62255,13.95025],[100.62539,13.94785],[100.62552,13.93821],[100.63977,13.93759],[100.63961,13.93237],[100.64088,13.93141],[100.68973,13.93105],[100.68695,13.91625],[100.75191,13.91836],[100.79259,13.93139],[100.86331,13.93914],[100.91398,13.94649]]]}},{"type":"Feature","properties":{"name":"Nong Chok"},"geometry":{"type":"Polygon","coordinates":[[[100.91398,13.94649],[100.86331,13.93914],[100.79259,13.93139],[100.79234,13.89351],[100.79593,13.89055],[100.79094,13.88191],[100.78742,13.87999],[100.799,13.84929],[100.80183,13.84252],[100.80651,13.8441],[100.80776,13.83937],[100.80591,13.82609],[100.80393,13.82587],[100.80092,13.81745],[100.80177,13.80946],[100.80349,13.80797],[100.80775,13.80798],[100.79789,13.7987],[100.79509,13.79397],[100.79618,13.78931],[100.79389,13.78387],[100.80077,13.78165],[100.80878,13.78164],[100.81475,13.78428],[100.82281,13.77978],[100.8227,13.77781],[100.82923,13.77218],[100.83235,13.76748],[100.83749,13.7676],[100.84263,13.77098],[100.8608,13.77047],[100.86465,13.76514],[100.86706,13.75182],[100.87482,13.73916],[100.87883,13.73788],[100.90979,13.79048],[100.92827,13.80128],[100.93852,13.81426],[100.90755,13.8381],[100.91268,13.8468],[100.9042,13.84842],[100.90589,13.85523],[100.90679,13.88526],[100.91398,13.94649]]]}},{"type":"Feature","properties":{"name":"Bang Phli"},"geometry":{"type":"Polygon","coordinates":[[[100.77216,13.55366],[100.76308,13.55585],[100.76235,13.55893],[100.76799,13.58058],[100.76986,13.58299],[100.7702,13.58858],[100.77477,13.59633],[100.77935,13.59498],[100.77954,13.59926],[100.78229,13.60206],[100.78627,13.61495],[100.7839,13.62292],[100.78474,13.63114],[100.78272,13.6314],[100.78336,13.63723],[100.78059,13.63767],[100.78373,13.647],[100.78198,13.64735],[100.78531,13.65059],[100.78716,13.65633],[100.79353,13.66501],[100.79047,13.66786],[100.79215,13.671],[100.79067,13.67722],[100.77236,13.67343],[100.76321,13.67476],[100.77814,13.7006],[100.78555,13.70654],[100.78107,13.70989],[100.78336,13.71662],[100.76675,13.71528],[100.76451,13.7165],[100.75208,13.71591],[100.71625,13.71819],[100.71616,13.7169],[100.70999,13.71678],[100.71238,13.70124],[100.71109,13.7012],[100.70641,13.67862],[100.70546,13.6788],[100.70466,13.67298],[100.69976,13.66384],[100.69827,13.65633],[100.67862,13.66136],[100.66647,13.66721],[100.66691,13.66817],[100.66115,13.6717],[100.65987,13.67016],[100.65544,13.67229],[100.65379,13.66898],[100.64971,13.6525],[100.64481,13.65364],[100.6425,13.64818],[100.63428,13.63827],[100.62906,13.62882],[100.64725,13.62019],[100.66143,13.61666],[100.66356,13.61426],[100.67061,13.6139],[100.66766,13.60459],[100.67235,13.59955],[100.67315,13.59288],[100.67554,13.59198],[100.67586,13.58794],[100.67814,13.58596],[100.68189,13.58462],[100.68614,13.58622],[100.69059,13.5841],[100.69766,13.58651],[100.69902,13.58478],[100.69829,13.58102],[100.70317,13.56291],[100.70335,13.55559],[100.70761,13.54492],[100.70356,13.53819],[100.70061,13.52774],[100.69803,13.5276],[100.6978,13.52454],[100.69562,13.52341],[100.75054,13.51343],[100.75295,13.51167],[100.75584,13.51271],[100.76436,13.51143],[100.76441,13.5185],[100.76681,13.52351],[100.76406,13.52763],[100.76439,13.53022],[100.7708,13.54532],[100.77216,13.55366]]]}},{"type":"Feature","properties":{"name":"Mueang Samut Prakan"},"geometry":{"type":"Polygon","coordinates":[[[100.76586,13.52177],[100.76441,13.5185],[100.76436,13.51143],[100.75584,13.51271],[100.75295,13.51167],[100.75054,13.51343],[100.69562,13.52341],[100.6978,13.52454],[100.69803,13.5276],[100.70061,13.52774],[100.70356,13.53819],[100.70761,13.54492],[100.70335,13.55559],[100.70317,13.56291],[100.69829,13.58102],[100.69902,13.58478],[100.69766,13.58651],[100.69059,13.5841],[100.68614,13.58622],[100.68189,13.58462],[100.67814,13.58596],[100.67586,13.58794],[100.67554,13.59198],[100.67315,13.59288],[100.67235,13.59955],[100.66766,13.60459],[100.67061,13.6139],[100.66356,13.61426],[100.66143,13.61666],[100.64725,13.62019],[100.62906,13.62882],[100.63428,13.63827],[100.6425,13.64818],[100.64481,13.65364],[100.64076,13.65464],[100.63628,13.6485],[100.63292,13.64884],[100.61784,13.65606],[100.61637,13.65268],[100.60821,13.65592],[100.60872,13.65721],[100.60556,13.65848],[100.60351,13.6584],[100.60281,13.65651],[100.60132,13.65703],[100.60044,13.65946],[100.5921,13.66381],[100.59341,13.64973],[100.58702,13.62884],[100.58171,13.63034],[100.57676,13.63422],[100.57351,13.6351],[100.57276,13.63377],[100.56877,13.63733],[100.56436,13.63378],[100.55776,13.62306],[100.55248,13.62101],[100.55136,13.61856],[100.56233,13.61236],[100.58475,13.61016],[100.59097,13.60643],[100.59263,13.59993],[100.59188,13.59429],[100.57772,13.57202],[100.57613,13.56321],[100.58019,13.55371],[100.59567,13.5421],[100.59733,13.53899],[100.61189,13.5389],[100.62207,13.52948],[100.62275,13.52677],[100.63117,13.52064],[100.65416,13.51638],[100.6812,13.50623],[100.70566,13.5053],[100.70825,13.50435],[100.70777,13.50163],[100.7294,13.50049],[100.77658,13.49054],[100.78037,13.49197],[100.78095,13.49953],[100.78512,13.50878],[100.7831,13.51084],[100.78676,13.51312],[100.78466,13.51372],[100.78374,13.51631],[100.77985,13.51562],[100.77699,13.52053],[100.76586,13.52177]]]}},{"type":"Feature","properties":{"name":"Lat Krabang"},"geometry":{"type":"Polygon","coordinates":[[[100.86077,13.6969],[100.85507,13.69927],[100.87883,13.73788],[100.87482,13.73916],[100.86706,13.75182],[100.86465,13.76514],[100.8608,13.77047],[100.84263,13.77098],[100.83749,13.7676],[100.83235,13.76748],[100.82923,13.77218],[100.8227,13.77781],[100.82281,13.77978],[100.81475,13.78428],[100.80878,13.78164],[100.80077,13.78165],[100.79389,13.78387],[100.79618,13.78931],[100.79509,13.79397],[100.78855,13.80039],[100.78242,13.79878],[100.78398,13.7819],[100.77673,13.7832],[100.76486,13.78173],[100.75977,13.7755],[100.7554,13.77778],[100.74656,13.77787],[100.74646,13.77349],[100.73894,13.77322],[100.73893,13.7774],[100.73355,13.77478],[100.72444,13.7763],[100.72084,13.77826],[100.7164,13.77811],[100.71608,13.77169],[100.70661,13.75676],[100.70986,13.7564],[100.70839,13.7325],[100.70999,13.71678],[100.71616,13.7169],[100.71625,13.71819],[100.75208,13.71591],[100.76451,13.7165],[100.76675,13.71528],[100.78336,13.71662],[100.79455,13.71446],[100.85935,13.68956],[100.86077,13.6969]]]}},{"type":"Feature","properties":{"name":"Bang Khun Thian"},"geometry":{"type":"Polygon","coordinates":[[[100.37648,13.6197],[100.37852,13.59428],[100.38436,13.58952],[100.38597,13.58496],[100.385,13.57913],[100.3866,13.57795],[100.38665,13.57469],[100.38798,13.57429],[100.38949,13.56978],[100.39149,13.5689],[100.39131,13.56326],[100.39312,13.56147],[100.39467,13.55499],[100.39582,13.55347],[100.40102,13.55282],[100.40437,13.55506],[100.40852,13.55453],[100.4119,13.55548],[100.41256,13.55724],[100.41521,13.55715],[100.41464,13.55146],[100.42009,13.54524],[100.41832,13.54054],[100.41485,13.53883],[100.41407,13.53587],[100.40633,13.5358],[100.40682,13.50222],[100.40884,13.49339],[100.42163,13.49474],[100.42305,13.49682],[100.42369,13.49585],[100.42581,13.49756],[100.43074,13.49583],[100.43491,13.49659],[100.43493,13.49809],[100.43708,13.49677],[100.44306,13.50036],[100.45369,13.50198],[100.44446,13.55319],[100.44659,13.58702],[100.45083,13.59456],[100.45397,13.60601],[100.45755,13.6044],[100.46395,13.60585],[100.46587,13.6039],[100.46686,13.59695],[100.46969,13.59267],[100.47365,13.59388],[100.4731,13.59904],[100.47958,13.60609],[100.48171,13.61534],[100.47838,13.61978],[100.4762,13.62011],[100.47215,13.62407],[100.47565,13.63054],[100.47033,13.65904],[100.46461,13.65567],[100.46115,13.65887],[100.4583,13.65785],[100.45039,13.66081],[100.45343,13.6689],[100.45155,13.67543],[100.44884,13.67533],[100.44862,13.68153],[100.4468,13.68256],[100.37648,13.6197]]]}},{"type":"Feature","properties":{"name":"Bang Bua Thong"},"geometry":{"type":"Polygon","coordinates":[[[100.44963,13.88912],[100.44785,13.89794],[100.43935,13.89941],[100.44584,13.91994],[100.44132,13.9206],[100.44431,13.93091],[100.44204,13.93204],[100.45077,13.9482],[100.44581,13.9513],[100.41673,13.98324],[100.40965,13.98524],[100.40324,13.98315],[100.39864,13.98337],[100.39466,13.98579],[100.36458,13.99228],[100.35576,14.00045],[100.34965,13.99664],[100.35538,13.98495],[100.35605,13.97522],[100.35498,13.96194],[100.35001,13.95387],[100.35624,13.94989],[100.34101,13.93065],[100.33055,13.92153],[100.33269,13.91188],[100.34141,13.88999],[100.34176,13.88337],[100.35521,13.88236],[100.35733,13.8786],[100.36199,13.87871],[100.36414,13.88249],[100.36363,13.88993],[100.36923,13.91148],[100.37194,13.9116],[100.37325,13.91129],[100.37429,13.90299],[100.37715,13.89784],[100.39415,13.89323],[100.39705,13.89117],[100.39723,13.88746],[100.41971,13.87697],[100.41865,13.87623],[100.41929,13.87336],[100.42131,13.87194],[100.4191,13.86922],[100.42282,13.8685],[100.42277,13.86646],[100.42713,13.86346],[100.4287,13.86302],[100.43335,13.86946],[100.43923,13.87191],[100.44512,13.87103],[100.44793,13.86737],[100.45048,13.86834],[100.44834,13.87064],[100.449,13.87919],[100.44731,13.88252],[100.44948,13.88417],[100.44963,13.88912]]]}},{"type":"Feature","properties":{"name":"Thanyaburi"},"geometry":{"type":"Polygon","coordinates":[[[100.60143,13.99561],[100.60514,13.96555],[100.69176,13.9853],[100.69709,13.98758],[100.69716,13.99132],[100.70832,13.99494],[100.71794,13.99605],[100.72001,13.99984],[100.75559,14.01376],[100.8535,14.04623],[100.91484,14.06821],[100.91414,14.09963],[100.7555,14.04477],[100.73155,14.03328],[100.73156,14.03136],[100.72132,14.03086],[100.70408,14.0208],[100.67896,14.00974],[100.65322,14.00746],[100.60143,13.99561]]]}},{"type":"Feature","properties":{"name":"Khlong Sam Wa"},"geometry":{"type":"Polygon","coordinates":[[[100.67546,13.85638],[100.67084,13.85276],[100.67688,13.85163],[100.68385,13.84813],[100.68781,13.83864],[100.68794,13.83464],[100.69064,13.83235],[100.69704,13.82022],[100.69678,13.81549],[100.70578,13.82114],[100.71544,13.8219],[100.71457,13.83134],[100.72018,13.8315],[100.72019,13.83728],[100.72232,13.83749],[100.72255,13.82751],[100.72973,13.82767],[100.72966,13.83645],[100.73547,13.83846],[100.73589,13.83679],[100.73993,13.8374],[100.74416,13.83476],[100.74673,13.82475],[100.74932,13.82207],[100.799,13.84929],[100.78742,13.87999],[100.79094,13.88191],[100.79593,13.89055],[100.79234,13.89351],[100.79259,13.93139],[100.75191,13.91836],[100.68695,13.91625],[100.68379,13.91354],[100.68364,13.91152],[100.68697,13.90935],[100.69229,13.8981],[100.69211,13.88673],[100.69012,13.88471],[100.68993,13.8797],[100.6845,13.87425],[100.68577,13.86932],[100.68311,13.862],[100.68037,13.85867],[100.67546,13.85638]]]}},{"type":"Feature","properties":{"name":"Pak Kret"},"geometry":{"type":"Polygon","coordinates":[[[100.44963,13.88912],[100.4587,13.8903],[100.46308,13.89261],[100.47435,13.89216],[100.48469,13.88547],[100.49041,13.89442],[100.49741,13.89516],[100.50523,13.89132],[100.5466,13.88025],[100.55029,13.87759],[100.56755,13.9512],[100.56162,13.94938],[100.56008,13.95067],[100.55711,13.94983],[100.55482,13.95156],[100.55418,13.95038],[100.54453,13.95293],[100.54405,13.95441],[100.54202,13.95358],[100.54205,13.95548],[100.53903,13.9557],[100.53706,13.94989],[100.53152,13.94522],[100.52579,13.94363],[100.50965,13.94344],[100.50457,13.9406],[100.50178,13.93672],[100.50019,13.93698],[100.48914,13.94266],[100.48622,13.95014],[100.46693,13.96871],[100.46694,13.97049],[100.46226,13.97165],[100.46061,13.97645],[100.45839,13.97627],[100.45793,13.97752],[100.45662,13.97082],[100.45348,13.96734],[100.4344,13.98128],[100.38155,13.99472],[100.3805,13.98881],[100.39466,13.98579],[100.39864,13.98337],[100.40324,13.98315],[100.40965,13.98524],[100.41673,13.98324],[100.44581,13.9513],[100.45077,13.9482],[100.44204,13.93204],[100.44431,13.93091],[100.44132,13.9206],[100.44584,13.91994],[100.43935,13.89941],[100.44785,13.89794],[100.44963,13.88912]]]}},{"type":"Feature","properties":{"name":"Bang Yai"},"geometry":{"type":"Polygon","coordinates":[[[100.34176,13.88337],[100.33104,13.88155],[100.32794,13.88243],[100.32668,13.88565],[100.32214,13.88476],[100.3224,13.87737],[100.31139,13.8764],[100.30198,13.87883],[100.29964,13.8719],[100.29682,13.86955],[100.3192,13.82256],[100.32811,13.82559],[100.3481,13.82475],[100.34965,13.81681],[100.35943,13.81713],[100.36799,13.81567],[100.38473,13.82458],[100.3931,13.8265],[100.3994,13.83059],[100.40303,13.824],[100.41451,13.82912],[100.42332,13.83605],[100.42485,13.83556],[100.42548,13.8367],[100.42761,13.83386],[100.42965,13.83566],[100.43105,13.83469],[100.43786,13.8419],[100.44399,13.84461],[100.44409,13.84602],[100.44219,13.84614],[100.44312,13.84921],[100.4411,13.85202],[100.44378,13.85309],[100.44123,13.85783],[100.44825,13.86449],[100.44793,13.86737],[100.44512,13.87103],[100.43923,13.87191],[100.43335,13.86946],[100.4287,13.86302],[100.42713,13.86346],[100.42277,13.86646],[100.42282,13.8685],[100.4191,13.86922],[100.42131,13.87194],[100.41929,13.87336],[100.41865,13.87623],[100.41971,13.87697],[100.39723,13.88746],[100.39705,13.89117],[100.39415,13.89323],[100.37715,13.89784],[100.37429,13.90299],[100.37325,13.91129],[100.37194,13.9116],[100.36923,13.91148],[100.36363,13.88993],[100.36414,13.88249],[100.36199,13.87871],[100.35733,13.8786],[100.35521,13.88236],[100.34176,13.88337]]]}},{"type":"Feature","properties":{"name":"Mueang Nonthaburi"},"geometry":{"type":"Polygon","coordinates":[[[100.44793,13.86737],[100.44825,13.86449],[100.44123,13.85783],[100.44378,13.85309],[100.4411,13.85202],[100.44312,13.84921],[100.44219,13.84614],[100.44409,13.84602],[100.44399,13.84461],[100.43786,13.8419],[100.43105,13.83469],[100.42965,13.83566],[100.42761,13.83386],[100.44015,13.82789],[100.45632,13.83098],[100.46602,13.82533],[100.47344,13.83235],[100.4774,13.83162],[100.47761,13.82823],[100.47997,13.82816],[100.47935,13.82502],[100.48204,13.82242],[100.48171,13.82084],[100.48566,13.82085],[100.48557,13.81912],[100.48771,13.8193],[100.48868,13.81365],[100.49134,13.80956],[100.50235,13.81949],[100.5074,13.81604],[100.50629,13.81934],[100.50766,13.82281],[100.51012,13.82419],[100.50938,13.82561],[100.51183,13.82608],[100.5131,13.82473],[100.51334,13.82626],[100.53597,13.84604],[100.54363,13.84963],[100.55029,13.87759],[100.5466,13.88025],[100.50523,13.89132],[100.49741,13.89516],[100.49041,13.89442],[100.48469,13.88547],[100.47435,13.89216],[100.46308,13.89261],[100.4587,13.8903],[100.44963,13.88912],[100.44948,13.88417],[100.44731,13.88252],[100.449,13.87919],[100.44834,13.87064],[100.45048,13.86834],[100.44793,13.86737]]]}},{"type":"Feature","properties":{"name":"Min Buri"},"geometry":{"type":"Polygon","coordinates":[[[100.70496,13.79768],[100.70608,13.79833],[100.70768,13.79566],[100.7164,13.77811],[100.72084,13.77826],[100.72444,13.7763],[100.73355,13.77478],[100.73893,13.7774],[100.73894,13.77322],[100.74646,13.77349],[100.74656,13.77787],[100.7554,13.77778],[100.75977,13.7755],[100.76486,13.78173],[100.77673,13.7832],[100.78398,13.7819],[100.78242,13.79878],[100.78855,13.80039],[100.79509,13.79397],[100.79789,13.7987],[100.80775,13.80798],[100.80349,13.80797],[100.80177,13.80946],[100.80092,13.81745],[100.80393,13.82587],[100.80591,13.82609],[100.80776,13.83937],[100.80651,13.8441],[100.80183,13.84252],[100.799,13.84929],[100.74932,13.82207],[100.74673,13.82475],[100.74416,13.83476],[100.73993,13.8374],[100.73589,13.83679],[100.73547,13.83846],[100.72966,13.83645],[100.72973,13.82767],[100.72255,13.82751],[100.72232,13.83749],[100.72019,13.83728],[100.72018,13.8315],[100.71457,13.83134],[100.71544,13.8219],[100.70578,13.82114],[100.69678,13.81549],[100.6981,13.81185],[100.70186,13.80914],[100.70056,13.80458],[100.70496,13.79768]]]}},{"type":"Feature","properties":{"name":"Prawet"},"geometry":{"type":"Polygon","coordinates":[[[100.65379,13.66898],[100.65544,13.67229],[100.65987,13.67016],[100.66115,13.6717],[100.66691,13.66817],[100.66647,13.66721],[100.67862,13.66136],[100.69827,13.65633],[100.69976,13.66384],[100.70466,13.67298],[100.70546,13.6788],[100.70641,13.67862],[100.71109,13.7012],[100.71238,13.70124],[100.70999,13.71678],[100.70839,13.7325],[100.65901,13.73786],[100.6498,13.72877],[100.64793,13.71747],[100.65155,13.71825],[100.64919,13.70744],[100.651,13.70297],[100.63411,13.70076],[100.63717,13.69497],[100.64024,13.67794],[100.64523,13.66961],[100.65379,13.66898]]]}},{"type":"Feature","properties":{"name":"Thawi Watthana"},"geometry":{"type":"Polygon","coordinates":[[[100.40618,13.74944],[100.41106,13.80135],[100.32791,13.80413],[100.3307,13.79815],[100.3339,13.78217],[100.3319,13.78138],[100.33196,13.77762],[100.33094,13.77756],[100.3301,13.76309],[100.33302,13.75959],[100.33278,13.75537],[100.33448,13.75522],[100.33538,13.75329],[100.33499,13.74709],[100.33746,13.73604],[100.35936,13.738],[100.35268,13.75216],[100.36911,13.7539],[100.40618,13.74944]]]}},{"type":"Feature","properties":{"name":"Bang Khae"},"geometry":{"type":"Polygon","coordinates":[[[100.42782,13.68761],[100.42487,13.73206],[100.41776,13.73122],[100.41667,13.73561],[100.41551,13.73583],[100.41597,13.73828],[100.41441,13.7388],[100.41339,13.74793],[100.40618,13.74944],[100.36911,13.7539],[100.35268,13.75216],[100.38141,13.69157],[100.38524,13.67594],[100.38484,13.6714],[100.38742,13.67045],[100.38839,13.66804],[100.39276,13.66905],[100.42782,13.68761]]]}},{"type":"Feature","properties":{"name":"Sai Mai"},"geometry":{"type":"Polygon","coordinates":[[[100.6845,13.87425],[100.68993,13.8797],[100.69012,13.88471],[100.69211,13.88673],[100.69229,13.8981],[100.68697,13.90935],[100.68364,13.91152],[100.68379,13.91354],[100.68695,13.91625],[100.68973,13.93105],[100.64088,13.93141],[100.63961,13.93237],[100.63977,13.93759],[100.62552,13.93821],[100.62539,13.94785],[100.62255,13.95025],[100.62659,13.92613],[100.6087,13.8957],[100.61136,13.89237],[100.6088,13.88847],[100.61237,13.88622],[100.62388,13.88294],[100.62954,13.88554],[100.64033,13.88675],[100.64295,13.88573],[100.64428,13.88276],[100.65263,13.88295],[100.65311,13.88638],[100.65534,13.88558],[100.65619,13.88151],[100.65959,13.87949],[100.66253,13.87885],[100.66481,13.88107],[100.66934,13.88113],[100.67253,13.87968],[100.67381,13.8811],[100.67581,13.87911],[100.68131,13.87968],[100.6845,13.87425]]]}},{"type":"Feature","properties":{"name":"Bang Khen"},"geometry":{"type":"Polygon","coordinates":[[[100.6845,13.87425],[100.68131,13.87968],[100.67581,13.87911],[100.67381,13.8811],[100.67253,13.87968],[100.66934,13.88113],[100.66481,13.88107],[100.66253,13.87885],[100.65959,13.87949],[100.65619,13.88151],[100.65534,13.88558],[100.65311,13.88638],[100.65263,13.88295],[100.64428,13.88276],[100.64295,13.88573],[100.64033,13.88675],[100.62954,13.88554],[100.62388,13.88294],[100.61237,13.88622],[100.6088,13.88847],[100.61136,13.89237],[100.6087,13.8957],[100.61113,13.89978],[100.59481,13.88763],[100.58814,13.87962],[100.58655,13.85893],[100.58987,13.84393],[100.60236,13.84686],[100.60699,13.84927],[100.62,13.84837],[100.62868,13.84269],[100.63295,13.84255],[100.63712,13.84467],[100.64599,13.84737],[100.64815,13.84762],[100.64873,13.84621],[100.65864,13.84776],[100.6583,13.85239],[100.66114,13.85258],[100.6632,13.85603],[100.66475,13.85469],[100.66968,13.85696],[100.67546,13.85638],[100.68037,13.85867],[100.68311,13.862],[100.68577,13.86932],[100.6845,13.87425]]]}},{"type":"Feature","properties":{"name":"Don Mueang"},"geometry":{"type":"Polygon","coordinates":[[[100.61113,13.89978],[100.62659,13.92613],[100.62255,13.95025],[100.61285,13.9552],[100.60423,13.95426],[100.60568,13.9441],[100.59178,13.95034],[100.57406,13.95463],[100.56755,13.9512],[100.55889,13.91446],[100.56318,13.91333],[100.57179,13.90695],[100.58748,13.89938],[100.58274,13.89077],[100.59481,13.88763],[100.61113,13.89978]]]}},{"type":"Feature","properties":{"name":"Nong Khaem"},"geometry":{"type":"Polygon","coordinates":[[[100.38484,13.6714],[100.38524,13.67594],[100.38141,13.69157],[100.35936,13.738],[100.33746,13.73604],[100.33749,13.73391],[100.33514,13.73349],[100.33674,13.72979],[100.33477,13.72839],[100.33574,13.72299],[100.33023,13.72122],[100.33033,13.71972],[100.33311,13.72084],[100.33877,13.71277],[100.33612,13.71082],[100.33414,13.71306],[100.33233,13.71246],[100.33343,13.70649],[100.33235,13.69992],[100.33056,13.69917],[100.33357,13.6814],[100.33607,13.67699],[100.3376,13.67733],[100.34125,13.66131],[100.33938,13.65499],[100.34684,13.65534],[100.34952,13.65513],[100.35111,13.65748],[100.35661,13.6599],[100.35726,13.66168],[100.36057,13.6613],[100.38484,13.6714]]]}},{"type":"Feature","properties":{"name":"Taling Chan"},"geometry":{"type":"Polygon","coordinates":[[[100.41339,13.74793],[100.43505,13.74009],[100.44992,13.7405],[100.45442,13.74262],[100.45617,13.74213],[100.45713,13.74406],[100.46205,13.74442],[100.46196,13.75156],[100.45414,13.76299],[100.45357,13.76798],[100.45761,13.7773],[100.46768,13.7797],[100.46594,13.78716],[100.46618,13.78892],[100.46966,13.79479],[100.46415,13.79731],[100.41106,13.80135],[100.40618,13.74944],[100.41339,13.74793]]]}},{"type":"Feature","properties":{"name":"Bang Bon"},"geometry":{"type":"Polygon","coordinates":[[[100.4468,13.68256],[100.43773,13.69368],[100.42782,13.68761],[100.39276,13.66905],[100.38839,13.66804],[100.38742,13.67045],[100.38484,13.6714],[100.36057,13.6613],[100.35726,13.66168],[100.35661,13.6599],[100.35111,13.65748],[100.34952,13.65513],[100.34684,13.65534],[100.34632,13.64917],[100.34468,13.64923],[100.34545,13.64473],[100.34717,13.64506],[100.34736,13.64364],[100.34861,13.64373],[100.34852,13.64101],[100.35024,13.6405],[100.35434,13.64089],[100.35545,13.63654],[100.3587,13.63732],[100.35906,13.63278],[100.36601,13.63362],[100.3718,13.62273],[100.37648,13.6197],[100.4468,13.68256]]]}},{"type":"Feature","properties":{"name":"Chatuchak"},"geometry":{"type":"Polygon","coordinates":[[[100.58655,13.85893],[100.5579,13.85413],[100.54363,13.84963],[100.53712,13.82165],[100.54341,13.82066],[100.545,13.81771],[100.53742,13.79785],[100.56163,13.79496],[100.56646,13.79468],[100.56747,13.79928],[100.5749,13.80107],[100.58834,13.80298],[100.59112,13.83749],[100.58655,13.85893]]]}},{"type":"Feature","properties":{"name":"Thung Khru"},"geometry":{"type":"Polygon","coordinates":[[[100.47693,13.60296],[100.47693,13.59932],[100.48063,13.59801],[100.48191,13.59271],[100.48847,13.58946],[100.4912,13.58616],[100.49671,13.58889],[100.49904,13.59195],[100.49964,13.59564],[100.50482,13.5977],[100.51151,13.59685],[100.51374,13.60259],[100.52104,13.60514],[100.52035,13.60901],[100.51639,13.61272],[100.51424,13.62838],[100.51807,13.63487],[100.5151,13.63948],[100.51535,13.64503],[100.51695,13.64571],[100.51622,13.65135],[100.51752,13.6616],[100.51328,13.66074],[100.50823,13.66275],[100.50101,13.65296],[100.49404,13.65726],[100.49325,13.65574],[100.48539,13.65783],[100.48233,13.66307],[100.4758,13.66188],[100.47589,13.66089],[100.47007,13.66018],[100.47565,13.63054],[100.47215,13.62407],[100.4762,13.62011],[100.47838,13.61978],[100.48171,13.61534],[100.47958,13.60609],[100.47693,13.60296]]]}},{"type":"Feature","properties":{"name":"Saphan Sung"},"geometry":{"type":"Polygon","coordinates":[[[100.65909,13.73839],[100.65901,13.73786],[100.70839,13.7325],[100.70986,13.7564],[100.70661,13.75676],[100.71608,13.77169],[100.7164,13.77811],[100.70768,13.79566],[100.70608,13.79833],[100.66462,13.77537],[100.6688,13.76662],[100.66972,13.75628],[100.67889,13.7521],[100.67701,13.74906],[100.67226,13.74949],[100.66632,13.74705],[100.66303,13.74221],[100.66333,13.74023],[100.65909,13.73839]]]}},{"type":"Feature","properties":{"name":"Bang Kapi"},"geometry":{"type":"Polygon","coordinates":[[[100.66462,13.77537],[100.65618,13.77071],[100.64817,13.78477],[100.64272,13.78694],[100.64048,13.79223],[100.63925,13.80411],[100.6341,13.8095],[100.631,13.81548],[100.63133,13.81919],[100.62598,13.81931],[100.62448,13.8174],[100.61506,13.79977],[100.62364,13.80022],[100.62591,13.7881],[100.62905,13.7887],[100.63066,13.78411],[100.62925,13.77509],[100.62827,13.77565],[100.63049,13.76325],[100.61525,13.76127],[100.6041,13.7512],[100.60125,13.74809],[100.61109,13.74383],[100.63581,13.75012],[100.64556,13.74645],[100.64855,13.74407],[100.64748,13.74263],[100.64861,13.74182],[100.65909,13.73839],[100.66333,13.74023],[100.66303,13.74221],[100.66632,13.74705],[100.67226,13.74949],[100.67701,13.74906],[100.67889,13.7521],[100.66972,13.75628],[100.6688,13.76662],[100.66462,13.77537]]]}},{"type":"Feature","properties":{"name":"Khan Na Yao"},"geometry":{"type":"Polygon","coordinates":[[[100.64599,13.84737],[100.65021,13.84483],[100.64773,13.84417],[100.6486,13.83389],[100.6573,13.83557],[100.65791,13.83299],[100.66142,13.83348],[100.66127,13.82578],[100.66013,13.82443],[100.66287,13.81009],[100.66665,13.8051],[100.66868,13.80567],[100.67354,13.79632],[100.67657,13.78674],[100.6738,13.78383],[100.67514,13.78121],[100.70496,13.79768],[100.70056,13.80458],[100.70186,13.80914],[100.6981,13.81185],[100.69678,13.81549],[100.69704,13.82022],[100.69064,13.83235],[100.68794,13.83464],[100.68781,13.83864],[100.68385,13.84813],[100.67688,13.85163],[100.67084,13.85276],[100.67546,13.85638],[100.66968,13.85696],[100.66475,13.85469],[100.6632,13.85603],[100.66114,13.85258],[100.6583,13.85239],[100.65864,13.84776],[100.64873,13.84621],[100.64815,13.84762],[100.64599,13.84737]]]}},{"type":"Feature","properties":{"name":"Suan Luang"},"geometry":{"type":"Polygon","coordinates":[[[100.60125,13.74809],[100.59815,13.74114],[100.59847,13.7383],[100.60502,13.73771],[100.60528,13.72014],[100.60681,13.71903],[100.60674,13.71614],[100.60188,13.71195],[100.60642,13.70535],[100.61589,13.70684],[100.61632,13.70415],[100.62239,13.70501],[100.62321,13.70312],[100.63294,13.70303],[100.63411,13.70076],[100.651,13.70297],[100.64919,13.70744],[100.65155,13.71825],[100.64793,13.71747],[100.6498,13.72877],[100.65901,13.73786],[100.65909,13.73839],[100.64861,13.74182],[100.64748,13.74263],[100.64855,13.74407],[100.64556,13.74645],[100.63581,13.75012],[100.61109,13.74383],[100.60125,13.74809]]]}},{"type":"Feature","properties":{"name":"Bueng Kum"},"geometry":{"type":"Polygon","coordinates":[[[100.65618,13.77071],[100.67514,13.78121],[100.6738,13.78383],[100.67657,13.78674],[100.67354,13.79632],[100.66868,13.80567],[100.66665,13.8051],[100.66287,13.81009],[100.66013,13.82443],[100.66127,13.82578],[100.66142,13.83348],[100.65791,13.83299],[100.6573,13.83557],[100.6486,13.83389],[100.64773,13.84417],[100.65021,13.84483],[100.64599,13.84737],[100.63712,13.84467],[100.62448,13.8174],[100.62598,13.81931],[100.63133,13.81919],[100.631,13.81548],[100.6341,13.8095],[100.63925,13.80411],[100.64048,13.79223],[100.64272,13.78694],[100.64817,13.78477],[100.65618,13.77071]]]}},{"type":"Feature","properties":{"name":"Chom Thong"},"geometry":{"type":"Polygon","coordinates":[[[100.4468,13.68256],[100.44862,13.68153],[100.44884,13.67533],[100.45155,13.67543],[100.45343,13.6689],[100.45039,13.66081],[100.4583,13.65785],[100.46115,13.65887],[100.46461,13.65567],[100.47033,13.65904],[100.47007,13.66018],[100.47589,13.66089],[100.47556,13.66358],[100.48213,13.66477],[100.48019,13.6692],[100.48853,13.67953],[100.48736,13.68249],[100.48898,13.68465],[100.48151,13.69049],[100.48255,13.69483],[100.47954,13.69804],[100.47641,13.71118],[100.47192,13.71037],[100.46854,13.71239],[100.46923,13.71596],[100.46284,13.71789],[100.46334,13.71483],[100.4552,13.71258],[100.45589,13.70843],[100.45274,13.71012],[100.44999,13.70533],[100.43911,13.70936],[100.4347,13.6989],[100.43773,13.69368],[100.4468,13.68256]]]}},{"type":"Feature","properties":{"name":"Lak Si"},"geometry":{"type":"Polygon","coordinates":[[[100.59481,13.88763],[100.58274,13.89077],[100.58748,13.89938],[100.57179,13.90695],[100.56318,13.91333],[100.55889,13.91446],[100.54363,13.84963],[100.5579,13.85413],[100.58655,13.85893],[100.58814,13.87962],[100.59481,13.88763]]]}},{"type":"Feature","properties":{"name":"Lat Phrao"},"geometry":{"type":"Polygon","coordinates":[[[100.62448,13.8174],[100.63712,13.84467],[100.63295,13.84255],[100.62868,13.84269],[100.62,13.84837],[100.60699,13.84927],[100.60236,13.84686],[100.58987,13.84393],[100.59112,13.83749],[100.58838,13.80284],[100.5964,13.80128],[100.59592,13.7993],[100.59959,13.79615],[100.60535,13.79517],[100.61289,13.79481],[100.61506,13.79977],[100.62448,13.8174]]]}},{"type":"Feature","properties":{"name":"Bang Na"},"geometry":{"type":"Polygon","coordinates":[[[100.64024,13.67794],[100.62465,13.67841],[100.62277,13.68443],[100.61052,13.68428],[100.60033,13.67994],[100.58877,13.68302],[100.57946,13.66922],[100.5921,13.66381],[100.60044,13.65946],[100.60132,13.65703],[100.60281,13.65651],[100.60351,13.6584],[100.60556,13.65848],[100.60872,13.65721],[100.60821,13.65592],[100.61637,13.65268],[100.61784,13.65606],[100.63292,13.64884],[100.63628,13.6485],[100.64076,13.65464],[100.64971,13.6525],[100.65379,13.66898],[100.64523,13.66961],[100.64024,13.67794]]]}},{"type":"Feature","properties":{"name":"Phasi Charoen"},"geometry":{"type":"Polygon","coordinates":[[[100.43773,13.69368],[100.4347,13.6989],[100.43911,13.70936],[100.44999,13.70533],[100.45274,13.71012],[100.45589,13.70843],[100.4552,13.71258],[100.46334,13.71483],[100.46284,13.71789],[100.46923,13.71596],[100.47164,13.72244],[100.46719,13.72527],[100.46293,13.73225],[100.46205,13.74442],[100.45713,13.74406],[100.45617,13.74213],[100.45442,13.74262],[100.44992,13.7405],[100.43505,13.74009],[100.41339,13.74793],[100.41441,13.7388],[100.41597,13.73828],[100.41551,13.73583],[100.41667,13.73561],[100.41776,13.73122],[100.42487,13.73206],[100.42782,13.68761],[100.43773,13.69368]]]}},{"type":"Feature","properties":{"name":"Wang Thonglang"},"geometry":{"type":"Polygon","coordinates":[[[100.61506,13.79977],[100.61289,13.79481],[100.60535,13.79517],[100.59959,13.79615],[100.59592,13.7993],[100.5964,13.80128],[100.58838,13.80284],[100.59018,13.7865],[100.59352,13.77942],[100.59491,13.76259],[100.59792,13.75732],[100.6041,13.7512],[100.61525,13.76127],[100.63049,13.76325],[100.62827,13.77565],[100.62925,13.77509],[100.63066,13.78411],[100.62905,13.7887],[100.62591,13.7881],[100.62364,13.80022],[100.61506,13.79977]]]}},{"type":"Feature","properties":{"name":"Huai Khwang"},"geometry":{"type":"Polygon","coordinates":[[[100.6041,13.7512],[100.59792,13.75732],[100.59491,13.76259],[100.59352,13.77942],[100.59018,13.7865],[100.58834,13.80298],[100.5749,13.80107],[100.57342,13.77091],[100.56684,13.76152],[100.5633,13.74789],[100.59815,13.74114],[100.60125,13.74809],[100.6041,13.7512]]]}},{"type":"Feature","properties":{"name":"Vadhana"},"geometry":{"type":"Polygon","coordinates":[[[100.5633,13.74789],[100.55008,13.7484],[100.5507,13.74285],[100.59841,13.71033],[100.60166,13.70467],[100.60574,13.70651],[100.60188,13.71195],[100.60674,13.71614],[100.60681,13.71903],[100.60528,13.72014],[100.60502,13.73771],[100.59847,13.7383],[100.59815,13.74114],[100.5633,13.74789]]]}},{"type":"Feature","properties":{"name":"Phra Khanong"},"geometry":{"type":"Polygon","coordinates":[[[100.64024,13.67794],[100.63717,13.69497],[100.63294,13.70303],[100.62321,13.70312],[100.62239,13.70501],[100.61632,13.70415],[100.61589,13.70684],[100.60642,13.70535],[100.60574,13.70651],[100.58392,13.6961],[100.58861,13.69004],[100.58877,13.68302],[100.60033,13.67994],[100.61052,13.68428],[100.62277,13.68443],[100.62465,13.67841],[100.64024,13.67794]]]}},{"type":"Feature","properties":{"name":"Khlong Toei"},"geometry":{"type":"Polygon","coordinates":[[[100.60166,13.70467],[100.59841,13.71033],[100.5507,13.74285],[100.55487,13.70548],[100.55984,13.7062],[100.56713,13.70451],[100.57772,13.70022],[100.58392,13.6961],[100.60166,13.70467]]]}},{"type":"Feature","properties":{"name":"Bang Sue"},"geometry":{"type":"Polygon","coordinates":[[[100.51526,13.81327],[100.51749,13.80858],[100.5165,13.80036],[100.53233,13.79821],[100.5332,13.79983],[100.53742,13.79785],[100.545,13.81771],[100.54341,13.82066],[100.53712,13.82165],[100.54363,13.84963],[100.53597,13.84604],[100.51334,13.82626],[100.5131,13.82473],[100.51183,13.82608],[100.50938,13.82561],[100.51012,13.82419],[100.50766,13.82281],[100.50629,13.81934],[100.5074,13.81604],[100.51526,13.81327]]]}},{"type":"Feature","properties":{"name":"Rat Burana"},"geometry":{"type":"Polygon","coordinates":[[[100.49,13.69526],[100.48255,13.69483],[100.48151,13.69049],[100.48898,13.68465],[100.48736,13.68249],[100.48853,13.67953],[100.48019,13.6692],[100.48213,13.66477],[100.47556,13.66358],[100.4758,13.66188],[100.48233,13.66307],[100.48539,13.65783],[100.49325,13.65574],[100.49404,13.65726],[100.50101,13.65296],[100.50823,13.66275],[100.51328,13.66074],[100.51752,13.6616],[100.51759,13.66729],[100.52106,13.66919],[100.52042,13.67099],[100.522,13.67356],[100.5204,13.67564],[100.5234,13.67788],[100.51698,13.68268],[100.49556,13.68849],[100.49182,13.69157],[100.49,13.69526]]]}},{"type":"Feature","properties":{"name":"Yan Nawa"},"geometry":{"type":"Polygon","coordinates":[[[100.51698,13.68268],[100.5234,13.67788],[100.53081,13.67174],[100.53655,13.66928],[100.5419,13.66941],[100.54736,13.6726],[100.55162,13.67977],[100.55258,13.68796],[100.5514,13.70008],[100.55487,13.70548],[100.55375,13.71654],[100.54902,13.71925],[100.54168,13.7106],[100.54361,13.70701],[100.53915,13.70443],[100.53761,13.70723],[100.53416,13.70554],[100.52863,13.70599],[100.53176,13.69825],[100.51698,13.68268]]]}},{"type":"Feature","properties":{"name":"Bang Phlat"},"geometry":{"type":"Polygon","coordinates":[[[100.46618,13.78892],[100.46594,13.78716],[100.46911,13.7871],[100.49097,13.76193],[100.495,13.76574],[100.49904,13.77267],[100.50365,13.78358],[100.51389,13.7953],[100.5165,13.80036],[100.51749,13.80858],[100.51526,13.81327],[100.50068,13.8005],[100.46618,13.78892]]]}},{"type":"Feature","properties":{"name":"Bangkok Noi"},"geometry":{"type":"Polygon","coordinates":[[[100.46594,13.78716],[100.46768,13.7797],[100.45761,13.7773],[100.45357,13.76798],[100.45414,13.76299],[100.46196,13.75156],[100.46205,13.74442],[100.47134,13.74319],[100.47709,13.74406],[100.47814,13.74635],[100.48227,13.74612],[100.4883,13.74821],[100.48794,13.75685],[100.49097,13.76193],[100.46911,13.7871],[100.46594,13.78716]]]}},{"type":"Feature","properties":{"name":"Dusit"},"geometry":{"type":"Polygon","coordinates":[[[100.49904,13.77267],[100.50367,13.76995],[100.5094,13.76365],[100.51637,13.75671],[100.51737,13.7531],[100.51917,13.75273],[100.53742,13.79785],[100.5332,13.79983],[100.53233,13.79821],[100.5165,13.80036],[100.51389,13.7953],[100.50365,13.78358],[100.49904,13.77267]]]}},{"type":"Feature","properties":{"name":"Phaya Thai"},"geometry":{"type":"Polygon","coordinates":[[[100.53742,13.79785],[100.52789,13.77434],[100.54343,13.76272],[100.54834,13.76355],[100.56131,13.78706],[100.56163,13.79496],[100.53742,13.79785]]]}},{"type":"Feature","properties":{"name":"Bang Kho Laem"},"geometry":{"type":"Polygon","coordinates":[[[100.52995,13.70254],[100.52492,13.70089],[100.52064,13.70417],[100.51968,13.70322],[100.51463,13.70492],[100.51695,13.70965],[100.50817,13.71246],[100.49864,13.70514],[100.49201,13.70061],[100.49,13.69526],[100.49182,13.69157],[100.49556,13.68849],[100.51698,13.68268],[100.53176,13.69825],[100.52995,13.70254]]]}},{"type":"Feature","properties":{"name":"Din Daeng"},"geometry":{"type":"Polygon","coordinates":[[[100.56163,13.79496],[100.56131,13.78706],[100.54834,13.76355],[100.54343,13.76272],[100.5504,13.75869],[100.55247,13.75599],[100.56497,13.75513],[100.56684,13.76152],[100.57342,13.77091],[100.5749,13.80107],[100.56747,13.79928],[100.56646,13.79468],[100.56163,13.79496]]]}},{"type":"Feature","properties":{"name":"Thon Buri"},"geometry":{"type":"Polygon","coordinates":[[[100.49864,13.70514],[100.49315,13.71291],[100.49221,13.72312],[100.49765,13.73922],[100.49197,13.74217],[100.48738,13.7352],[100.48457,13.72487],[100.47856,13.72259],[100.47164,13.72244],[100.46923,13.71596],[100.46854,13.71239],[100.47192,13.71037],[100.47641,13.71118],[100.47954,13.69804],[100.48255,13.69483],[100.49,13.69526],[100.49201,13.70061],[100.49864,13.70514]]]}},{"type":"Feature","properties":{"name":"Pathum Wan"},"geometry":{"type":"Polygon","coordinates":[[[100.51569,13.73805],[100.55291,13.72277],[100.55008,13.7484],[100.52529,13.7493],[100.51917,13.75273],[100.51737,13.7531],[100.51569,13.73805]]]}},{"type":"Feature","properties":{"name":"Ratchathewi"},"geometry":{"type":"Polygon","coordinates":[[[100.54343,13.76272],[100.52789,13.77434],[100.51917,13.75273],[100.52529,13.7493],[100.5633,13.74789],[100.56497,13.75513],[100.55247,13.75599],[100.5504,13.75869],[100.54343,13.76272]]]}},{"type":"Feature","properties":{"name":"Sathon"},"geometry":{"type":"Polygon","coordinates":[[[100.52995,13.70254],[100.52863,13.70599],[100.53416,13.70554],[100.53761,13.70723],[100.53915,13.70443],[100.54361,13.70701],[100.54168,13.7106],[100.54902,13.71925],[100.55375,13.71654],[100.55291,13.72277],[100.54475,13.72617],[100.51741,13.71811],[100.51203,13.71934],[100.50817,13.71246],[100.51695,13.70965],[100.51463,13.70492],[100.51968,13.70322],[100.52064,13.70417],[100.52492,13.70089],[100.52995,13.70254]]]}},{"type":"Feature","properties":{"name":"Bangkok Yai"},"geometry":{"type":"Polygon","coordinates":[[[100.46205,13.74442],[100.46293,13.73225],[100.46719,13.72527],[100.47164,13.72244],[100.47856,13.72259],[100.48457,13.72487],[100.48738,13.7352],[100.49197,13.74217],[100.4883,13.74821],[100.48227,13.74612],[100.47814,13.74635],[100.47709,13.74406],[100.47134,13.74319],[100.46205,13.74442]]]}},{"type":"Feature","properties":{"name":"Khlong San"},"geometry":{"type":"Polygon","coordinates":[[[100.50817,13.71246],[100.51203,13.71934],[100.5123,13.72939],[100.50916,13.73541],[100.49765,13.73922],[100.49221,13.72312],[100.49315,13.71291],[100.49864,13.70514],[100.50817,13.71246]]]}},{"type":"Feature","properties":{"name":"Phra Nakhon"},"geometry":{"type":"Polygon","coordinates":[[[100.49097,13.76193],[100.48794,13.75685],[100.4883,13.74821],[100.49197,13.74217],[100.49765,13.73922],[100.49981,13.73863],[100.5039,13.74685],[100.50571,13.75618],[100.5094,13.76365],[100.50367,13.76995],[100.49904,13.77267],[100.495,13.76574],[100.49097,13.76193]]]}},{"type":"Feature","properties":{"name":"Bang Rak"},"geometry":{"type":"Polygon","coordinates":[[[100.51203,13.71934],[100.51741,13.71811],[100.54475,13.72617],[100.51569,13.73805],[100.5155,13.73244],[100.5123,13.72939],[100.51203,13.71934]]]}},{"type":"Feature","properties":{"name":"Pom Prap Sattru Phai"},"geometry":{"type":"Polygon","coordinates":[[[100.5094,13.76365],[100.50571,13.75618],[100.5039,13.74685],[100.51569,13.73805],[100.51737,13.7531],[100.51637,13.75671],[100.5094,13.76365]]]}},{"type":"Feature","properties":{"name":"Samphanthawong"},"geometry":{"type":"Polygon","coordinates":[[[100.51569,13.73805],[100.5039,13.74685],[100.49981,13.73863],[100.50916,13.73541],[100.5123,13.72939],[100.5155,13.73244],[100.51569,13.73805]]]}}]}