{"type":"FeatureCollection","name":"rail","crs":{"type":"name","properties":{"name":"urn:ogc:def:crs:OGC:1.3:CRS84"}},"features":[{"type":"Feature","properties":{"name":null},"geometry":{"type":"LineString","coordinates":[[100.5701,13.76632],[100.56891,13.7637],[100.56883,13.76262],[100.56935,13.76137],[100.57041,13.7605],[100.57169,13.76007],[100.57315,13.76026],[100.57438,13.76106]]}},{"type":"Feature","properties":{"name":null},"geometry":{"type":"LineString","coordinates":[[100.55591,13.80617],[100.5559,13.80373],[100.5555,13.80166]]}},{"type":"Feature","properties":{"name":null},"geometry":{"type":"LineString","coordinates":[[100.5775,13.76229],[100.57912,13.76237]]}},{"type":"Feature","properties":{"name":null},"geometry":{"type":"LineString","coordinates":[[100.56562,13.75962],[100.56699,13.76064],[100.56803,13.76096],[100.56923,13.76092],[100.57204,13.75998],[100.57309,13.76011],[100.57429,13.76085]]}},{"type":"Feature","properties":{"name":null},"geometry":{"type":"LineString","coordinates":[[100.57429,13.76085],[100.5775,13.76229]]}},{"type":"Feature","properties":{"name":null},"geometry":{"type":"LineString","coordinates":[[100.5775,13.76229],[100.58259,13.76411]]}},{"type":"Feature","properties":{"name":null},"geometry":{"type":"LineString","coordinates":[[100.58095,13.76355],[100.58192,13.76376]]}},{"type":"Feature","properties":{"name":null},"geometry":{"type":"LineString","coordinates":[[100.58075,13.76348],[100.58194,13.76371]]}},{"type":"Feature","properties":{"name":null},"geometry":{"type":"LineString","coordinates":[[100.58112,13.76353],[100.58196,13.76366]]}},{"type":"Feature","properties":{"name":null},"geometry":{"type":"LineString","coordinates":[[100.57899,13.76278],[100.5816,13.76288],[100.58465,13.76386]]}},{"type":"Feature","properties":{"name":null},"geometry":{"type":"LineString","coordinates":[[100.58473,13.76435],[100.58203,13.76346]]}},{"type":"Feature","properties":{"name":null},"geometry":{"type":"LineString","coordinates":[[100.58475,13.76429],[100.58205,13.7634]]}},{"type":"Feature","properties":{"name":null},"geometry":{"type":"LineString","coordinates":[[100.57698,13.76203],[100.57839,13.76316],[100.58054,13.76389]]}},{"type":"Feature","properties":{"name":null},"geometry":{"type":"LineString","coordinates":[[100.58532,13.76537],[100.58308,13.76499]]}},{"type":"Feature","properties":{"name":null},"geometry":{"type":"LineString","coordinates":[[100.58436,13.76505],[100.58058,13.76378]]}},{"type":"Feature","properties":{"name":null},"geometry":{"type":"LineString","coordinates":[[100.58441,13.76491],[100.58062,13.76365]]}},{"type":"Feature","properties":{"name":null},"geometry":{"type":"LineString","coordinates":[[100.58482,13.76409],[100.58212,13.7632]]}},{"type":"Feature","properties":{"name":null},"geometry":{"type":"LineString","coordinates":[[100.58477,13.76423],[100.58207,13.76334]]}},{"type":"Feature","properties":{"name":null},"geometry":{"type":"LineString","coordinates":[[100.58434,13.76508],[100.58057,13.76382]]}},{"type":"Feature","properties":{"name":null},"geometry":{"type":"LineString","coordinates":[[100.58533,13.76536],[100.58459,13.76475],[100.58314,13.7643]]}},{"type":"Feature","properties":{"name":null},"geometry":{"type":"LineString","coordinates":[[100.58459,13.76475],[100.58346,13.76429]]}},{"type":"Feature","properties":{"name":null},"geometry":{"type":"LineString","coordinates":[[100.58435,13.76461],[100.58348,13.76424]]}},{"type":"Feature","properties":{"name":null},"geometry":{"type":"LineString","coordinates":[[100.58421,13.76452],[100.5835,13.76418]]}},{"type":"Feature","properties":{"name":null},"geometry":{"type":"LineString","coordinates":[[100.57998,13.7626],[100.5791,13.76246]]}},{"type":"Feature","properties":{"name":null},"geometry":{"type":"LineString","coordinates":[[100.5812,13.76363],[100.58194,13.76409]]}},{"type":"Feature","properties":{"name":null},"geometry":{"type":"LineString","coordinates":[[100.5843,13.7652],[100.58053,13.76393]]}},{"type":"Feature","properties":{"name":"BTS Silom Line"},"geometry":{"type":"LineString","coordinates":[[100.45681,13.72498],[100.45727,13.72413],[100.45766,13.72176]]}},{"type":"Feature","properties":{"name":"MRT Blue Line"},"geometry":{"type":"LineString","coordinates":[[100.54348,13.72656],[100.55784,13.72073],[100.55928,13.72119],[100.56028,13.72469],[100.55966,13.73278],[100.56076,13.73489],[100.56134,13.7369],[100.5621,13.74338],[100.56562,13.75962],[100.56638,13.76133],[100.57259,13.76962],[100.57303,13.7707],[100.57468,13.80434],[100.57434,13.80538],[100.57366,13.80598],[100.55956,13.81377],[100.55884,13.8137],[100.55799,13.81283],[100.55647,13.80829],[100.55047,13.79846],[100.54923,13.79797],[100.54704,13.79784],[100.54609,13.79812],[100.54452,13.80068],[100.54103,13.80235]]}},{"type":"Feature","properties":{"name":"BTS Sukhumvit Line"},"geometry":{"type":"LineString","coordinates":[[100.53519,13.74552],[100.55041,13.74279],[100.55354,13.74181],[100.59746,13.7107]]}},{"type":"Feature","properties":{"name":"BTS Silom Line"},"geometry":{"type":"LineString","coordinates":[[100.5159,13.71838],[100.51754,13.71817],[100.52961,13.72158],[100.52998,13.72249],[100.52821,13.72542],[100.52837,13.72639],[100.53593,13.72917],[100.53703,13.73065],[100.53879,13.73529],[100.54018,13.74433],[100.53969,13.7447],[100.52908,13.74649]]}},{"type":"Feature","properties":{"name":"BTS Sukhumvit Line"},"geometry":{"type":"LineString","coordinates":[[100.53088,13.74778],[100.53187,13.75341],[100.53757,13.76363],[100.53905,13.76456],[100.53901,13.7662],[100.54127,13.77036],[100.55135,13.79826],[100.55638,13.80699]]}},{"type":"Feature","properties":{"name":"BTS Silom Line"},"geometry":{"type":"LineString","coordinates":[[100.52909,13.74653],[100.53028,13.74632]]}},{"type":"Feature","properties":{"name":"BTS Silom Line"},"geometry":{"type":"LineString","coordinates":[[100.5159,13.71838],[100.5176,13.71814],[100.52978,13.72167],[100.52998,13.72263],[100.52823,13.72549],[100.52825,13.72614],[100.52872,13.72659],[100.53624,13.72937],[100.53716,13.73083],[100.53875,13.73496],[100.53976,13.74134]]}},{"type":"Feature","properties":{"name":null},"geometry":{"type":"LineString","coordinates":[[100.55587,13.80419],[100.55583,13.8039]]}},{"type":"Feature","properties":{"name":null},"geometry":{"type":"LineString","coordinates":[[100.55577,13.80491],[100.55578,13.80393]]}},{"type":"Feature","properties":{"name":null},"geometry":{"type":"LineString","coordinates":[[100.55577,13.80468],[100.55572,13.80396]]}},{"type":"Feature","properties":{"name":null},"geometry":{"type":"LineString","coordinates":[[100.55576,13.80456],[100.55566,13.804]]}},{"type":"Feature","properties":{"name":null},"geometry":{"type":"LineString","coordinates":[[100.55571,13.80267],[100.55556,13.80234]]}},{"type":"Feature","properties":{"name":null},"geometry":{"type":"LineString","coordinates":[[100.55582,13.8061],[100.55559,13.80404]]}},{"type":"Feature","properties":{"name":null},"geometry":{"type":"LineString","coordinates":[[100.55577,13.80299],[100.55548,13.80249]]}},{"type":"Feature","properties":{"name":"BTS Silom Line"},"geometry":{"type":"LineString","coordinates":[[100.53028,13.74632],[100.53985,13.74466],[100.54028,13.74388],[100.53976,13.74134]]}},{"type":"Feature","properties":{"name":"MRT Blue Line"},"geometry":{"type":"LineString","coordinates":[[100.54103,13.80235],[100.53802,13.80373]]}},{"type":"Feature","properties":{"name":"MRT Blue Line"},"geometry":{"type":"LineString","coordinates":[[100.53802,13.80373],[100.53636,13.80463]]}},{"type":"Feature","properties":{"name":"MRT Blue Line"},"geometry":{"type":"LineString","coordinates":[[100.5358,13.80493],[100.53343,13.80577],[100.52935,13.80635],[100.52004,13.80639],[100.51334,13.80463],[100.51202,13.80361],[100.51096,13.80053],[100.5031,13.79006],[100.48823,13.78065],[100.4873,13.77978],[100.48138,13.77238],[100.46992,13.75934],[100.4693,13.75822],[100.47109,13.73617],[100.47253,13.73269]]}},{"type":"Feature","properties":{"name":"MRT Blue Line"},"geometry":{"type":"LineString","coordinates":[[100.46844,13.72644],[100.47282,13.72896],[100.47373,13.7292],[100.47448,13.7285],[100.47624,13.72506]]}},{"type":"Feature","properties":{"name":"MRT Blue Line"},"geometry":{"type":"LineString","coordinates":[[100.40949,13.71086],[100.43861,13.7133],[100.45274,13.71795],[100.47343,13.7293]]}},{"type":"Feature","properties":{"name":"MRT Blue Line"},"geometry":{"type":"LineString","coordinates":[[100.4787,13.73326],[100.48114,13.73708],[100.48247,13.73802],[100.49026,13.73847],[100.49277,13.73946],[100.49408,13.74082],[100.49465,13.74204],[100.49483,13.74304],[100.49451,13.74637],[100.4947,13.74687],[100.49535,13.74724],[100.50418,13.74672],[100.51465,13.73854],[100.51705,13.73741]]}},{"type":"Feature","properties":{"name":null},"geometry":{"type":"LineString","coordinates":[[100.40909,13.89048],[100.4088,13.88753]]}},{"type":"Feature","properties":{"name":null},"geometry":{"type":"LineString","coordinates":[[100.40786,13.89948],[100.40838,13.89787]]}},{"type":"Feature","properties":{"name":null},"geometry":{"type":"LineString","coordinates":[[100.40726,13.90303],[100.40755,13.90063],[100.4085,13.89795]]}},{"type":"Feature","properties":{"name":null},"geometry":{"type":"LineString","coordinates":[[100.40905,13.89052],[100.4087,13.88883],[100.40911,13.88415]]}},{"type":"Feature","properties":{"name":"MRT Purple Line"},"geometry":{"type":"LineString","coordinates":[[100.53058,13.80515],[100.53269,13.8225],[100.53237,13.82457],[100.53146,13.82569],[100.5142,13.84009],[100.51269,13.84144],[100.51202,13.84258],[100.51222,13.84457],[100.51857,13.85443],[100.51852,13.85604],[100.51732,13.85849],[100.51645,13.8594],[100.51546,13.85979],[100.50553,13.86136],[100.5026,13.86221],[100.49788,13.86402],[100.48732,13.86943],[100.4853,13.87018],[100.48307,13.87046],[100.47168,13.8696],[100.46929,13.86981],[100.46416,13.87116],[100.45297,13.87606],[100.45047,13.87671],[100.44823,13.87683],[100.41524,13.87435],[100.41275,13.87476],[100.4106,13.87605],[100.40951,13.8781],[100.40803,13.89374]]}},{"type":"Feature","properties":{"name":null},"geometry":{"type":"LineString","coordinates":[[100.40747,13.901],[100.40741,13.90126]]}},{"type":"Feature","properties":{"name":null},"geometry":{"type":"LineString","coordinates":[[100.40902,13.8851],[100.409,13.88435]]}},{"type":"Feature","properties":{"name":null},"geometry":{"type":"LineString","coordinates":[[100.40737,13.90166],[100.40729,13.90195]]}},{"type":"Feature","properties":{"name":"MRT Blue Line"},"geometry":{"type":"LineString","coordinates":[[100.53636,13.80463],[100.5358,13.80493]]}},{"type":"Feature","properties":{"name":"BTS Sukhumvit Line"},"geometry":{"type":"LineString","coordinates":[[100.5633,13.81875],[100.55764,13.80914]]}},{"type":"Feature","properties":{"name":"BTS Silom Line"},"geometry":{"type":"LineString","coordinates":[[100.52909,13.74653],[100.5255,13.74716]]}},{"type":"Feature","properties":{"name":null},"geometry":{"type":"LineString","coordinates":[[100.61167,13.55935],[100.61217,13.55766],[100.61138,13.55647]]}},{"type":"Feature","properties":{"name":null},"geometry":{"type":"LineString","coordinates":[[100.61155,13.55959],[100.61208,13.55795],[100.61163,13.55704]]}},{"type":"Feature","properties":{"name":"MRT Purple Line"},"geometry":{"type":"LineString","coordinates":[[100.40816,13.89375],[100.40971,13.87777],[100.41065,13.87609],[100.41277,13.8748],[100.41524,13.8744],[100.44617,13.87676],[100.45047,13.87677],[100.4536,13.87593],[100.46358,13.87145],[100.46998,13.8698],[100.47232,13.86967],[100.48247,13.87053],[100.48531,13.87023],[100.48736,13.86953],[100.4979,13.86406],[100.5015,13.86264],[100.50674,13.86119],[100.51549,13.85991],[100.51649,13.85947],[100.51736,13.85851],[100.51856,13.85605],[100.51861,13.85442],[100.51226,13.84455],[100.51206,13.84259],[100.51272,13.84147],[100.53149,13.82573],[100.53254,13.82436],[100.53281,13.82249],[100.53074,13.80513]]}},{"type":"Feature","properties":{"name":"MRT Blue Line"},"geometry":{"type":"LineString","coordinates":[[100.47777,13.73184],[100.4787,13.73326]]}},{"type":"Feature","properties":{"name":null},"geometry":{"type":"LineString","coordinates":[[100.45123,13.71742],[100.4476,13.71617],[100.44713,13.71571],[100.44683,13.71356],[100.44744,13.71177],[100.44651,13.70982]]}},{"type":"Feature","properties":{"name":null},"geometry":{"type":"LineString","coordinates":[[100.43972,13.71367],[100.4434,13.71478],[100.44475,13.71447],[100.44673,13.71324],[100.44735,13.71212],[100.44732,13.71139],[100.44646,13.70987]]}},{"type":"Feature","properties":{"name":"MRT Yellow Line"},"geometry":{"type":"LineString","coordinates":[[100.64455,13.66525],[100.64139,13.65226],[100.6275,13.62874],[100.62689,13.62819],[100.62575,13.62824],[100.60862,13.63743],[100.60381,13.64142],[100.60061,13.6436],[100.59662,13.64504]]}},{"type":"Feature","properties":{"name":null},"geometry":{"type":"LineString","coordinates":[[100.4461,13.70924],[100.44309,13.70455]]}},{"type":"Feature","properties":{"name":null},"geometry":{"type":"LineString","coordinates":[[100.4459,13.70887],[100.44443,13.70621]]}},{"type":"Feature","properties":{"name":null},"geometry":{"type":"LineString","coordinates":[[100.44586,13.70879],[100.4432,13.70448]]}},{"type":"Feature","properties":{"name":null},"geometry":{"type":"LineString","coordinates":[[100.44581,13.70881],[100.44304,13.70458]]}},{"type":"Feature","properties":{"name":null},"geometry":{"type":"LineString","coordinates":[[100.4456,13.70846],[100.44313,13.70453]]}},{"type":"Feature","properties":{"name":null},"geometry":{"type":"LineString","coordinates":[[100.44547,13.70832],[100.44316,13.70451]]}},{"type":"Feature","properties":{"name":null},"geometry":{"type":"LineString","coordinates":[[100.44614,13.70887],[100.44401,13.7049]]}},{"type":"Feature","properties":{"name":null},"geometry":{"type":"LineString","coordinates":[[100.44559,13.70752],[100.44385,13.70497]]}},{"type":"Feature","properties":{"name":null},"geometry":{"type":"LineString","coordinates":[[100.44602,13.708],[100.44432,13.70471]]}},{"type":"Feature","properties":{"name":null},"geometry":{"type":"LineString","coordinates":[[100.44595,13.70778],[100.44417,13.7048]]}},{"type":"Feature","properties":{"name":null},"geometry":{"type":"LineString","coordinates":[[100.44598,13.70772],[100.44439,13.70466]]}},{"type":"Feature","properties":{"name":null},"geometry":{"type":"LineString","coordinates":[[100.44585,13.70682],[100.44451,13.70453]]}},{"type":"Feature","properties":{"name":null},"geometry":{"type":"LineString","coordinates":[[100.44562,13.70628],[100.44532,13.70586]]}},{"type":"Feature","properties":{"name":null},"geometry":{"type":"LineString","coordinates":[[100.44651,13.70982],[100.4458,13.70651],[100.44456,13.7045]]}},{"type":"Feature","properties":{"name":null},"geometry":{"type":"LineString","coordinates":[[100.44646,13.70987],[100.4459,13.70887]]}},{"type":"Feature","properties":{"name":"MRT Pink Line"},"geometry":{"type":"LineString","coordinates":[[100.5541,13.89541],[100.5744,13.88828],[100.58321,13.88375],[100.58538,13.88211],[100.59268,13.87798]]}},{"type":"Feature","properties":{"name":"Switch track from Silom line to Sukhumvit line"},"geometry":{"type":"LineString","coordinates":[[100.53736,13.74502],[100.53665,13.74519]]}},{"type":"Feature","properties":{"name":"Pink Line"},"geometry":{"type":"LineString","coordinates":[[100.54404,13.90142],[100.54368,13.90286],[100.54378,13.9073],[100.54565,13.91838]]}},{"type":"Feature","properties":{"name":"MRT Pink Line"},"geometry":{"type":"LineString","coordinates":[[100.64208,13.84968],[100.66292,13.83826],[100.6788,13.82286],[100.68858,13.81376],[100.68971,13.81306],[100.69135,13.81274],[100.72899,13.81242],[100.7296,13.81219],[100.73191,13.80997]]}},{"type":"Feature","properties":{"name":"MRT Pink Line"},"geometry":{"type":"LineString","coordinates":[[100.59582,13.87639],[100.5982,13.87341]]}},{"type":"Feature","properties":{"name":"MRT Pink Line"},"geometry":{"type":"LineString","coordinates":[[100.59808,13.87324],[100.59567,13.87615]]}},{"type":"Feature","properties":{"name":"BTS Sukhumvit Line"},"geometry":{"type":"LineString","coordinates":[[100.59929,13.87985],[100.62658,13.92615],[100.63826,13.93216],[100.64045,13.93249],[100.64721,13.93233]]}},{"type":"Feature","properties":{"name":null},"geometry":{"type":"LineString","coordinates":[[100.64918,13.66962],[100.65229,13.66962]]}},{"type":"Feature","properties":{"name":null},"geometry":{"type":"LineString","coordinates":[[100.64687,13.66964],[100.64562,13.66987],[100.64563,13.67114]]}},{"type":"Feature","properties":{"name":null},"geometry":{"type":"LineString","coordinates":[[100.73843,13.80512],[100.73452,13.80385]]}},{"type":"Feature","properties":{"name":"BTS Sukhumvit Line"},"geometry":{"type":"LineString","coordinates":[[100.59588,13.87392],[100.5633,13.81875]]}},{"type":"Feature","properties":{"name":"BTS Sukhumvit Line"},"geometry":{"type":"LineString","coordinates":[[100.59586,13.87395],[100.59925,13.87986]]}},{"type":"Feature","properties":{"name":null},"geometry":{"type":"LineString","coordinates":[[100.67501,13.99428],[100.67522,13.995],[100.67518,13.99511],[100.67487,13.99457],[100.67492,13.99347],[100.67536,13.994],[100.67501,13.99428]]}},{"type":"Feature","properties":{"name":null},"geometry":{"type":"LineString","coordinates":[[100.58705,13.76679],[100.58038,13.76456]]}},{"type":"Feature","properties":{"name":"Suvarnabhumi Airport Automated People Mover"},"geometry":{"type":"LineString","coordinates":[[100.74809,13.68233],[100.75042,13.6916]]}},{"type":"Feature","properties":{"name":"Gold Line"},"geometry":{"type":"LineString","coordinates":[[100.50391,13.72105],[100.50319,13.72106]]}},{"type":"Feature","properties":{"name":null},"geometry":{"type":"LineString","coordinates":[[100.5039,13.72099],[100.50442,13.72098]]}},{"type":"Feature","properties":{"name":null},"geometry":{"type":"LineString","coordinates":[[100.50401,13.72098],[100.50446,13.72113]]}},{"type":"Feature","properties":{"name":null},"geometry":{"type":"LineString","coordinates":[[100.50349,13.72106],[100.50365,13.72099]]}},{"type":"Feature","properties":{"name":"Switch track from Sukhumvit line to Silom line"},"geometry":{"type":"LineString","coordinates":[[100.53187,13.74607],[100.53243,13.74592]]}},{"type":"Feature","properties":{"name":"Gold Line"},"geometry":{"type":"LineString","coordinates":[[100.50446,13.72113],[100.50558,13.72111],[100.50638,13.7219],[100.50857,13.72149],[100.50889,13.72167],[100.50909,13.72598],[100.50873,13.72967],[100.50831,13.73008]]}},{"type":"Feature","properties":{"name":"BTS Sukhumvit Line"},"geometry":{"type":"LineString","coordinates":[[100.53519,13.74552],[100.53144,13.74613],[100.5308,13.74664],[100.53174,13.7532],[100.53754,13.76365],[100.53901,13.76458],[100.53898,13.76621],[100.54121,13.7703],[100.55128,13.79821],[100.55634,13.80701]]}},{"type":"Feature","properties":{"name":"BTS Silom Line"},"geometry":{"type":"LineString","coordinates":[[100.45791,13.72006],[100.45848,13.71748],[100.45985,13.71561],[100.46066,13.71499],[100.46325,13.71427],[100.46604,13.71421],[100.47009,13.71258],[100.47207,13.71219],[100.47434,13.71279],[100.48385,13.71863],[100.49115,13.72074]]}},{"type":"Feature","properties":{"name":"BTS Sukhumvit Line"},"geometry":{"type":"LineString","coordinates":[[100.60257,13.70238],[100.60992,13.68725],[100.61044,13.68487],[100.61031,13.68244],[100.60708,13.67336],[100.60599,13.67141],[100.59122,13.63536]]}},{"type":"Feature","properties":{"name":"BTS Sukhumvit Line"},"geometry":{"type":"LineString","coordinates":[[100.60261,13.70239],[100.60995,13.68729],[100.61048,13.68487],[100.61037,13.68255],[100.60711,13.67332],[100.60595,13.67122],[100.59122,13.63536]]}},{"type":"Feature","properties":{"name":null},"geometry":{"type":"LineString","coordinates":[[100.64023,13.92396],[100.64195,13.93053]]}},{"type":"Feature","properties":{"name":"MRT Blue Line"},"geometry":{"type":"LineString","coordinates":[[100.4735,13.73053],[100.47331,13.7313]]}},{"type":"Feature","properties":{"name":"MRT Blue Line"},"geometry":{"type":"LineString","coordinates":[[100.47313,13.73124],[100.47367,13.73057]]}},{"type":"Feature","properties":{"name":"BTS Sukhumvit Line"},"geometry":{"type":"LineString","coordinates":[[100.59746,13.7107],[100.59825,13.71015]]}},{"type":"Feature","properties":{"name":"BTS Sukhumvit Line"},"geometry":{"type":"LineString","coordinates":[[100.59929,13.87985],[100.59588,13.87392]]}},{"type":"Feature","properties":{"name":"MRT Pink Line"},"geometry":{"type":"LineString","coordinates":[[100.73191,13.80997],[100.73267,13.8084]]}},{"type":"Feature","properties":{"name":null},"geometry":{"type":"LineString","coordinates":[[100.61078,13.55622],[100.60444,13.55021]]}},{"type":"Feature","properties":{"name":null},"geometry":{"type":"LineString","coordinates":[[100.61138,13.55647],[100.61015,13.55532]]}},{"type":"Feature","properties":{"name":null},"geometry":{"type":"LineString","coordinates":[[100.60438,13.55046],[100.60988,13.55668]]}},{"type":"Feature","properties":{"name":null},"geometry":{"type":"LineString","coordinates":[[100.6062,13.55188],[100.60729,13.5538]]}},{"type":"Feature","properties":{"name":null},"geometry":{"type":"LineString","coordinates":[[100.6057,13.55101],[100.61063,13.55569]]}},{"type":"Feature","properties":{"name":null},"geometry":{"type":"LineString","coordinates":[[100.60912,13.55418],[100.61083,13.55596]]}},{"type":"Feature","properties":{"name":null},"geometry":{"type":"LineString","coordinates":[[100.61011,13.55537],[100.61084,13.55603]]}},{"type":"Feature","properties":{"name":null},"geometry":{"type":"LineString","coordinates":[[100.61108,13.55619],[100.6099,13.55539]]}},{"type":"Feature","properties":{"name":null},"geometry":{"type":"LineString","coordinates":[[100.60972,13.55586],[100.6113,13.55672]]}},{"type":"Feature","properties":{"name":null},"geometry":{"type":"LineString","coordinates":[[100.61087,13.55648],[100.60985,13.55573]]}},{"type":"Feature","properties":{"name":null},"geometry":{"type":"LineString","coordinates":[[100.60978,13.55579],[100.61066,13.55634]]}},{"type":"Feature","properties":{"name":null},"geometry":{"type":"LineString","coordinates":[[100.60991,13.55566],[100.61116,13.55663]]}},{"type":"Feature","properties":{"name":null},"geometry":{"type":"LineString","coordinates":[[100.60998,13.5556],[100.61081,13.55639]]}},{"type":"Feature","properties":{"name":null},"geometry":{"type":"LineString","coordinates":[[100.61163,13.55704],[100.61078,13.55622]]}},{"type":"Feature","properties":{"name":null},"geometry":{"type":"LineString","coordinates":[[100.60795,13.55315],[100.60927,13.55372],[100.61103,13.55537]]}},{"type":"Feature","properties":{"name":null},"geometry":{"type":"LineString","coordinates":[[100.60863,13.55349],[100.60932,13.55367],[100.61109,13.55532]]}},{"type":"Feature","properties":{"name":null},"geometry":{"type":"LineString","coordinates":[[100.60682,13.55277],[100.60773,13.55371]]}},{"type":"Feature","properties":{"name":null},"geometry":{"type":"LineString","coordinates":[[100.6076,13.55385],[100.60682,13.55297]]}},{"type":"Feature","properties":{"name":null},"geometry":{"type":"LineString","coordinates":[[100.60766,13.55378],[100.60664,13.55254]]}},{"type":"Feature","properties":{"name":null},"geometry":{"type":"LineString","coordinates":[[100.60776,13.55368],[100.60646,13.55229]]}},{"type":"Feature","properties":{"name":null},"geometry":{"type":"LineString","coordinates":[[100.60789,13.55355],[100.60682,13.5526]]}},{"type":"Feature","properties":{"name":null},"geometry":{"type":"LineString","coordinates":[[100.60782,13.55362],[100.60646,13.55213]]}},{"type":"Feature","properties":{"name":null},"geometry":{"type":"LineString","coordinates":[[100.60767,13.55317],[100.60625,13.55184]]}},{"type":"Feature","properties":{"name":null},"geometry":{"type":"LineString","coordinates":[[100.60588,13.55157],[100.60742,13.55264]]}},{"type":"Feature","properties":{"name":null},"geometry":{"type":"LineString","coordinates":[[100.60767,13.55317],[100.60914,13.55467]]}},{"type":"Feature","properties":{"name":null},"geometry":{"type":"LineString","coordinates":[[100.60562,13.55109],[100.60692,13.55217]]}},{"type":"Feature","properties":{"name":"Gold Line"},"geometry":{"type":"LineString","coordinates":[[100.50319,13.72117],[100.50392,13.72116]]}},{"type":"Feature","properties":{"name":"MRT Blue Line"},"geometry":{"type":"LineString","coordinates":[[100.47331,13.7313],[100.47253,13.73269]]}},{"type":"Feature","properties":{"name":"MRT Blue Line"},"geometry":{"type":"LineString","coordinates":[[100.53583,13.80498],[100.53337,13.80583],[100.52936,13.80639],[100.5202,13.80645],[100.5134,13.80472],[100.51202,13.8037],[100.5109,13.80053],[100.50312,13.79018],[100.48808,13.78058],[100.48664,13.77907],[100.4829,13.77426],[100.47283,13.76283],[100.46927,13.75828],[100.47107,13.73596],[100.47313,13.73124]]}},{"type":"Feature","properties":{"name":"MRT Blue Line"},"geometry":{"type":"LineString","coordinates":[[100.47343,13.7293],[100.47777,13.73184]]}},{"type":"Feature","properties":{"name":null},"geometry":{"type":"LineString","coordinates":[[100.47502,13.72775],[100.47632,13.72508]]}},{"type":"Feature","properties":{"name":"MRT Blue Line"},"geometry":{"type":"LineString","coordinates":[[100.47367,13.73057],[100.47331,13.7313]]}},{"type":"Feature","properties":{"name":null},"geometry":{"type":"LineString","coordinates":[[100.60811,13.5533],[100.60908,13.55377],[100.61092,13.5555]]}},{"type":"Feature","properties":{"name":null},"geometry":{"type":"LineString","coordinates":[[100.60863,13.55357],[100.60923,13.55377],[100.61097,13.55544]]}},{"type":"Feature","properties":{"name":null},"geometry":{"type":"LineString","coordinates":[[100.60838,13.55355],[100.61011,13.55537]]}},{"type":"Feature","properties":{"name":null},"geometry":{"type":"LineString","coordinates":[[100.60855,13.55377],[100.61015,13.55532]]}},{"type":"Feature","properties":{"name":null},"geometry":{"type":"LineString","coordinates":[[100.60858,13.55375],[100.60912,13.55418]]}},{"type":"Feature","properties":{"name":"MRT Blue Line"},"geometry":{"type":"LineString","coordinates":[[100.47367,13.73057],[100.47412,13.72969]]}},{"type":"Feature","properties":{"name":"BTS Silom Line"},"geometry":{"type":"LineString","coordinates":[[100.45494,13.72691],[100.45681,13.72498]]}},{"type":"Feature","properties":{"name":null},"geometry":{"type":"LineString","coordinates":[[100.64687,13.66964],[100.64918,13.66962]]}},{"type":"Feature","properties":{"name":null},"geometry":{"type":"LineString","coordinates":[[100.64687,13.66964],[100.64586,13.6696],[100.64553,13.66923]]}},{"type":"Feature","properties":{"name":null},"geometry":{"type":"LineString","coordinates":[[100.64582,13.67113],[100.64583,13.6699],[100.64687,13.66964]]}},{"type":"Feature","properties":{"name":null},"geometry":{"type":"LineString","coordinates":[[100.64687,13.66964],[100.64966,13.66959]]}},{"type":"Feature","properties":{"name":null},"geometry":{"type":"LineString","coordinates":[[100.64553,13.66923],[100.6452,13.66822]]}},{"type":"Feature","properties":{"name":null},"geometry":{"type":"LineString","coordinates":[[100.65056,13.66981],[100.65178,13.67009]]}},{"type":"Feature","properties":{"name":null},"geometry":{"type":"LineString","coordinates":[[100.64918,13.66962],[100.65056,13.66981]]}},{"type":"Feature","properties":{"name":"MRT Yellow Line"},"geometry":{"type":"LineString","coordinates":[[100.57481,13.80699],[100.57477,13.8057],[100.5753,13.80514],[100.6451,13.76607],[100.64558,13.76387],[100.64551,13.76068],[100.64595,13.75589],[100.64546,13.75266]]}},{"type":"Feature","properties":{"name":"MRT Yellow Line"},"geometry":{"type":"LineString","coordinates":[[100.64228,13.74053],[100.64131,13.7368]]}},{"type":"Feature","properties":{"name":"MRT Yellow Line"},"geometry":{"type":"LineString","coordinates":[[100.64131,13.7368],[100.64228,13.74053]]}},{"type":"Feature","properties":{"name":"MRT Yellow Line"},"geometry":{"type":"LineString","coordinates":[[100.64504,13.75122],[100.64254,13.74161]]}},{"type":"Feature","properties":{"name":"MRT Yellow Line"},"geometry":{"type":"LineString","coordinates":[[100.64546,13.75266],[100.64504,13.75122]]}},{"type":"Feature","properties":{"name":null},"geometry":{"type":"LineString","coordinates":[[100.65105,13.67005],[100.65179,13.67035]]}},{"type":"Feature","properties":{"name":null},"geometry":{"type":"LineString","coordinates":[[100.65105,13.67005],[100.65209,13.6705]]}},{"type":"Feature","properties":{"name":null},"geometry":{"type":"LineString","coordinates":[[100.65105,13.67005],[100.65208,13.67042]]}},{"type":"Feature","properties":{"name":null},"geometry":{"type":"LineString","coordinates":[[100.65105,13.67005],[100.65179,13.67027]]}},{"type":"Feature","properties":{"name":null},"geometry":{"type":"LineString","coordinates":[[100.65056,13.66981],[100.65178,13.67003]]}},{"type":"Feature","properties":{"name":null},"geometry":{"type":"LineString","coordinates":[[100.64966,13.66959],[100.64943,13.66962]]}},{"type":"Feature","properties":{"name":null},"geometry":{"type":"LineString","coordinates":[[100.64987,13.66962],[100.65064,13.66973]]}},{"type":"Feature","properties":{"name":null},"geometry":{"type":"LineString","coordinates":[[100.65337,13.66966],[100.65507,13.66965]]}},{"type":"Feature","properties":{"name":null},"geometry":{"type":"LineString","coordinates":[[100.64987,13.66957],[100.64966,13.66959]]}},{"type":"Feature","properties":{"name":null},"geometry":{"type":"LineString","coordinates":[[100.65337,13.66942],[100.65507,13.66941]]}},{"type":"Feature","properties":{"name":null},"geometry":{"type":"LineString","coordinates":[[100.64578,13.6718],[100.64582,13.67113]]}},{"type":"Feature","properties":{"name":null},"geometry":{"type":"LineString","coordinates":[[100.64563,13.67114],[100.64582,13.67225]]}},{"type":"Feature","properties":{"name":null},"geometry":{"type":"LineString","coordinates":[[100.65337,13.66985],[100.65508,13.66983]]}},{"type":"Feature","properties":{"name":null},"geometry":{"type":"LineString","coordinates":[[100.65337,13.66979],[100.65508,13.66978]]}},{"type":"Feature","properties":{"name":null},"geometry":{"type":"LineString","coordinates":[[100.65337,13.66976],[100.65508,13.66974]]}},{"type":"Feature","properties":{"name":null},"geometry":{"type":"LineString","coordinates":[[100.65337,13.6697],[100.65508,13.66969]]}},{"type":"Feature","properties":{"name":null},"geometry":{"type":"LineString","coordinates":[[100.65337,13.66957],[100.65507,13.66956]]}},{"type":"Feature","properties":{"name":null},"geometry":{"type":"LineString","coordinates":[[100.65337,13.66952],[100.65507,13.66951]]}},{"type":"Feature","properties":{"name":null},"geometry":{"type":"LineString","coordinates":[[100.65337,13.66948],[100.65507,13.66947]]}},{"type":"Feature","properties":{"name":null},"geometry":{"type":"LineString","coordinates":[[100.65056,13.66981],[100.65105,13.67005]]}},{"type":"Feature","properties":{"name":null},"geometry":{"type":"LineString","coordinates":[[100.57848,13.76398],[100.57803,13.76379]]}},{"type":"Feature","properties":{"name":"Brake Test Track"},"geometry":{"type":"LineString","coordinates":[[100.58681,13.7665],[100.57707,13.76325]]}},{"type":"Feature","properties":{"name":null},"geometry":{"type":"LineString","coordinates":[[100.57868,13.76404],[100.57913,13.76414]]}},{"type":"Feature","properties":{"name":null},"geometry":{"type":"LineString","coordinates":[[100.58415,13.76561],[100.58493,13.76604]]}},{"type":"Feature","properties":{"name":null},"geometry":{"type":"LineString","coordinates":[[100.58037,13.7646],[100.58501,13.76616]]}},{"type":"Feature","properties":{"name":null},"geometry":{"type":"LineString","coordinates":[[100.58499,13.76611],[100.58554,13.76624]]}},{"type":"Feature","properties":{"name":null},"geometry":{"type":"LineString","coordinates":[[100.58332,13.7655],[100.58387,13.76573]]}},{"type":"Feature","properties":{"name":null},"geometry":{"type":"LineString","coordinates":[[100.58415,13.76587],[100.58465,13.76599]]}},{"type":"Feature","properties":{"name":null},"geometry":{"type":"LineString","coordinates":[[100.58038,13.76451],[100.58708,13.76672]]}},{"type":"Feature","properties":{"name":null},"geometry":{"type":"LineString","coordinates":[[100.59096,13.76421],[100.5886,13.7658]]}},{"type":"Feature","properties":{"name":null},"geometry":{"type":"LineString","coordinates":[[100.58711,13.76665],[100.5886,13.7658]]}},{"type":"Feature","properties":{"name":null},"geometry":{"type":"LineString","coordinates":[[100.59082,13.76401],[100.58845,13.76559]]}},{"type":"Feature","properties":{"name":null},"geometry":{"type":"LineString","coordinates":[[100.58981,13.76534],[100.58708,13.76672]]}},{"type":"Feature","properties":{"name":null},"geometry":{"type":"LineString","coordinates":[[100.59102,13.76429],[100.58865,13.76588]]}},{"type":"Feature","properties":{"name":null},"geometry":{"type":"LineString","coordinates":[[100.57926,13.76419],[100.58038,13.76451]]}},{"type":"Feature","properties":{"name":null},"geometry":{"type":"LineString","coordinates":[[100.58038,13.76456],[100.57733,13.76354]]}},{"type":"Feature","properties":{"name":null},"geometry":{"type":"LineString","coordinates":[[100.57678,13.76341],[100.58037,13.7646]]}},{"type":"Feature","properties":{"name":null},"geometry":{"type":"LineString","coordinates":[[100.58587,13.76634],[100.5864,13.76657]]}},{"type":"Feature","properties":{"name":"MRT Yellow Line"},"geometry":{"type":"LineString","coordinates":[[100.64131,13.7368],[100.64095,13.73526],[100.64259,13.71717],[100.64748,13.69629],[100.64569,13.67067],[100.64479,13.66631]]}},{"type":"Feature","properties":{"name":"MRT Yellow Line"},"geometry":{"type":"LineString","coordinates":[[100.64479,13.66631],[100.64455,13.66525]]}},{"type":"Feature","properties":{"name":null},"geometry":{"type":"LineString","coordinates":[[100.7382,13.80705],[100.73315,13.80544],[100.73284,13.80498],[100.733,13.80429]]}},{"type":"Feature","properties":{"name":"MRT Pink Line"},"geometry":{"type":"LineString","coordinates":[[100.73302,13.80768],[100.7333,13.80676],[100.73271,13.80491],[100.73314,13.80404]]}},{"type":"Feature","properties":{"name":null},"geometry":{"type":"LineString","coordinates":[[100.73393,13.80355],[100.73325,13.80378]]}},{"type":"Feature","properties":{"name":null},"geometry":{"type":"LineString","coordinates":[[100.7333,13.80381],[100.73379,13.80357],[100.7348,13.80418]]}},{"type":"Feature","properties":{"name":null},"geometry":{"type":"LineString","coordinates":[[100.7396,13.80643],[100.73968,13.80588],[100.73923,13.80543]]}},{"type":"Feature","properties":{"name":null},"geometry":{"type":"LineString","coordinates":[[100.73446,13.8037],[100.73855,13.80492],[100.73923,13.80543]]}},{"type":"Feature","properties":{"name":null},"geometry":{"type":"LineString","coordinates":[[100.73571,13.80489],[100.73682,13.80536]]}},{"type":"Feature","properties":{"name":null},"geometry":{"type":"LineString","coordinates":[[100.73571,13.80489],[100.7368,13.80542]]}},{"type":"Feature","properties":{"name":null},"geometry":{"type":"LineString","coordinates":[[100.73571,13.80489],[100.73678,13.8055]]}},{"type":"Feature","properties":{"name":null},"geometry":{"type":"LineString","coordinates":[[100.7348,13.80418],[100.73666,13.80497]]}},{"type":"Feature","properties":{"name":null},"geometry":{"type":"LineString","coordinates":[[100.7348,13.80418],[100.73664,13.80503]]}},{"type":"Feature","properties":{"name":null},"geometry":{"type":"LineString","coordinates":[[100.7348,13.80418],[100.73658,13.80521]]}},{"type":"Feature","properties":{"name":null},"geometry":{"type":"LineString","coordinates":[[100.7348,13.80418],[100.73571,13.80489]]}},{"type":"Feature","properties":{"name":null},"geometry":{"type":"LineString","coordinates":[[100.73393,13.80355],[100.73452,13.80385]]}},{"type":"Feature","properties":{"name":null},"geometry":{"type":"LineString","coordinates":[[100.73393,13.80355],[100.73923,13.80543]]}},{"type":"Feature","properties":{"name":null},"geometry":{"type":"LineString","coordinates":[[100.73393,13.80355],[100.73446,13.8037]]}},{"type":"Feature","properties":{"name":null},"geometry":{"type":"LineString","coordinates":[[100.73848,13.80494],[100.73393,13.80355]]}},{"type":"Feature","properties":{"name":null},"geometry":{"type":"LineString","coordinates":[[100.73446,13.8037],[100.73852,13.80481]]}},{"type":"Feature","properties":{"name":null},"geometry":{"type":"LineString","coordinates":[[100.73446,13.8037],[100.73853,13.80476]]}},{"type":"Feature","properties":{"name":null},"geometry":{"type":"LineString","coordinates":[[100.73851,13.80485],[100.73446,13.8037]]}},{"type":"Feature","properties":{"name":null},"geometry":{"type":"LineString","coordinates":[[100.73571,13.80489],[100.73676,13.80557]]}},{"type":"Feature","properties":{"name":null},"geometry":{"type":"LineString","coordinates":[[100.73452,13.80385],[100.73923,13.80543]]}},{"type":"Feature","properties":{"name":null},"geometry":{"type":"LineString","coordinates":[[100.73452,13.80385],[100.73846,13.80502]]}},{"type":"Feature","properties":{"name":null},"geometry":{"type":"LineString","coordinates":[[100.73452,13.80385],[100.73923,13.80543]]}},{"type":"Feature","properties":{"name":null},"geometry":{"type":"LineString","coordinates":[[100.73325,13.80378],[100.73314,13.80404]]}},{"type":"Feature","properties":{"name":null},"geometry":{"type":"LineString","coordinates":[[100.73314,13.80404],[100.7333,13.80381]]}},{"type":"Feature","properties":{"name":"MRT Yellow Line"},"geometry":{"type":"LineString","coordinates":[[100.64254,13.74161],[100.64241,13.74106]]}},{"type":"Feature","properties":{"name":"MRT Yellow Line"},"geometry":{"type":"LineString","coordinates":[[100.64241,13.74106],[100.64228,13.74053]]}},{"type":"Feature","properties":{"name":null},"geometry":{"type":"LineString","coordinates":[[100.64987,13.66957],[100.65229,13.66943]]}},{"type":"Feature","properties":{"name":null},"geometry":{"type":"LineString","coordinates":[[100.64987,13.66957],[100.65229,13.66949]]}},{"type":"Feature","properties":{"name":null},"geometry":{"type":"LineString","coordinates":[[100.64987,13.66957],[100.65229,13.66953]]}},{"type":"Feature","properties":{"name":null},"geometry":{"type":"LineString","coordinates":[[100.64987,13.66962],[100.65229,13.66958]]}},{"type":"Feature","properties":{"name":null},"geometry":{"type":"LineString","coordinates":[[100.65337,13.66961],[100.65507,13.6696]]}},{"type":"Feature","properties":{"name":null},"geometry":{"type":"LineString","coordinates":[[100.64987,13.66962],[100.65229,13.66967]]}},{"type":"Feature","properties":{"name":null},"geometry":{"type":"LineString","coordinates":[[100.65064,13.66973],[100.65229,13.66971]]}},{"type":"Feature","properties":{"name":null},"geometry":{"type":"LineString","coordinates":[[100.65064,13.66973],[100.65229,13.66976]]}},{"type":"Feature","properties":{"name":null},"geometry":{"type":"LineString","coordinates":[[100.65064,13.66973],[100.65229,13.6698]]}},{"type":"Feature","properties":{"name":null},"geometry":{"type":"LineString","coordinates":[[100.65064,13.66973],[100.65229,13.66985]]}},{"type":"Feature","properties":{"name":null},"geometry":{"type":"LineString","coordinates":[[100.40905,13.89052],[100.40918,13.8915],[100.40888,13.89247]]}},{"type":"Feature","properties":{"name":null},"geometry":{"type":"LineString","coordinates":[[100.40903,13.89082],[100.40841,13.89755]]}},{"type":"Feature","properties":{"name":null},"geometry":{"type":"LineString","coordinates":[[100.40909,13.89048],[100.4093,13.89233]]}},{"type":"Feature","properties":{"name":null},"geometry":{"type":"LineString","coordinates":[[100.40934,13.89233],[100.40935,13.89169]]}},{"type":"Feature","properties":{"name":null},"geometry":{"type":"LineString","coordinates":[[100.40938,13.89233],[100.40931,13.89133]]}},{"type":"Feature","properties":{"name":null},"geometry":{"type":"LineString","coordinates":[[100.40943,13.89234],[100.40942,13.89179]]}},{"type":"Feature","properties":{"name":null},"geometry":{"type":"LineString","coordinates":[[100.40948,13.89234],[100.40924,13.89108]]}},{"type":"Feature","properties":{"name":null},"geometry":{"type":"LineString","coordinates":[[100.40952,13.89234],[100.40948,13.89188]]}},{"type":"Feature","properties":{"name":null},"geometry":{"type":"LineString","coordinates":[[100.40915,13.89068],[100.40983,13.89217],[100.40951,13.89585],[100.40936,13.89657],[100.40848,13.8978]]}},{"type":"Feature","properties":{"name":null},"geometry":{"type":"LineString","coordinates":[[100.4096,13.89143],[100.41001,13.89226],[100.41,13.89312]]}},{"type":"Feature","properties":{"name":null},"geometry":{"type":"LineString","coordinates":[[100.40977,13.89164],[100.41015,13.89313]]}},{"type":"Feature","properties":{"name":null},"geometry":{"type":"LineString","coordinates":[[100.41056,13.89317],[100.40996,13.89188]]}},{"type":"Feature","properties":{"name":null},"geometry":{"type":"LineString","coordinates":[[100.4105,13.89317],[100.41034,13.89243]]}},{"type":"Feature","properties":{"name":null},"geometry":{"type":"LineString","coordinates":[[100.41041,13.89316],[100.41024,13.89224]]}},{"type":"Feature","properties":{"name":null},"geometry":{"type":"LineString","coordinates":[[100.41034,13.89315],[100.41011,13.89209]]}},{"type":"Feature","properties":{"name":null},"geometry":{"type":"LineString","coordinates":[[100.41022,13.89314],[100.41003,13.89202]]}},{"type":"Feature","properties":{"name":null},"geometry":{"type":"LineString","coordinates":[[100.41008,13.89313],[100.4099,13.89193]]}},{"type":"Feature","properties":{"name":null},"geometry":{"type":"LineString","coordinates":[[100.40894,13.89623],[100.40838,13.89787]]}},{"type":"Feature","properties":{"name":null},"geometry":{"type":"LineString","coordinates":[[100.40879,13.897],[100.40898,13.89623]]}},{"type":"Feature","properties":{"name":null},"geometry":{"type":"LineString","coordinates":[[100.40902,13.89623],[100.40811,13.89861]]}},{"type":"Feature","properties":{"name":null},"geometry":{"type":"LineString","coordinates":[[100.40906,13.89624],[100.40902,13.89656]]}},{"type":"Feature","properties":{"name":null},"geometry":{"type":"LineString","coordinates":[[100.40909,13.89624],[100.40862,13.89752]]}},{"type":"Feature","properties":{"name":null},"geometry":{"type":"LineString","coordinates":[[100.40913,13.89624],[100.40893,13.89694]]}},{"type":"Feature","properties":{"name":null},"geometry":{"type":"LineString","coordinates":[[100.40982,13.89204],[100.40936,13.89657]]}},{"type":"Feature","properties":{"name":null},"geometry":{"type":"LineString","coordinates":[[100.4097,13.89166],[100.40995,13.89265],[100.40963,13.89603],[100.40925,13.89677]]}},{"type":"Feature","properties":{"name":null},"geometry":{"type":"LineString","coordinates":[[100.41009,13.89464],[100.40985,13.89624],[100.40897,13.89718]]}},{"type":"Feature","properties":{"name":null},"geometry":{"type":"LineString","coordinates":[[100.41002,13.89463],[100.40986,13.89603],[100.40931,13.89685]]}},{"type":"Feature","properties":{"name":null},"geometry":{"type":"LineString","coordinates":[[100.40994,13.89462],[100.40964,13.89643]]}},{"type":"Feature","properties":{"name":null},"geometry":{"type":"LineString","coordinates":[[100.40987,13.89462],[100.40973,13.89602],[100.40913,13.89702]]}},{"type":"Feature","properties":{"name":null},"geometry":{"type":"LineString","coordinates":[[100.41025,13.89602],[100.41009,13.89648],[100.40869,13.89764]]}},{"type":"Feature","properties":{"name":null},"geometry":{"type":"LineString","coordinates":[[100.41031,13.89603],[100.41014,13.89652],[100.4085,13.89795]]}},{"type":"Feature","properties":{"name":null},"geometry":{"type":"LineString","coordinates":[[100.40886,13.89758],[100.40904,13.89737]]}},{"type":"Feature","properties":{"name":null},"geometry":{"type":"LineString","coordinates":[[100.40933,13.89719],[100.41033,13.89653]]}},{"type":"Feature","properties":{"name":null},"geometry":{"type":"LineString","coordinates":[[100.40842,13.89778],[100.40834,13.89809]]}},{"type":"Feature","properties":{"name":null},"geometry":{"type":"LineString","coordinates":[[100.40909,13.89069],[100.40906,13.89032]]}},{"type":"Feature","properties":{"name":null},"geometry":{"type":"LineString","coordinates":[[100.40897,13.88991],[100.40884,13.88957]]}},{"type":"Feature","properties":{"name":"BTS Sukhumvit Line"},"geometry":{"type":"LineString","coordinates":[[100.60773,13.56771],[100.61231,13.55802]]}},{"type":"Feature","properties":{"name":"MRT Pink Line"},"geometry":{"type":"LineString","coordinates":[[100.73267,13.8084],[100.73302,13.80768]]}},{"type":"Feature","properties":{"name":null},"geometry":{"type":"LineString","coordinates":[[100.52349,13.83238],[100.52479,13.8313]]}},{"type":"Feature","properties":{"name":null},"geometry":{"type":"LineString","coordinates":[[100.52515,13.83091],[100.52479,13.8313]]}},{"type":"Feature","properties":{"name":null},"geometry":{"type":"LineString","coordinates":[[100.52479,13.8313],[100.52523,13.831]]}},{"type":"Feature","properties":{"name":null},"geometry":{"type":"LineString","coordinates":[[100.52349,13.83238],[100.52315,13.83258]]}},{"type":"Feature","properties":{"name":null},"geometry":{"type":"LineString","coordinates":[[100.52324,13.83267],[100.52349,13.83238]]}},{"type":"Feature","properties":{"name":"MRT Blue Line"},"geometry":{"type":"LineString","coordinates":[[100.47313,13.73124],[100.4735,13.73053]]}},{"type":"Feature","properties":{"name":"MRT Blue Line"},"geometry":{"type":"LineString","coordinates":[[100.4735,13.73053],[100.47397,13.72961]]}},{"type":"Feature","properties":{"name":null},"geometry":{"type":"LineString","coordinates":[[100.65229,13.66985],[100.65337,13.66985]]}},{"type":"Feature","properties":{"name":null},"geometry":{"type":"LineString","coordinates":[[100.65229,13.6698],[100.65337,13.66979]]}},{"type":"Feature","properties":{"name":null},"geometry":{"type":"LineString","coordinates":[[100.65229,13.66976],[100.65337,13.66976]]}},{"type":"Feature","properties":{"name":null},"geometry":{"type":"LineString","coordinates":[[100.65229,13.66943],[100.65337,13.66942]]}},{"type":"Feature","properties":{"name":null},"geometry":{"type":"LineString","coordinates":[[100.65229,13.66949],[100.65337,13.66948]]}},{"type":"Feature","properties":{"name":null},"geometry":{"type":"LineString","coordinates":[[100.65229,13.66953],[100.65337,13.66952]]}},{"type":"Feature","properties":{"name":null},"geometry":{"type":"LineString","coordinates":[[100.65229,13.66958],[100.65337,13.66957]]}},{"type":"Feature","properties":{"name":null},"geometry":{"type":"LineString","coordinates":[[100.65229,13.66971],[100.65337,13.6697]]}},{"type":"Feature","properties":{"name":null},"geometry":{"type":"LineString","coordinates":[[100.65229,13.66967],[100.65337,13.66966]]}},{"type":"Feature","properties":{"name":null},"geometry":{"type":"LineString","coordinates":[[100.65229,13.66962],[100.65337,13.66961]]}},{"type":"Feature","properties":{"name":null},"geometry":{"type":"LineString","coordinates":[[100.44616,13.70987],[100.44289,13.70454]]}},{"type":"Feature","properties":{"name":null},"geometry":{"type":"LineString","coordinates":[[100.44498,13.70794],[100.44537,13.70837]]}},{"type":"Feature","properties":{"name":"MRT Yellow Line"},"geometry":{"type":"LineString","coordinates":[[100.59662,13.64504],[100.59595,13.64527]]}},{"type":"Feature","properties":{"name":"MRT Yellow Line"},"geometry":{"type":"LineString","coordinates":[[100.57491,13.80883],[100.57481,13.80699]]}},{"type":"Feature","properties":{"name":"BTS Sukhumvit Line"},"geometry":{"type":"LineString","coordinates":[[100.53519,13.74553],[100.53119,13.74628],[100.53082,13.74675],[100.53088,13.74778]]}},{"type":"Feature","properties":{"name":"BTS Silom Line"},"geometry":{"type":"LineString","coordinates":[[100.52908,13.74649],[100.52549,13.74712]]}},{"type":"Feature","properties":{"name":"BTS Sukhumvit Line"},"geometry":{"type":"LineString","coordinates":[[100.64721,13.93233],[100.65386,13.93219]]}},{"type":"Feature","properties":{"name":"MRT Blue Line"},"geometry":{"type":"LineString","coordinates":[[100.40401,13.71043],[100.40813,13.71074]]}},{"type":"Feature","properties":{"name":null},"geometry":{"type":"LineString","coordinates":[[100.58743,13.76692],[100.58821,13.76688],[100.59024,13.76552]]}},{"type":"Feature","properties":{"name":null},"geometry":{"type":"LineString","coordinates":[[100.5883,13.76675],[100.59021,13.76548]]}},{"type":"Feature","properties":{"name":null},"geometry":{"type":"LineString","coordinates":[[100.5894,13.76602],[100.58991,13.76575]]}},{"type":"Feature","properties":{"name":null},"geometry":{"type":"LineString","coordinates":[[100.58885,13.76645],[100.58924,13.76612]]}},{"type":"Feature","properties":{"name":null},"geometry":{"type":"LineString","coordinates":[[100.59086,13.76406],[100.58849,13.76565]]}},{"type":"Feature","properties":{"name":null},"geometry":{"type":"LineString","coordinates":[[100.59093,13.76417],[100.58856,13.76575]]}},{"type":"Feature","properties":{"name":null},"geometry":{"type":"LineString","coordinates":[[100.59108,13.76438],[100.58872,13.76597]]}},{"type":"Feature","properties":{"name":null},"geometry":{"type":"LineString","coordinates":[[100.59105,13.76434],[100.58868,13.76592]]}},{"type":"Feature","properties":{"name":null},"geometry":{"type":"LineString","coordinates":[[100.59075,13.76391],[100.58839,13.7655]]}},{"type":"Feature","properties":{"name":null},"geometry":{"type":"LineString","coordinates":[[100.58805,13.7664],[100.58872,13.76597]]}},{"type":"Feature","properties":{"name":null},"geometry":{"type":"LineString","coordinates":[[100.58796,13.76637],[100.58868,13.76592]]}},{"type":"Feature","properties":{"name":null},"geometry":{"type":"LineString","coordinates":[[100.58764,13.7666],[100.58865,13.76588]]}},{"type":"Feature","properties":{"name":null},"geometry":{"type":"LineString","coordinates":[[100.58805,13.76616],[100.58856,13.76575]]}},{"type":"Feature","properties":{"name":null},"geometry":{"type":"LineString","coordinates":[[100.58782,13.76632],[100.58849,13.76565]]}},{"type":"Feature","properties":{"name":null},"geometry":{"type":"LineString","coordinates":[[100.5876,13.76646],[100.58845,13.76559]]}},{"type":"Feature","properties":{"name":null},"geometry":{"type":"LineString","coordinates":[[100.58791,13.76614],[100.58839,13.7655]]}},{"type":"Feature","properties":{"name":null},"geometry":{"type":"LineString","coordinates":[[100.59125,13.76638],[100.59063,13.7672],[100.58994,13.76748],[100.58705,13.76679]]}},{"type":"Feature","properties":{"name":null},"geometry":{"type":"LineString","coordinates":[[100.59262,13.76478],[100.59152,13.76654]]}},{"type":"Feature","properties":{"name":null},"geometry":{"type":"LineString","coordinates":[[100.59258,13.76476],[100.59148,13.76652]]}},{"type":"Feature","properties":{"name":null},"geometry":{"type":"LineString","coordinates":[[100.59254,13.76474],[100.59144,13.7665]]}},{"type":"Feature","properties":{"name":null},"geometry":{"type":"LineString","coordinates":[[100.5925,13.76471],[100.59141,13.76648]]}},{"type":"Feature","properties":{"name":null},"geometry":{"type":"LineString","coordinates":[[100.59246,13.76469],[100.59136,13.76645]]}},{"type":"Feature","properties":{"name":null},"geometry":{"type":"LineString","coordinates":[[100.59242,13.76467],[100.59133,13.76643]]}},{"type":"Feature","properties":{"name":null},"geometry":{"type":"LineString","coordinates":[[100.59238,13.76464],[100.59129,13.76641]]}},{"type":"Feature","properties":{"name":null},"geometry":{"type":"LineString","coordinates":[[100.59182,13.76672],[100.59132,13.76722],[100.58969,13.76748]]}},{"type":"Feature","properties":{"name":null},"geometry":{"type":"LineString","coordinates":[[100.59266,13.76481],[100.59156,13.76657]]}},{"type":"Feature","properties":{"name":null},"geometry":{"type":"LineString","coordinates":[[100.59269,13.76483],[100.5916,13.76659]]}},{"type":"Feature","properties":{"name":null},"geometry":{"type":"LineString","coordinates":[[100.59273,13.76485],[100.59164,13.76661]]}},{"type":"Feature","properties":{"name":null},"geometry":{"type":"LineString","coordinates":[[100.59277,13.76487],[100.59167,13.76663]]}},{"type":"Feature","properties":{"name":null},"geometry":{"type":"LineString","coordinates":[[100.59281,13.7649],[100.59172,13.76666]]}},{"type":"Feature","properties":{"name":null},"geometry":{"type":"LineString","coordinates":[[100.59285,13.76492],[100.59175,13.76668]]}},{"type":"Feature","properties":{"name":null},"geometry":{"type":"LineString","coordinates":[[100.59289,13.76494],[100.59179,13.7667]]}},{"type":"Feature","properties":{"name":null},"geometry":{"type":"LineString","coordinates":[[100.58479,13.76416],[100.58209,13.76327]]}},{"type":"Feature","properties":{"name":null},"geometry":{"type":"LineString","coordinates":[[100.57838,13.76235],[100.5791,13.76246]]}},{"type":"Feature","properties":{"name":null},"geometry":{"type":"LineString","coordinates":[[100.58,13.76251],[100.57912,13.76237]]}},{"type":"Feature","properties":{"name":null},"geometry":{"type":"LineString","coordinates":[[100.58076,13.7627],[100.57911,13.76242]]}},{"type":"Feature","properties":{"name":null},"geometry":{"type":"LineString","coordinates":[[100.57911,13.76242],[100.57862,13.76235]]}},{"type":"Feature","properties":{"name":null},"geometry":{"type":"LineString","coordinates":[[100.57726,13.76218],[100.58044,13.76334]]}},{"type":"Feature","properties":{"name":null},"geometry":{"type":"LineString","coordinates":[[100.57926,13.76299],[100.5807,13.76347]]}},{"type":"Feature","properties":{"name":null},"geometry":{"type":"LineString","coordinates":[[100.57714,13.76215],[100.5787,13.7628]]}},{"type":"Feature","properties":{"name":null},"geometry":{"type":"LineString","coordinates":[[100.5787,13.7628],[100.57926,13.76299]]}},{"type":"Feature","properties":{"name":null},"geometry":{"type":"LineString","coordinates":[[100.58314,13.7643],[100.58259,13.76411]]}},{"type":"Feature","properties":{"name":null},"geometry":{"type":"LineString","coordinates":[[100.58346,13.76429],[100.58192,13.76376]]}},{"type":"Feature","properties":{"name":null},"geometry":{"type":"LineString","coordinates":[[100.58348,13.76424],[100.58194,13.76371]]}},{"type":"Feature","properties":{"name":null},"geometry":{"type":"LineString","coordinates":[[100.5835,13.76418],[100.58196,13.76366]]}},{"type":"Feature","properties":{"name":null},"geometry":{"type":"LineString","coordinates":[[100.58088,13.76293],[100.58212,13.7632]]}},{"type":"Feature","properties":{"name":null},"geometry":{"type":"LineString","coordinates":[[100.58209,13.76327],[100.58126,13.76306]]}},{"type":"Feature","properties":{"name":null},"geometry":{"type":"LineString","coordinates":[[100.5805,13.76285],[100.58207,13.76334]]}},{"type":"Feature","properties":{"name":null},"geometry":{"type":"LineString","coordinates":[[100.58031,13.76285],[100.58205,13.7634]]}},{"type":"Feature","properties":{"name":null},"geometry":{"type":"LineString","coordinates":[[100.58003,13.76285],[100.58203,13.76346]]}},{"type":"Feature","properties":{"name":null},"geometry":{"type":"LineString","coordinates":[[100.58395,13.76528],[100.58505,13.76565]]}},{"type":"Feature","properties":{"name":"Brake Test Track"},"geometry":{"type":"LineString","coordinates":[[100.58683,13.76641],[100.57707,13.76316]]}},{"type":"Feature","properties":{"name":null},"geometry":{"type":"LineString","coordinates":[[100.5831,13.76517],[100.58387,13.76525]]}},{"type":"Feature","properties":{"name":null},"geometry":{"type":"LineString","coordinates":[[100.58437,13.76501],[100.58059,13.76374]]}},{"type":"Feature","properties":{"name":null},"geometry":{"type":"LineString","coordinates":[[100.58438,13.76498],[100.5806,13.76371]]}},{"type":"Feature","properties":{"name":null},"geometry":{"type":"LineString","coordinates":[[100.5844,13.76494],[100.58061,13.76367]]}},{"type":"Feature","properties":{"name":null},"geometry":{"type":"LineString","coordinates":[[100.58432,13.76516],[100.58054,13.76389]]}},{"type":"Feature","properties":{"name":null},"geometry":{"type":"LineString","coordinates":[[100.58488,13.76525],[100.58055,13.76386]]}},{"type":"Feature","properties":{"name":null},"geometry":{"type":"LineString","coordinates":[[100.58441,13.76491],[100.5855,13.76543]]}},{"type":"Feature","properties":{"name":null},"geometry":{"type":"LineString","coordinates":[[100.58486,13.7651],[100.5844,13.76494]]}},{"type":"Feature","properties":{"name":null},"geometry":{"type":"LineString","coordinates":[[100.58507,13.76522],[100.58438,13.76498]]}},{"type":"Feature","properties":{"name":null},"geometry":{"type":"LineString","coordinates":[[100.58487,13.76522],[100.58437,13.76501]]}},{"type":"Feature","properties":{"name":null},"geometry":{"type":"LineString","coordinates":[[100.58436,13.76505],[100.58691,13.76591]]}},{"type":"Feature","properties":{"name":null},"geometry":{"type":"LineString","coordinates":[[100.58434,13.76508],[100.58513,13.7653]]}},{"type":"Feature","properties":{"name":null},"geometry":{"type":"LineString","coordinates":[[100.58498,13.7653],[100.58432,13.76516]]}},{"type":"Feature","properties":{"name":null},"geometry":{"type":"LineString","coordinates":[[100.5843,13.7652],[100.58512,13.76533]]}},{"type":"Feature","properties":{"name":null},"geometry":{"type":"LineString","coordinates":[[100.58062,13.76365],[100.57755,13.7625]]}},{"type":"Feature","properties":{"name":null},"geometry":{"type":"LineString","coordinates":[[100.58061,13.76367],[100.578,13.76276]]}},{"type":"Feature","properties":{"name":null},"geometry":{"type":"LineString","coordinates":[[100.5806,13.76371],[100.57821,13.76289]]}},{"type":"Feature","properties":{"name":null},"geometry":{"type":"LineString","coordinates":[[100.58059,13.76374],[100.57785,13.76268]]}},{"type":"Feature","properties":{"name":null},"geometry":{"type":"LineString","coordinates":[[100.58058,13.76378],[100.57823,13.76297]]}},{"type":"Feature","properties":{"name":null},"geometry":{"type":"LineString","coordinates":[[100.58057,13.76382],[100.57777,13.76268]]}},{"type":"Feature","properties":{"name":null},"geometry":{"type":"LineString","coordinates":[[100.58055,13.76386],[100.578,13.76286]]}},{"type":"Feature","properties":{"name":null},"geometry":{"type":"LineString","coordinates":[[100.58053,13.76393],[100.57851,13.76326],[100.57695,13.76206],[100.57438,13.76106]]}},{"type":"Feature","properties":{"name":null},"geometry":{"type":"LineString","coordinates":[[100.57765,13.76258],[100.57789,13.76282]]}},{"type":"Feature","properties":{"name":null},"geometry":{"type":"LineString","coordinates":[[100.57693,13.76201],[100.57514,13.7614]]}},{"type":"Feature","properties":{"name":null},"geometry":{"type":"LineString","coordinates":[[100.57695,13.76206],[100.57654,13.76187]]}},{"type":"Feature","properties":{"name":null},"geometry":{"type":"LineString","coordinates":[[100.58655,13.76657],[100.58711,13.76665]]}},{"type":"Feature","properties":{"name":null},"geometry":{"type":"LineString","coordinates":[[100.5912,13.76441],[100.59002,13.76519]]}},{"type":"Feature","properties":{"name":null},"geometry":{"type":"LineString","coordinates":[[100.59002,13.76519],[100.58981,13.76534]]}},{"type":"Feature","properties":{"name":null},"geometry":{"type":"LineString","coordinates":[[100.59024,13.76552],[100.59081,13.76516]]}},{"type":"Feature","properties":{"name":null},"geometry":{"type":"LineString","coordinates":[[100.59021,13.76548],[100.59078,13.76511]]}},{"type":"Feature","properties":{"name":null},"geometry":{"type":"LineString","coordinates":[[100.58874,13.76741],[100.58788,13.76707]]}},{"type":"Feature","properties":{"name":null},"geometry":{"type":"LineString","coordinates":[[100.58835,13.76727],[100.58779,13.76708]]}},{"type":"Feature","properties":{"name":null},"geometry":{"type":"LineString","coordinates":[[100.59234,13.76462],[100.59125,13.76638]]}},{"type":"Feature","properties":{"name":null},"geometry":{"type":"LineString","coordinates":[[100.59129,13.76641],[100.59081,13.76705]]}},{"type":"Feature","properties":{"name":null},"geometry":{"type":"LineString","coordinates":[[100.59133,13.76643],[100.59063,13.7672]]}},{"type":"Feature","properties":{"name":null},"geometry":{"type":"LineString","coordinates":[[100.59136,13.76645],[100.59084,13.76705]]}},{"type":"Feature","properties":{"name":null},"geometry":{"type":"LineString","coordinates":[[100.59141,13.76648],[100.59089,13.76708]]}},{"type":"Feature","properties":{"name":null},"geometry":{"type":"LineString","coordinates":[[100.59144,13.7665],[100.59057,13.76728]]}},{"type":"Feature","properties":{"name":null},"geometry":{"type":"LineString","coordinates":[[100.59148,13.76652],[100.59083,13.76715]]}},{"type":"Feature","properties":{"name":null},"geometry":{"type":"LineString","coordinates":[[100.59152,13.76654],[100.59035,13.76738]]}},{"type":"Feature","properties":{"name":null},"geometry":{"type":"LineString","coordinates":[[100.59156,13.76657],[100.59035,13.7675]]}},{"type":"Feature","properties":{"name":null},"geometry":{"type":"LineString","coordinates":[[100.5916,13.76659],[100.59108,13.76714]]}},{"type":"Feature","properties":{"name":null},"geometry":{"type":"LineString","coordinates":[[100.59164,13.76661],[100.5907,13.76737]]}},{"type":"Feature","properties":{"name":null},"geometry":{"type":"LineString","coordinates":[[100.59167,13.76663],[100.59102,13.76722]]}},{"type":"Feature","properties":{"name":null},"geometry":{"type":"LineString","coordinates":[[100.59172,13.76666],[100.59069,13.76741]]}},{"type":"Feature","properties":{"name":null},"geometry":{"type":"LineString","coordinates":[[100.59175,13.76668],[100.59108,13.76725]]}},{"type":"Feature","properties":{"name":null},"geometry":{"type":"LineString","coordinates":[[100.59179,13.7667],[100.59092,13.76734]]}},{"type":"Feature","properties":{"name":null},"geometry":{"type":"LineString","coordinates":[[100.59292,13.76496],[100.59182,13.76672]]}},{"type":"Feature","properties":{"name":"Gold Line"},"geometry":{"type":"LineString","coordinates":[[100.50392,13.72116],[100.50446,13.72113]]}},{"type":"Feature","properties":{"name":null},"geometry":{"type":"LineString","coordinates":[[100.50355,13.72099],[100.5039,13.72099]]}},{"type":"Feature","properties":{"name":"Gold Line"},"geometry":{"type":"LineString","coordinates":[[100.50813,13.73018],[100.50876,13.72971],[100.50906,13.72685],[100.50894,13.72165],[100.5086,13.72144],[100.50649,13.72186],[100.50563,13.72109],[100.50434,13.7211]]}},{"type":"Feature","properties":{"name":null},"geometry":{"type":"LineString","coordinates":[[100.50392,13.72116],[100.50434,13.7211]]}},{"type":"Feature","properties":{"name":"Gold Line"},"geometry":{"type":"LineString","coordinates":[[100.50391,13.72105],[100.50434,13.7211]]}},{"type":"Feature","properties":{"name":"Gold Line"},"geometry":{"type":"LineString","coordinates":[[100.50752,13.7304],[100.50653,13.73074]]}},{"type":"Feature","properties":{"name":"Gold Line"},"geometry":{"type":"LineString","coordinates":[[100.50793,13.73025],[100.50773,13.73033]]}},{"type":"Feature","properties":{"name":"Gold Line"},"geometry":{"type":"LineString","coordinates":[[100.50751,13.73036],[100.50652,13.73071]]}},{"type":"Feature","properties":{"name":"Gold Line"},"geometry":{"type":"LineString","coordinates":[[100.50792,13.73022],[100.50772,13.73029]]}},{"type":"Feature","properties":{"name":"Gold Line"},"geometry":{"type":"LineString","coordinates":[[100.50831,13.73008],[100.50813,13.73018]]}},{"type":"Feature","properties":{"name":"Gold Line"},"geometry":{"type":"LineString","coordinates":[[100.50831,13.73008],[100.50792,13.73022]]}},{"type":"Feature","properties":{"name":"Gold Line"},"geometry":{"type":"LineString","coordinates":[[100.50813,13.73018],[100.50793,13.73025]]}},{"type":"Feature","properties":{"name":null},"geometry":{"type":"LineString","coordinates":[[100.57673,13.7634],[100.57678,13.76341]]}},{"type":"Feature","properties":{"name":"MRT Pink Line"},"geometry":{"type":"LineString","coordinates":[[100.51568,13.86002],[100.51811,13.8597]]}},{"type":"Feature","properties":{"name":"MRT Pink Line"},"geometry":{"type":"LineString","coordinates":[[100.51811,13.8597],[100.52104,13.85933],[100.52171,13.86001],[100.50487,13.90444],[100.5049,13.90525],[100.50585,13.9069],[100.50635,13.90727],[100.50701,13.90724]]}},{"type":"Feature","properties":{"name":"MRT Pink Line"},"geometry":{"type":"LineString","coordinates":[[100.50701,13.90724],[100.52479,13.90561],[100.53813,13.90119]]}},{"type":"Feature","properties":{"name":"MRT Pink Line"},"geometry":{"type":"LineString","coordinates":[[100.54214,13.89918],[100.54178,13.89986],[100.53813,13.90119]]}},{"type":"Feature","properties":{"name":"MRT Pink Line"},"geometry":{"type":"LineString","coordinates":[[100.53813,13.90119],[100.54185,13.89998],[100.54214,13.89918]]}},{"type":"Feature","properties":{"name":"MRT Pink Line"},"geometry":{"type":"LineString","coordinates":[[100.54214,13.89918],[100.54212,13.89838],[100.54269,13.89782],[100.54525,13.89849],[100.55226,13.89605]]}},{"type":"Feature","properties":{"name":"MRT Pink Line"},"geometry":{"type":"LineString","coordinates":[[100.55226,13.89605],[100.5541,13.89541]]}},{"type":"Feature","properties":{"name":"MRT Pink Line"},"geometry":{"type":"LineString","coordinates":[[100.5541,13.89541],[100.55226,13.89605]]}},{"type":"Feature","properties":{"name":"MRT Pink Line"},"geometry":{"type":"LineString","coordinates":[[100.59268,13.87798],[100.59582,13.87639]]}},{"type":"Feature","properties":{"name":"MRT Pink Line"},"geometry":{"type":"LineString","coordinates":[[100.59567,13.87615],[100.59268,13.87798]]}},{"type":"Feature","properties":{"name":"MRT Pink Line"},"geometry":{"type":"LineString","coordinates":[[100.5982,13.87341],[100.60098,13.87182]]}},{"type":"Feature","properties":{"name":"MRT Pink Line"},"geometry":{"type":"LineString","coordinates":[[100.60098,13.87182],[100.59808,13.87324]]}},{"type":"Feature","properties":{"name":"MRT Pink Line"},"geometry":{"type":"LineString","coordinates":[[100.60098,13.87182],[100.63874,13.85148]]}},{"type":"Feature","properties":{"name":"MRT Pink Line"},"geometry":{"type":"LineString","coordinates":[[100.63874,13.85148],[100.64208,13.84968]]}},{"type":"Feature","properties":{"name":"BTS Silom Line"},"geometry":{"type":"LineString","coordinates":[[100.52719,13.74683],[100.52755,13.7468]]}},{"type":"Feature","properties":{"name":"BTS Silom Line"},"geometry":{"type":"LineString","coordinates":[[100.52778,13.74676],[100.52816,13.74666]]}},{"type":"Feature","properties":{"name":"BTS Silom Line"},"geometry":{"type":"LineString","coordinates":[[100.4549,13.72688],[100.45706,13.72451],[100.45762,13.72175]]}},{"type":"Feature","properties":{"name":null},"geometry":{"type":"LineString","coordinates":[[100.45693,13.72475],[100.45487,13.72686]]}},{"type":"Feature","properties":{"name":"BTS Sukhumvit Line"},"geometry":{"type":"LineString","coordinates":[[100.59748,13.71075],[100.55378,13.74172],[100.55173,13.74257],[100.54183,13.74434]]}},{"type":"Feature","properties":{"name":"Suvarnabhumi Airport Automated People Mover"},"geometry":{"type":"LineString","coordinates":[[100.7506,13.69155],[100.74825,13.68229]]}},{"type":"Feature","properties":{"name":null},"geometry":{"type":"LineString","coordinates":[[100.6765,13.82085],[100.67709,13.81939],[100.67767,13.81929],[100.67779,13.8197],[100.67722,13.82115],[100.67676,13.8213],[100.6765,13.82085]]}},{"type":"Feature","properties":{"name":"MRT Purple Line"},"geometry":{"type":"LineString","coordinates":[[100.40716,13.90359],[100.40816,13.89375]]}},{"type":"Feature","properties":{"name":"MRT Purple Line"},"geometry":{"type":"LineString","coordinates":[[100.40803,13.89374],[100.40712,13.90359]]}},{"type":"Feature","properties":{"name":"MRT Blue Line"},"geometry":{"type":"LineString","coordinates":[[100.47867,13.73328],[100.48102,13.73702],[100.48204,13.73792],[100.48336,13.73834],[100.49047,13.73859],[100.4921,13.73916],[100.49313,13.73989],[100.49465,13.74228],[100.49434,13.74631],[100.4951,13.74741],[100.50309,13.747],[100.50423,13.74674],[100.51484,13.73843],[100.51738,13.7376],[100.54187,13.72726]]}},{"type":"Feature","properties":{"name":"MRT Blue Line"},"geometry":{"type":"LineString","coordinates":[[100.40948,13.71091],[100.43872,13.71337],[100.45258,13.71792],[100.47139,13.72808],[100.47773,13.73187]]}},{"type":"Feature","properties":{"name":"MRT Blue Line"},"geometry":{"type":"LineString","coordinates":[[100.47773,13.73187],[100.47867,13.73328]]}},{"type":"Feature","properties":{"name":null},"geometry":{"type":"LineString","coordinates":[[100.41122,13.71106],[100.41183,13.71104]]}},{"type":"Feature","properties":{"name":null},"geometry":{"type":"LineString","coordinates":[[100.41122,13.71099],[100.41173,13.7111]]}},{"type":"Feature","properties":{"name":null},"geometry":{"type":"LineString","coordinates":[[100.40567,13.71056],[100.40617,13.71064]]}},{"type":"Feature","properties":{"name":null},"geometry":{"type":"LineString","coordinates":[[100.41528,13.7114],[100.4158,13.71139]]}},{"type":"Feature","properties":{"name":null},"geometry":{"type":"LineString","coordinates":[[100.44189,13.71436],[100.44224,13.71453]]}},{"type":"Feature","properties":{"name":null},"geometry":{"type":"LineString","coordinates":[[100.44124,13.71415],[100.44158,13.71422]]}},{"type":"Feature","properties":{"name":null},"geometry":{"type":"LineString","coordinates":[[100.44021,13.71386],[100.44049,13.71391]]}},{"type":"Feature","properties":{"name":null},"geometry":{"type":"LineString","coordinates":[[100.44791,13.71638],[100.44831,13.71647]]}},{"type":"Feature","properties":{"name":null},"geometry":{"type":"LineString","coordinates":[[100.44873,13.71656],[100.44913,13.71674]]}},{"type":"Feature","properties":{"name":null},"geometry":{"type":"LineString","coordinates":[[100.45074,13.71726],[100.45114,13.71743]]}},{"type":"Feature","properties":{"name":null},"geometry":{"type":"LineString","coordinates":[[100.47493,13.72772],[100.47628,13.72507]]}},{"type":"Feature","properties":{"name":null},"geometry":{"type":"LineString","coordinates":[[100.47502,13.72775],[100.47517,13.72736]]}},{"type":"Feature","properties":{"name":"MRT Blue Line"},"geometry":{"type":"LineString","coordinates":[[100.47397,13.72961],[100.47475,13.72806]]}},{"type":"Feature","properties":{"name":"MRT Blue Line"},"geometry":{"type":"LineString","coordinates":[[100.47412,13.72969],[100.47502,13.72775]]}},{"type":"Feature","properties":{"name":null},"geometry":{"type":"LineString","coordinates":[[100.47531,13.72706],[100.47552,13.72673]]}},{"type":"Feature","properties":{"name":null},"geometry":{"type":"LineString","coordinates":[[100.47185,13.76165],[100.4721,13.76188]]}},{"type":"Feature","properties":{"name":null},"geometry":{"type":"LineString","coordinates":[[100.47519,13.7655],[100.4754,13.76582]]}},{"type":"Feature","properties":{"name":null},"geometry":{"type":"LineString","coordinates":[[100.49132,13.78263],[100.49165,13.7828]]}},{"type":"Feature","properties":{"name":null},"geometry":{"type":"LineString","coordinates":[[100.49931,13.78767],[100.50194,13.78931]]}},{"type":"Feature","properties":{"name":null},"geometry":{"type":"LineString","coordinates":[[100.49973,13.78784],[100.50185,13.78915]]}},{"type":"Feature","properties":{"name":null},"geometry":{"type":"LineString","coordinates":[[100.50135,13.7889],[100.50161,13.78902]]}},{"type":"Feature","properties":{"name":null},"geometry":{"type":"LineString","coordinates":[[100.49982,13.78793],[100.5,13.78807]]}},{"type":"Feature","properties":{"name":null},"geometry":{"type":"LineString","coordinates":[[100.52674,13.80638],[100.52724,13.80643]]}},{"type":"Feature","properties":{"name":"MRT Blue Line"},"geometry":{"type":"LineString","coordinates":[[100.54347,13.72653],[100.55798,13.72059],[100.55898,13.72073],[100.55964,13.7213],[100.56057,13.72487],[100.55997,13.72984],[100.55997,13.73296],[100.56126,13.73546],[100.5622,13.74342],[100.56579,13.75958],[100.56663,13.76147],[100.57248,13.76908],[100.57327,13.77111],[100.57486,13.8044],[100.57451,13.8053],[100.57372,13.80607],[100.55986,13.8139],[100.55931,13.81394],[100.55831,13.81353],[100.55788,13.81297],[100.55631,13.80835],[100.55104,13.79928],[100.55037,13.79857],[100.54922,13.79811],[100.54611,13.79818],[100.54448,13.8008],[100.53804,13.80379]]}},{"type":"Feature","properties":{"name":"MRT Blue Line"},"geometry":{"type":"LineString","coordinates":[[100.53639,13.80468],[100.53583,13.80498]]}},{"type":"Feature","properties":{"name":"MRT Blue Line"},"geometry":{"type":"LineString","coordinates":[[100.53804,13.80379],[100.53639,13.80468]]}},{"type":"Feature","properties":{"name":"MRT Blue Line"},"geometry":{"type":"LineString","coordinates":[[100.51705,13.73741],[100.54347,13.72653]]}},{"type":"Feature","properties":{"name":"MRT Blue Line"},"geometry":{"type":"LineString","coordinates":[[100.54187,13.72726],[100.54348,13.72656]]}},{"type":"Feature","properties":{"name":"MRT Blue Line"},"geometry":{"type":"LineString","coordinates":[[100.40401,13.71047],[100.40814,13.7108]]}},{"type":"Feature","properties":{"name":"MRT Blue Line"},"geometry":{"type":"LineString","coordinates":[[100.40813,13.71074],[100.40949,13.71086]]}},{"type":"Feature","properties":{"name":"Pink Line"},"geometry":{"type":"LineString","coordinates":[[100.54849,13.89754],[100.54507,13.89863]]}},{"type":"Feature","properties":{"name":"Pink Line"},"geometry":{"type":"LineString","coordinates":[[100.54507,13.89863],[100.54422,13.89912],[100.54438,13.9002],[100.54404,13.90142]]}},{"type":"Feature","properties":{"name":"Pink Line"},"geometry":{"type":"LineString","coordinates":[[100.54987,13.89688],[100.54849,13.89754]]}},{"type":"Feature","properties":{"name":"Pink Line"},"geometry":{"type":"LineString","coordinates":[[100.54565,13.91838],[100.54575,13.91894]]}},{"type":"Feature","properties":{"name":null},"geometry":{"type":"LineString","coordinates":[[100.52239,13.71952],[100.52266,13.71965]]}},{"type":"Feature","properties":{"name":"BTS Silom Line"},"geometry":{"type":"LineString","coordinates":[[100.51282,13.71917],[100.5159,13.71838]]}},{"type":"Feature","properties":{"name":"BTS Silom Line"},"geometry":{"type":"LineString","coordinates":[[100.45787,13.72006],[100.45847,13.71743],[100.45982,13.71558],[100.4607,13.71493],[100.46334,13.71422],[100.46602,13.71418],[100.47003,13.71257],[100.4721,13.71215],[100.47439,13.71278],[100.48385,13.7186],[100.49115,13.72069]]}},{"type":"Feature","properties":{"name":null},"geometry":{"type":"LineString","coordinates":[[100.51159,13.71943],[100.51193,13.71939]]}},{"type":"Feature","properties":{"name":null},"geometry":{"type":"LineString","coordinates":[[100.49765,13.72108],[100.4982,13.72102]]}},{"type":"Feature","properties":{"name":null},"geometry":{"type":"LineString","coordinates":[[100.49378,13.72104],[100.49412,13.72109]]}},{"type":"Feature","properties":{"name":"BTS Silom Line"},"geometry":{"type":"LineString","coordinates":[[100.45766,13.72176],[100.45781,13.7208]]}},{"type":"Feature","properties":{"name":"BTS Silom Line"},"geometry":{"type":"LineString","coordinates":[[100.45762,13.72175],[100.45776,13.72079]]}},{"type":"Feature","properties":{"name":null},"geometry":{"type":"LineString","coordinates":[[100.54302,13.77537],[100.54374,13.77724]]}},{"type":"Feature","properties":{"name":null},"geometry":{"type":"LineString","coordinates":[[100.54312,13.77555],[100.54308,13.77533]]}},{"type":"Feature","properties":{"name":null},"geometry":{"type":"LineString","coordinates":[[100.5437,13.77725],[100.54363,13.77694]]}},{"type":"Feature","properties":{"name":null},"geometry":{"type":"LineString","coordinates":[[100.54363,13.77694],[100.54376,13.77719]]}},{"type":"Feature","properties":{"name":null},"geometry":{"type":"LineString","coordinates":[[100.56129,13.81562],[100.56061,13.81421]]}},{"type":"Feature","properties":{"name":"BTS Sukhumvit Line"},"geometry":{"type":"LineString","coordinates":[[100.56327,13.81876],[100.59586,13.87395]]}},{"type":"Feature","properties":{"name":null},"geometry":{"type":"LineString","coordinates":[[100.56269,13.8176],[100.56307,13.81844]]}},{"type":"Feature","properties":{"name":"BTS Sukhumvit Line"},"geometry":{"type":"LineString","coordinates":[[100.55761,13.80916],[100.56327,13.81876]]}},{"type":"Feature","properties":{"name":"BTS Sukhumvit Line"},"geometry":{"type":"LineString","coordinates":[[100.55764,13.80914],[100.55712,13.80826]]}},{"type":"Feature","properties":{"name":null},"geometry":{"type":"LineString","coordinates":[[100.55444,13.80373],[100.5546,13.80393]]}},{"type":"Feature","properties":{"name":null},"geometry":{"type":"LineString","coordinates":[[100.55488,13.80449],[100.55473,13.80415]]}},{"type":"Feature","properties":{"name":null},"geometry":{"type":"LineString","coordinates":[[100.55572,13.80552],[100.55571,13.80526]]}},{"type":"Feature","properties":{"name":null},"geometry":{"type":"LineString","coordinates":[[100.55746,13.80876],[100.55638,13.80699]]}},{"type":"Feature","properties":{"name":null},"geometry":{"type":"LineString","coordinates":[[100.57854,13.84476],[100.57965,13.84663]]}},{"type":"Feature","properties":{"name":null},"geometry":{"type":"LineString","coordinates":[[100.57953,13.84643],[100.5796,13.84662]]}},{"type":"Feature","properties":{"name":null},"geometry":{"type":"LineString","coordinates":[[100.57953,13.84643],[100.57964,13.84655]]}},{"type":"Feature","properties":{"name":null},"geometry":{"type":"LineString","coordinates":[[100.57854,13.84476],[100.5784,13.8446]]}},{"type":"Feature","properties":{"name":null},"geometry":{"type":"LineString","coordinates":[[100.57844,13.84451],[100.57854,13.84476]]}},{"type":"Feature","properties":{"name":"BTS Sukhumvit Line"},"geometry":{"type":"LineString","coordinates":[[100.59925,13.87986],[100.62656,13.92619],[100.63819,13.93218],[100.64011,13.93251],[100.64721,13.93237]]}},{"type":"Feature","properties":{"name":null},"geometry":{"type":"LineString","coordinates":[[100.60856,13.89578],[100.60846,13.89551]]}},{"type":"Feature","properties":{"name":null},"geometry":{"type":"LineString","coordinates":[[100.62498,13.92359],[100.62518,13.92386]]}},{"type":"Feature","properties":{"name":null},"geometry":{"type":"LineString","coordinates":[[100.64561,13.93233],[100.64132,13.93229],[100.64077,13.93191],[100.64027,13.9308]]}},{"type":"Feature","properties":{"name":null},"geometry":{"type":"LineString","coordinates":[[100.64455,13.93235],[100.64491,13.93238]]}},{"type":"Feature","properties":{"name":null},"geometry":{"type":"LineString","coordinates":[[100.64444,13.93239],[100.64474,13.93242]]}},{"type":"Feature","properties":{"name":null},"geometry":{"type":"LineString","coordinates":[[100.64388,13.93241],[100.64123,13.93232],[100.64067,13.93185],[100.64024,13.93083]]}},{"type":"Feature","properties":{"name":null},"geometry":{"type":"LineString","coordinates":[[100.64027,13.9308],[100.63927,13.92616]]}},{"type":"Feature","properties":{"name":null},"geometry":{"type":"LineString","coordinates":[[100.64024,13.93083],[100.6398,13.92957],[100.63901,13.92859],[100.63841,13.9265]]}},{"type":"Feature","properties":{"name":null},"geometry":{"type":"LineString","coordinates":[[100.64033,13.93079],[100.64016,13.9297],[100.64105,13.92711]]}},{"type":"Feature","properties":{"name":null},"geometry":{"type":"LineString","coordinates":[[100.64018,13.93046],[100.64019,13.93027]]}},{"type":"Feature","properties":{"name":null},"geometry":{"type":"LineString","coordinates":[[100.64067,13.93162],[100.64134,13.93225],[100.64267,13.93224]]}},{"type":"Feature","properties":{"name":null},"geometry":{"type":"LineString","coordinates":[[100.64267,13.9322],[100.64113,13.93213],[100.64033,13.93079]]}},{"type":"Feature","properties":{"name":null},"geometry":{"type":"LineString","coordinates":[[100.6407,13.92839],[100.6407,13.92769]]}},{"type":"Feature","properties":{"name":null},"geometry":{"type":"LineString","coordinates":[[100.6406,13.92772],[100.64044,13.92891]]}},{"type":"Feature","properties":{"name":null},"geometry":{"type":"LineString","coordinates":[[100.64059,13.92841],[100.64053,13.92774]]}},{"type":"Feature","properties":{"name":null},"geometry":{"type":"LineString","coordinates":[[100.64041,13.92776],[100.64038,13.92905]]}},{"type":"Feature","properties":{"name":null},"geometry":{"type":"LineString","coordinates":[[100.64036,13.92777],[100.64049,13.92829]]}},{"type":"Feature","properties":{"name":null},"geometry":{"type":"LineString","coordinates":[[100.63966,13.92607],[100.64029,13.92928]]}},{"type":"Feature","properties":{"name":null},"geometry":{"type":"LineString","coordinates":[[100.63957,13.92609],[100.64029,13.9286],[100.64021,13.9295]]}},{"type":"Feature","properties":{"name":null},"geometry":{"type":"LineString","coordinates":[[100.64014,13.93006],[100.64021,13.92886],[100.63945,13.92613]]}},{"type":"Feature","properties":{"name":null},"geometry":{"type":"LineString","coordinates":[[100.63951,13.92611],[100.64027,13.92921]]}},{"type":"Feature","properties":{"name":null},"geometry":{"type":"LineString","coordinates":[[100.63835,13.92652],[100.63908,13.92912]]}},{"type":"Feature","properties":{"name":null},"geometry":{"type":"LineString","coordinates":[[100.63895,13.92845],[100.63899,13.92878]]}},{"type":"Feature","properties":{"name":null},"geometry":{"type":"LineString","coordinates":[[100.63935,13.92881],[100.63864,13.92634]]}},{"type":"Feature","properties":{"name":null},"geometry":{"type":"LineString","coordinates":[[100.63955,13.92924],[100.63935,13.92881]]}},{"type":"Feature","properties":{"name":null},"geometry":{"type":"LineString","coordinates":[[100.63867,13.92633],[100.63974,13.9295]]}},{"type":"Feature","properties":{"name":null},"geometry":{"type":"LineString","coordinates":[[100.63924,13.92617],[100.64002,13.9294]]}},{"type":"Feature","properties":{"name":null},"geometry":{"type":"LineString","coordinates":[[100.6399,13.92859],[100.6392,13.92618]]}},{"type":"Feature","properties":{"name":null},"geometry":{"type":"LineString","coordinates":[[100.64001,13.92901],[100.6399,13.92859]]}},{"type":"Feature","properties":{"name":null},"geometry":{"type":"LineString","coordinates":[[100.63993,13.92896],[100.63917,13.92618]]}},{"type":"Feature","properties":{"name":null},"geometry":{"type":"LineString","coordinates":[[100.63997,13.92927],[100.63913,13.9262]]}},{"type":"Feature","properties":{"name":null},"geometry":{"type":"LineString","coordinates":[[100.64002,13.9296],[100.63909,13.92621]]}},{"type":"Feature","properties":{"name":null},"geometry":{"type":"LineString","coordinates":[[100.63992,13.92956],[100.63905,13.92622]]}},{"type":"Feature","properties":{"name":null},"geometry":{"type":"LineString","coordinates":[[100.63984,13.92911],[100.63901,13.92623]]}},{"type":"Feature","properties":{"name":null},"geometry":{"type":"LineString","coordinates":[[100.63989,13.92939],[100.63897,13.92624]]}},{"type":"Feature","properties":{"name":null},"geometry":{"type":"LineString","coordinates":[[100.63979,13.92928],[100.63893,13.92625]]}},{"type":"Feature","properties":{"name":null},"geometry":{"type":"LineString","coordinates":[[100.63971,13.92911],[100.6389,13.92627]]}},{"type":"Feature","properties":{"name":null},"geometry":{"type":"LineString","coordinates":[[100.64005,13.92998],[100.63886,13.92628]]}},{"type":"Feature","properties":{"name":null},"geometry":{"type":"LineString","coordinates":[[100.63965,13.9292],[100.63881,13.92629]]}},{"type":"Feature","properties":{"name":null},"geometry":{"type":"LineString","coordinates":[[100.63968,13.92931],[100.63877,13.9263]]}},{"type":"Feature","properties":{"name":null},"geometry":{"type":"LineString","coordinates":[[100.63983,13.92964],[100.63874,13.92631]]}},{"type":"Feature","properties":{"name":null},"geometry":{"type":"LineString","coordinates":[[100.63955,13.92916],[100.6387,13.92632]]}},{"type":"Feature","properties":{"name":null},"geometry":{"type":"LineString","coordinates":[[100.64765,13.93232],[100.64796,13.93235]]}},{"type":"Feature","properties":{"name":"BTS Sukhumvit Line"},"geometry":{"type":"LineString","coordinates":[[100.64721,13.93237],[100.65386,13.93222]]}},{"type":"Feature","properties":{"name":"BTS Sukhumvit Line"},"geometry":{"type":"LineString","coordinates":[[100.54183,13.74434],[100.53519,13.74553]]}},{"type":"Feature","properties":{"name":null},"geometry":{"type":"LineString","coordinates":[[100.56429,13.73427],[100.56254,13.7355]]}},{"type":"Feature","properties":{"name":null},"geometry":{"type":"LineString","coordinates":[[100.56247,13.73551],[100.56284,13.73529]]}},{"type":"Feature","properties":{"name":null},"geometry":{"type":"LineString","coordinates":[[100.56284,13.73529],[100.56251,13.73556]]}},{"type":"Feature","properties":{"name":"BTS Sukhumvit Line"},"geometry":{"type":"LineString","coordinates":[[100.59827,13.71019],[100.59748,13.71075]]}},{"type":"Feature","properties":{"name":null},"geometry":{"type":"LineString","coordinates":[[100.60144,13.70477],[100.60155,13.70446]]}},{"type":"Feature","properties":{"name":null},"geometry":{"type":"LineString","coordinates":[[100.6016,13.70435],[100.60181,13.70401]]}},{"type":"Feature","properties":{"name":null},"geometry":{"type":"LineString","coordinates":[[100.6075,13.67524],[100.60767,13.67552]]}},{"type":"Feature","properties":{"name":null},"geometry":{"type":"LineString","coordinates":[[100.60763,13.67521],[100.6077,13.67551]]}},{"type":"Feature","properties":{"name":null},"geometry":{"type":"LineString","coordinates":[[100.60217,13.66213],[100.60234,13.66244]]}},{"type":"Feature","properties":{"name":null},"geometry":{"type":"LineString","coordinates":[[100.60292,13.66389],[100.60389,13.66626]]}},{"type":"Feature","properties":{"name":null},"geometry":{"type":"LineString","coordinates":[[100.60371,13.66582],[100.60391,13.6662]]}},{"type":"Feature","properties":{"name":null},"geometry":{"type":"LineString","coordinates":[[100.60384,13.66622],[100.60371,13.66582]]}},{"type":"Feature","properties":{"name":null},"geometry":{"type":"LineString","coordinates":[[100.60309,13.66431],[100.60297,13.66393]]}},{"type":"Feature","properties":{"name":null},"geometry":{"type":"LineString","coordinates":[[100.60291,13.66396],[100.60309,13.66431]]}},{"type":"Feature","properties":{"name":null},"geometry":{"type":"LineString","coordinates":[[100.60145,13.66037],[100.60136,13.66006]]}},{"type":"Feature","properties":{"name":null},"geometry":{"type":"LineString","coordinates":[[100.5933,13.64044],[100.59488,13.64431]]}},{"type":"Feature","properties":{"name":null},"geometry":{"type":"LineString","coordinates":[[100.59357,13.64109],[100.59345,13.64071]]}},{"type":"Feature","properties":{"name":null},"geometry":{"type":"LineString","coordinates":[[100.5934,13.64079],[100.59357,13.64109]]}},{"type":"Feature","properties":{"name":null},"geometry":{"type":"LineString","coordinates":[[100.59463,13.64371],[100.59482,13.64407]]}},{"type":"Feature","properties":{"name":null},"geometry":{"type":"LineString","coordinates":[[100.59475,13.64409],[100.59463,13.64371]]}},{"type":"Feature","properties":{"name":null},"geometry":{"type":"LineString","coordinates":[[100.59141,13.63585],[100.59157,13.63616]]}},{"type":"Feature","properties":{"name":"BTS Sukhumvit Line"},"geometry":{"type":"LineString","coordinates":[[100.59122,13.63536],[100.59036,13.63337],[100.5882,13.63049],[100.58788,13.62802],[100.5967,13.60361],[100.59754,13.60058],[100.5981,13.60005],[100.60638,13.59613],[100.60696,13.59557],[100.60985,13.59027],[100.60979,13.58928],[100.6047,13.57565],[100.60499,13.57344],[100.60773,13.56771]]}},{"type":"Feature","properties":{"name":"Gold Line"},"geometry":{"type":"LineString","coordinates":[[100.50772,13.73029],[100.50751,13.73036]]}},{"type":"Feature","properties":{"name":"Gold Line"},"geometry":{"type":"LineString","coordinates":[[100.50773,13.73033],[100.50752,13.7304]]}},{"type":"Feature","properties":{"name":"BTS Sukhumvit Line"},"geometry":{"type":"LineString","coordinates":[[100.59351,13.87022],[100.59373,13.87052]]}},{"type":"Feature","properties":{"name":"BTS Silom Line"},"geometry":{"type":"LineString","coordinates":[[100.50272,13.72091],[100.50644,13.72064],[100.51282,13.71917]]}},{"type":"Feature","properties":{"name":"BTS Silom Line"},"geometry":{"type":"LineString","coordinates":[[100.50272,13.72096],[100.50648,13.72067],[100.51282,13.71917]]}},{"type":"Feature","properties":{"name":"BTS Silom Line"},"geometry":{"type":"LineString","coordinates":[[100.45781,13.7208],[100.45791,13.72006]]}},{"type":"Feature","properties":{"name":"BTS Silom Line"},"geometry":{"type":"LineString","coordinates":[[100.45776,13.72079],[100.45787,13.72006]]}},{"type":"Feature","properties":{"name":null},"geometry":{"type":"LineString","coordinates":[[100.44537,13.70717],[100.44395,13.70495]]}},{"type":"Feature","properties":{"name":null},"geometry":{"type":"LineString","coordinates":[[100.44509,13.70708],[100.44478,13.70661]]}},{"type":"Feature","properties":{"name":null},"geometry":{"type":"LineString","coordinates":[[100.44424,13.70591],[100.4437,13.70504]]}},{"type":"Feature","properties":{"name":null},"geometry":{"type":"LineString","coordinates":[[100.44443,13.70621],[100.44424,13.70591]]}},{"type":"Feature","properties":{"name":null},"geometry":{"type":"LineString","coordinates":[[100.44427,13.7059],[100.44374,13.70501]]}},{"type":"Feature","properties":{"name":null},"geometry":{"type":"LineString","coordinates":[[100.44478,13.70661],[100.44427,13.7059]]}},{"type":"Feature","properties":{"name":null},"geometry":{"type":"LineString","coordinates":[[100.44543,13.70679],[100.44424,13.70476]]}},{"type":"Feature","properties":{"name":null},"geometry":{"type":"LineString","coordinates":[[100.44306,13.70456],[100.44546,13.70837]]}},{"type":"Feature","properties":{"name":"BTS Sukhumvit Line"},"geometry":{"type":"LineString","coordinates":[[100.55638,13.80699],[100.55712,13.80826]]}},{"type":"Feature","properties":{"name":null},"geometry":{"type":"LineString","coordinates":[[100.55638,13.80699],[100.55618,13.80673]]}},{"type":"Feature","properties":{"name":"BTS Sukhumvit Line"},"geometry":{"type":"LineString","coordinates":[[100.55634,13.80701],[100.55761,13.80916]]}},{"type":"Feature","properties":{"name":"BTS Silom Line"},"geometry":{"type":"LineString","coordinates":[[100.49115,13.72074],[100.49437,13.7211],[100.50272,13.72096]]}},{"type":"Feature","properties":{"name":"BTS Silom Line"},"geometry":{"type":"LineString","coordinates":[[100.49115,13.72069],[100.49425,13.72106],[100.50272,13.72091]]}},{"type":"Feature","properties":{"name":"BTS Sukhumvit Line"},"geometry":{"type":"LineString","coordinates":[[100.59827,13.71019],[100.59951,13.70875],[100.60261,13.70239]]}},{"type":"Feature","properties":{"name":"BTS Sukhumvit Line"},"geometry":{"type":"LineString","coordinates":[[100.59825,13.71015],[100.59945,13.70877],[100.60257,13.70238]]}},{"type":"Feature","properties":{"name":"MRT Purple Line"},"geometry":{"type":"LineString","coordinates":[[100.53125,13.81024],[100.53125,13.80984]]}},{"type":"Feature","properties":{"name":"MRT Purple Line"},"geometry":{"type":"LineString","coordinates":[[100.53109,13.80891],[100.53119,13.80938]]}},{"type":"Feature","properties":{"name":null},"geometry":{"type":"LineString","coordinates":[[100.40805,13.89418],[100.40772,13.89762]]}},{"type":"Feature","properties":{"name":null},"geometry":{"type":"LineString","coordinates":[[100.40795,13.89466],[100.40797,13.89505]]}},{"type":"Feature","properties":{"name":null},"geometry":{"type":"LineString","coordinates":[[100.408,13.89475],[100.40811,13.89424]]}},{"type":"Feature","properties":{"name":null},"geometry":{"type":"LineString","coordinates":[[100.4078,13.89758],[100.40777,13.89711]]}},{"type":"Feature","properties":{"name":null},"geometry":{"type":"LineString","coordinates":[[100.40771,13.89717],[100.40782,13.89667]]}},{"type":"Feature","properties":{"name":"MRT Blue Line"},"geometry":{"type":"LineString","coordinates":[[100.40814,13.7108],[100.40948,13.71091]]}}]}