{"type":"FeatureCollection","name":"stations","crs":{"type":"name","properties":{"name":"urn:ogc:def:crs:OGC:1.3:CRS84"}},"features":[{"type":"Feature","properties":{"station":"Surasak","line":"BTS","n_osm":1,"exits":5},"geometry":{"type":"Point","coordinates":[100.52146,13.71927]}},{"type":"Feature","properties":{"station":"Chong Nonsi","line":"","n_osm":1,"exits":9},"geometry":{"type":"Point","coordinates":[100.52933,13.7238]}},{"type":"Feature","properties":{"station":"Ratchadamri","line":"","n_osm":1,"exits":5},"geometry":{"type":"Point","coordinates":[100.53945,13.73947]}},{"type":"Feature","properties":{"station":"Saphan Taksin","line":"","n_osm":1,"exits":3},"geometry":{"type":"Point","coordinates":[100.51422,13.71881]}},{"type":"Feature","properties":{"station":"Sena Ruam","line":"BTS","n_osm":1,"exits":1},"geometry":{"type":"Point","coordinates":[100.54686,13.78594]}},{"type":"Feature","properties":{"station":"Hua Lamphong","line":"","n_osm":1,"exits":5},"geometry":{"type":"Point","coordinates":[100.51713,13.73757]}},{"type":"Feature","properties":{"station":"Phra Ram 9","line":"","n_osm":1,"exits":2},"geometry":{"type":"Point","coordinates":[100.56528,13.75782]}},{"type":"Feature","properties":{"station":"Queen Sirikit National Convention Centre","line":"","n_osm":1,"exits":5},"geometry":{"type":"Point","coordinates":[100.55991,13.72267]}},{"type":"Feature","properties":{"station":"Lumphini","line":"","n_osm":1,"exits":6},"geometry":{"type":"Point","coordinates":[100.54572,13.72561]}},{"type":"Feature","properties":{"station":"Huai Khwang","line":"","n_osm":1,"exits":5},"geometry":{"type":"Point","coordinates":[100.57357,13.77869]}},{"type":"Feature","properties":{"station":"Sutthisan","line":"","n_osm":1,"exits":5},"geometry":{"type":"Point","coordinates":[100.57408,13.78949]}},{"type":"Feature","properties":{"station":"Ratchadaphisek","line":"","n_osm":1,"exits":5},"geometry":{"type":"Point","coordinates":[100.57455,13.79897]}},{"type":"Feature","properties":{"station":"Thailand Cultural Centre","line":"","n_osm":1,"exits":5},"geometry":{"type":"Point","coordinates":[100.57012,13.76616]}},{"type":"Feature","properties":{"station":"Lat Phrao","line":"","n_osm":1,"exits":5},"geometry":{"type":"Point","coordinates":[100.57287,13.8065]}},{"type":"Feature","properties":{"station":"Phahon Yothin","line":"","n_osm":1,"exits":6},"geometry":{"type":"Point","coordinates":[100.56146,13.81288]}},{"type":"Feature","properties":{"station":"Chatuchak Park","line":"MRT","n_osm":1,"exits":4},"geometry":{"type":"Point","coordinates":[100.55328,13.80296]}},{"type":"Feature","properties":{"station":"Kamphaeng Phet","line":"","n_osm":1,"exits":3},"geometry":{"type":"Point","coordinates":[100.54788,13.79795]}},{"type":"Feature","properties":{"station":"Khlong Toei","line":"","n_osm":1,"exits":3},"geometry":{"type":"Point","coordinates":[100.55437,13.72213]}},{"type":"Feature","properties":{"station":"Pho Nimit","line":"BTS","n_osm":1,"exits":3},"geometry":{"type":"Point","coordinates":[100.48597,13.71924]}},{"type":"Feature","properties":{"station":"Talat Phlu","line":"BTS","n_osm":1,"exits":3},"geometry":{"type":"Point","coordinates":[100.47669,13.71422]}},{"type":"Feature","properties":{"station":"Wongwian Yai","line":"BTS","n_osm":1,"exits":8},"geometry":{"type":"Point","coordinates":[100.49516,13.72108]}},{"type":"Feature","properties":{"station":"Krung Thon Buri","line":"BTS","n_osm":2,"exits":8},"geometry":{"type":"Point","coordinates":[100.50322,13.72102]}},{"type":"Feature","properties":{"station":"Sala Daeng","line":"","n_osm":1,"exits":6},"geometry":{"type":"Point","coordinates":[100.53434,13.72857]}},{"type":"Feature","properties":{"station":"Hua Mak","line":"ARL","n_osm":1,"exits":2},"geometry":{"type":"Point","coordinates":[100.64526,13.73802]}},{"type":"Feature","properties":{"station":"Wutthakat","line":"","n_osm":1,"exits":1},"geometry":{"type":"Point","coordinates":[100.4689,13.71302]}},{"type":"Feature","properties":{"station":"Saphan Khwai","line":"","n_osm":1,"exits":6},"geometry":{"type":"Point","coordinates":[100.54971,13.79382]}},{"type":"Feature","properties":{"station":"Siam","line":"BTS","n_osm":1,"exits":15},"geometry":{"type":"Point","coordinates":[100.53422,13.74562]}},{"type":"Feature","properties":{"station":"Tha Phra","line":"","n_osm":1,"exits":6},"geometry":{"type":"Point","coordinates":[100.47404,13.72965]}},{"type":"Feature","properties":{"station":"Bang Khun Non","line":"","n_osm":1,"exits":1},"geometry":{"type":"Point","coordinates":[100.4733,13.76333]}},{"type":"Feature","properties":{"station":"Phet Kamphaeng MRT","line":"MRT","n_osm":1,"exits":1},"geometry":{"type":"Point","coordinates":[100.54868,13.79813]}},{"type":"Feature","properties":{"station":"Charan 13","line":"","n_osm":1,"exits":1},"geometry":{"type":"Point","coordinates":[100.47071,13.74017]}},{"type":"Feature","properties":{"station":"Bang Phlat","line":"","n_osm":1,"exits":1},"geometry":{"type":"Point","coordinates":[100.50489,13.79241]}},{"type":"Feature","properties":{"station":"Bang Yi Khan","line":"","n_osm":1,"exits":1},"geometry":{"type":"Point","coordinates":[100.48526,13.77738]}},{"type":"Feature","properties":{"station":"Bang O","line":"","n_osm":1,"exits":2},"geometry":{"type":"Point","coordinates":[100.50979,13.79898]}},{"type":"Feature","properties":{"station":"Bang Khae","line":"","n_osm":1,"exits":6},"geometry":{"type":"Point","coordinates":[100.42234,13.71194]}},{"type":"Feature","properties":{"station":"Bang Pho","line":"","n_osm":1,"exits":1},"geometry":{"type":"Point","coordinates":[100.52101,13.8064]}},{"type":"Feature","properties":{"station":"Bang Phai","line":"","n_osm":1,"exits":5},"geometry":{"type":"Point","coordinates":[100.46508,13.72462]}},{"type":"Feature","properties":{"station":"Phasi Charoen","line":"","n_osm":1,"exits":5},"geometry":{"type":"Point","coordinates":[100.43433,13.71291]}},{"type":"Feature","properties":{"station":"Lak Song","line":"","n_osm":1,"exits":5},"geometry":{"type":"Point","coordinates":[100.40948,13.71088]}},{"type":"Feature","properties":{"station":"Phetkasem 48","line":"","n_osm":1,"exits":5},"geometry":{"type":"Point","coordinates":[100.44545,13.71556]}},{"type":"Feature","properties":{"station":"Wat Phra Sri Mahathat","line":"BTS; MRT","n_osm":2,"exits":3},"geometry":{"type":"Point","coordinates":[100.59697,13.87482]}},{"type":"Feature","properties":{"station":"Yaek Tiwanon","line":"MRT","n_osm":1,"exits":1},"geometry":{"type":"Point","coordinates":[100.51497,13.83953]}},{"type":"Feature","properties":{"station":"Wong Sawang","line":"","n_osm":1,"exits":1},"geometry":{"type":"Point","coordinates":[100.5265,13.82986]}},{"type":"Feature","properties":{"station":"Bang Son","line":"","n_osm":1,"exits":1},"geometry":{"type":"Point","coordinates":[100.53246,13.82008]}},{"type":"Feature","properties":{"station":"Khlong Bang Phai","line":"MRT","n_osm":1,"exits":1},"geometry":{"type":"Point","coordinates":[100.40822,13.89243]}},{"type":"Feature","properties":{"station":"Talad Bang Yai","line":"MRT","n_osm":1,"exits":1},"geometry":{"type":"Point","coordinates":[100.40929,13.88101]}},{"type":"Feature","properties":{"station":"Sam Yaek Bang Yai","line":"MRT","n_osm":1,"exits":1},"geometry":{"type":"Point","coordinates":[100.41936,13.87467]}},{"type":"Feature","properties":{"station":"Bang Phlu","line":"MRT","n_osm":1,"exits":1},"geometry":{"type":"Point","coordinates":[100.4338,13.87577]}},{"type":"Feature","properties":{"station":"Bang Rak Yai","line":"MRT","n_osm":1,"exits":1},"geometry":{"type":"Point","coordinates":[100.44494,13.87661]}},{"type":"Feature","properties":{"station":"Bang Rak Noi Tha It","line":"MRT","n_osm":1,"exits":1},"geometry":{"type":"Point","coordinates":[100.45597,13.87481]}},{"type":"Feature","properties":{"station":"Sai Ma","line":"MRT","n_osm":1,"exits":1},"geometry":{"type":"Point","coordinates":[100.46669,13.87051]}},{"type":"Feature","properties":{"station":"Phra Nang Klao Bridge","line":"MRT","n_osm":1,"exits":1},"geometry":{"type":"Point","coordinates":[100.48013,13.87029]}},{"type":"Feature","properties":{"station":"Yaek Nonthaburi 1","line":"MRT","n_osm":1,"exits":1},"geometry":{"type":"Point","coordinates":[100.49408,13.86596]}},{"type":"Feature","properties":{"station":"Bang Krasor","line":"MRT","n_osm":1,"exits":1},"geometry":{"type":"Point","coordinates":[100.50465,13.86165]}},{"type":"Feature","properties":{"station":"Nonthaburi Civic Center","line":"MRT","n_osm":1,"exits":2},"geometry":{"type":"Point","coordinates":[100.51307,13.86017]}},{"type":"Feature","properties":{"station":"Ministry of Public Health","line":"MRT","n_osm":1,"exits":5},"geometry":{"type":"Point","coordinates":[100.51472,13.84853]}},{"type":"Feature","properties":{"station":"Mo Chit","line":"","n_osm":1,"exits":8},"geometry":{"type":"Point","coordinates":[100.55379,13.8026]}},{"type":"Feature","properties":{"station":"Ari","line":"","n_osm":1,"exits":6},"geometry":{"type":"Point","coordinates":[100.54462,13.77971]}},{"type":"Feature","properties":{"station":"Phaya Thai","line":"ARL","n_osm":2,"exits":9},"geometry":{"type":"Point","coordinates":[100.53436,13.75684]}},{"type":"Feature","properties":{"station":"Ratchathewi","line":"","n_osm":1,"exits":6},"geometry":{"type":"Point","coordinates":[100.53155,13.75186]}},{"type":"Feature","properties":{"station":"Sanam Pao","line":"","n_osm":1,"exits":6},"geometry":{"type":"Point","coordinates":[100.54207,13.77262]}},{"type":"Feature","properties":{"station":"Bearing","line":"","n_osm":1,"exits":7},"geometry":{"type":"Point","coordinates":[100.60181,13.66118]}},{"type":"Feature","properties":{"station":"Bang Na","line":"","n_osm":1,"exits":10},"geometry":{"type":"Point","coordinates":[100.60466,13.66814]}},{"type":"Feature","properties":{"station":"Phra Khanong","line":"BTS Sukhumvit","n_osm":1,"exits":5},"geometry":{"type":"Point","coordinates":[100.59124,13.71517]}},{"type":"Feature","properties":{"station":"Victory Monument","line":"","n_osm":1,"exits":6},"geometry":{"type":"Point","coordinates":[100.53705,13.76276]}},{"type":"Feature","properties":{"station":"Udom Suk","line":"","n_osm":1,"exits":7},"geometry":{"type":"Point","coordinates":[100.60947,13.67987]}},{"type":"Feature","properties":{"station":"Punnawithi","line":"","n_osm":1,"exits":7},"geometry":{"type":"Point","coordinates":[100.609,13.68928]}},{"type":"Feature","properties":{"station":"Bang Chak","line":"","n_osm":1,"exits":8},"geometry":{"type":"Point","coordinates":[100.60534,13.69676]}},{"type":"Feature","properties":{"station":"On Nut","line":"","n_osm":1,"exits":8},"geometry":{"type":"Point","coordinates":[100.601,13.70562]}},{"type":"Feature","properties":{"station":"Asok","line":"","n_osm":1,"exits":10},"geometry":{"type":"Point","coordinates":[100.56036,13.73704]}},{"type":"Feature","properties":{"station":"Thong Lo","line":"","n_osm":1,"exits":9},"geometry":{"type":"Point","coordinates":[100.57851,13.72423]}},{"type":"Feature","properties":{"station":"Phrom Phong","line":"","n_osm":1,"exits":8},"geometry":{"type":"Point","coordinates":[100.56971,13.73043]}},{"type":"Feature","properties":{"station":"Nana","line":"BTS","n_osm":1,"exits":5},"geometry":{"type":"Point","coordinates":[100.55543,13.74054]}},{"type":"Feature","properties":{"station":"Phloen Chit","line":"BTS","n_osm":1,"exits":5},"geometry":{"type":"Point","coordinates":[100.54898,13.74307]}},{"type":"Feature","properties":{"station":"Chit Lom","line":"BTS","n_osm":1,"exits":7},"geometry":{"type":"Point","coordinates":[100.54307,13.7441]}},{"type":"Feature","properties":{"station":"Samrong","line":"","n_osm":1,"exits":1},"geometry":{"type":"Point","coordinates":[100.59579,13.64649]}},{"type":"Feature","properties":{"station":"Sukhumvit","line":"BTS Sukhumvit","n_osm":1,"exits":4},"geometry":{"type":"Point","coordinates":[100.56134,13.73739]}},{"type":"Feature","properties":{"station":"Ekkamai","line":"","n_osm":1,"exits":6},"geometry":{"type":"Point","coordinates":[100.58511,13.71954]}},{"type":"Feature","properties":{"station":"Charoen Nakhon","line":"BTS","n_osm":1,"exits":1},"geometry":{"type":"Point","coordinates":[100.50907,13.72646]}},{"type":"Feature","properties":{"station":"Khlong San","line":"BTS","n_osm":1,"exits":1},"geometry":{"type":"Point","coordinates":[100.50772,13.73031]}},{"type":"Feature","properties":{"station":"Rangsit","line":"SRT Red","n_osm":1,"exits":1},"geometry":{"type":"Point","coordinates":[100.60215,13.99054]}},{"type":"Feature","properties":{"station":"Pu Chao","line":"","n_osm":1,"exits":1},"geometry":{"type":"Point","coordinates":[100.59201,13.63728]}},{"type":"Feature","properties":{"station":"Chang Erawan","line":"","n_osm":1,"exits":1},"geometry":{"type":"Point","coordinates":[100.59016,13.62159]}},{"type":"Feature","properties":{"station":"Royal Thai Naval Academy","line":"","n_osm":1,"exits":1},"geometry":{"type":"Point","coordinates":[100.59491,13.60841]}},{"type":"Feature","properties":{"station":"Pak Nam","line":"","n_osm":1,"exits":1},"geometry":{"type":"Point","coordinates":[100.59709,13.60212]}},{"type":"Feature","properties":{"station":"Srinagarindra","line":"","n_osm":1,"exits":1},"geometry":{"type":"Point","coordinates":[100.60904,13.592]}},{"type":"Feature","properties":{"station":"Phraek Sa","line":"","n_osm":1,"exits":1},"geometry":{"type":"Point","coordinates":[100.60791,13.58419]}},{"type":"Feature","properties":{"station":"Sai Luat","line":"","n_osm":1,"exits":1},"geometry":{"type":"Point","coordinates":[100.60546,13.57778]}},{"type":"Feature","properties":{"station":"Kheha","line":"","n_osm":1,"exits":1},"geometry":{"type":"Point","coordinates":[100.60769,13.56769]}},{"type":"Feature","properties":{"station":"Sirindhorn","line":"","n_osm":1,"exits":1},"geometry":{"type":"Point","coordinates":[100.49333,13.78387]}},{"type":"Feature","properties":{"station":"Yaek Kor Por Aor","line":"","n_osm":1,"exits":8},"geometry":{"type":"Point","coordinates":[100.62584,13.92501]}},{"type":"Feature","properties":{"station":"Royal Thai Air Force Museum","line":"BTS","n_osm":1,"exits":9},"geometry":{"type":"Point","coordinates":[100.62169,13.91797]}},{"type":"Feature","properties":{"station":"Bhumibol Adulyadej Hospital","line":"BTS","n_osm":1,"exits":8},"geometry":{"type":"Point","coordinates":[100.6174,13.91071]}},{"type":"Feature","properties":{"station":"Saphan Mai","line":"BTS","n_osm":1,"exits":9},"geometry":{"type":"Point","coordinates":[100.60908,13.89661]}},{"type":"Feature","properties":{"station":"Sai Yud","line":"","n_osm":1,"exits":1},"geometry":{"type":"Point","coordinates":[100.60427,13.88845]}},{"type":"Feature","properties":{"station":"Phahonyothin 59","line":"BTS","n_osm":1,"exits":1},"geometry":{"type":"Point","coordinates":[100.60073,13.88245]}},{"type":"Feature","properties":{"station":"11th Infantry Regiment","line":"BTS","n_osm":1,"exits":1},"geometry":{"type":"Point","coordinates":[100.59197,13.86758]}},{"type":"Feature","properties":{"station":"Bang Bua","line":"","n_osm":1,"exits":1},"geometry":{"type":"Point","coordinates":[100.58518,13.85605]}},{"type":"Feature","properties":{"station":"Royal Forest Department","line":"BTS","n_osm":1,"exits":1},"geometry":{"type":"Point","coordinates":[100.58182,13.85033]}},{"type":"Feature","properties":{"station":"Kasetsart University","line":"BTS","n_osm":1,"exits":1},"geometry":{"type":"Point","coordinates":[100.57711,13.84231]}},{"type":"Feature","properties":{"station":"Sena Nikhom","line":"","n_osm":1,"exits":1},"geometry":{"type":"Point","coordinates":[100.57363,13.83641]}},{"type":"Feature","properties":{"station":"Ratchayothin","line":"BTS","n_osm":1,"exits":1},"geometry":{"type":"Point","coordinates":[100.56972,13.82975]}},{"type":"Feature","properties":{"station":"Phahonyothin 24","line":"BTS","n_osm":1,"exits":1},"geometry":{"type":"Point","coordinates":[100.56643,13.82412]}},{"type":"Feature","properties":{"station":"Suvarnabhumi","line":"ARL","n_osm":1,"exits":1},"geometry":{"type":"Point","coordinates":[100.75129,13.69427]}},{"type":"Feature","properties":{"station":"Ramkhamhaeng","line":"ARL","n_osm":1,"exits":3},"geometry":{"type":"Point","coordinates":[100.60015,13.74299]}},{"type":"Feature","properties":{"station":"Ban Thap Chang","line":"ARL","n_osm":1,"exits":3},"geometry":{"type":"Point","coordinates":[100.69082,13.73289]}},{"type":"Feature","properties":{"station":"Lat Krabang","line":"ARL","n_osm":1,"exits":3},"geometry":{"type":"Point","coordinates":[100.7486,13.72768]}},{"type":"Feature","properties":{"station":"Makkasan","line":"ARL","n_osm":1,"exits":2},"geometry":{"type":"Point","coordinates":[100.56114,13.75091]}},{"type":"Feature","properties":{"station":"Ratchaprarop","line":"ARL","n_osm":1,"exits":3},"geometry":{"type":"Point","coordinates":[100.54212,13.75511]}},{"type":"Feature","properties":{"station":"Ha Yaek Lat Phrao","line":"","n_osm":1,"exits":1},"geometry":{"type":"Point","coordinates":[100.56204,13.81668]}},{"type":"Feature","properties":{"station":"Fai Chai","line":"MRT","n_osm":1,"exits":1},"geometry":{"type":"Point","coordinates":[100.46932,13.7558]}},{"type":"Feature","properties":{"station":"Bang Wa","line":"","n_osm":2,"exits":8},"geometry":{"type":"Point","coordinates":[100.45741,13.72053]}},{"type":"Feature","properties":{"station":"Tao Poon","line":"MRT","n_osm":1,"exits":5},"geometry":{"type":"Point","coordinates":[100.53078,13.80616]}},{"type":"Feature","properties":{"station":"Saint Louis","line":"BTS","n_osm":1,"exits":3},"geometry":{"type":"Point","coordinates":[100.52669,13.72082]}},{"type":"Feature","properties":{"station":"Chatuchak","line":"SRT Red","n_osm":1,"exits":1},"geometry":{"type":"Point","coordinates":[100.54947,13.82662]}},{"type":"Feature","properties":{"station":"Wat Samian Nari","line":"SRT Red","n_osm":1,"exits":1},"geometry":{"type":"Point","coordinates":[100.5575,13.84159]}},{"type":"Feature","properties":{"station":"Bang Khen","line":"SRT Red","n_osm":1,"exits":1},"geometry":{"type":"Point","coordinates":[100.56167,13.84937]}},{"type":"Feature","properties":{"station":"Thung Song Hong","line":"SRT Red","n_osm":1,"exits":1},"geometry":{"type":"Point","coordinates":[100.56753,13.86021]}},{"type":"Feature","properties":{"station":"Lak Si","line":"SRT Red","n_osm":1,"exits":8},"geometry":{"type":"Point","coordinates":[100.58194,13.88631]}},{"type":"Feature","properties":{"station":"Kan Kheha","line":"SRT Red","n_osm":1,"exits":1},"geometry":{"type":"Point","coordinates":[100.58887,13.89866]}},{"type":"Feature","properties":{"station":"Don Muang","line":"SRT Red","n_osm":1,"exits":1},"geometry":{"type":"Point","coordinates":[100.59787,13.91469]}},{"type":"Feature","properties":{"station":"Lak Hok (Rangsit U.)","line":"SRT Red","n_osm":1,"exits":1},"geometry":{"type":"Point","coordinates":[100.60538,13.96572]}},{"type":"Feature","properties":{"station":"Khu Khot","line":"","n_osm":1,"exits":9},"geometry":{"type":"Point","coordinates":[100.64652,13.93237]}},{"type":"Feature","properties":{"station":"Lat Phrao 101","line":"MRT","n_osm":1,"exits":1},"geometry":{"type":"Point","coordinates":[100.62984,13.77463]}},{"type":"Feature","properties":{"station":"Nonthaburi Civic Center","line":"MRT","n_osm":1,"exits":2},"geometry":{"type":"Point","coordinates":[100.51812,13.85972]}},{"type":"Feature","properties":{"station":"Khae Rai","line":"MRT","n_osm":1,"exits":1},"geometry":{"type":"Point","coordinates":[100.52065,13.86266]}},{"type":"Feature","properties":{"station":"Sanambin Nam","line":"MRT","n_osm":1,"exits":1},"geometry":{"type":"Point","coordinates":[100.51632,13.87414]}},{"type":"Feature","properties":{"station":"Yaek Pak Kret","line":"MRT","n_osm":1,"exits":1},"geometry":{"type":"Point","coordinates":[100.50539,13.9062]}},{"type":"Feature","properties":{"station":"Samakkhi","line":"MRT","n_osm":1,"exits":1},"geometry":{"type":"Point","coordinates":[100.51057,13.88928]}},{"type":"Feature","properties":{"station":"Royal Irrigation Department","line":"MRT","n_osm":1,"exits":1},"geometry":{"type":"Point","coordinates":[100.50709,13.89857]}},{"type":"Feature","properties":{"station":"Pak Kret Bypass","line":"MRT","n_osm":1,"exits":1},"geometry":{"type":"Point","coordinates":[100.51558,13.9065]}},{"type":"Feature","properties":{"station":"Chaeng Watthana-Pak Kret 28","line":"MRT","n_osm":1,"exits":5},"geometry":{"type":"Point","coordinates":[100.52926,13.90416]}},{"type":"Feature","properties":{"station":"Si Rat","line":"MRT","n_osm":1,"exits":1},"geometry":{"type":"Point","coordinates":[100.54001,13.90057]}},{"type":"Feature","properties":{"station":"Muang Thong Thani","line":"MRT","n_osm":1,"exits":1},"geometry":{"type":"Point","coordinates":[100.54845,13.89743]}},{"type":"Feature","properties":{"station":"Chaeng Watthana 14","line":"MRT","n_osm":1,"exits":1},"geometry":{"type":"Point","coordinates":[100.56015,13.8933]}},{"type":"Feature","properties":{"station":"Min Buri Market","line":"MRT","n_osm":1,"exits":1},"geometry":{"type":"Point","coordinates":[100.72584,13.81251]}},{"type":"Feature","properties":{"station":"Government Complex","line":"MRT","n_osm":1,"exits":1},"geometry":{"type":"Point","coordinates":[100.56735,13.89077]}},{"type":"Feature","properties":{"station":"National Telecom","line":"MRT","n_osm":1,"exits":1},"geometry":{"type":"Point","coordinates":[100.57571,13.88758]}},{"type":"Feature","properties":{"station":"Lak Si","line":"MRT","n_osm":1,"exits":8},"geometry":{"type":"Point","coordinates":[100.58269,13.88408]}},{"type":"Feature","properties":{"station":"Rajabhat Phranakhon","line":"MRT","n_osm":1,"exits":1},"geometry":{"type":"Point","coordinates":[100.5893,13.87994]}},{"type":"Feature","properties":{"station":"Ram Inthra 3","line":"MRT","n_osm":1,"exits":1},"geometry":{"type":"Point","coordinates":[100.60262,13.87095]}},{"type":"Feature","properties":{"station":"Lat Pla Khao","line":"MRT","n_osm":1,"exits":1},"geometry":{"type":"Point","coordinates":[100.61781,13.8628]}},{"type":"Feature","properties":{"station":"Ram Inthra Kor Mor 4","line":"MRT","n_osm":1,"exits":9},"geometry":{"type":"Point","coordinates":[100.62613,13.85831]}},{"type":"Feature","properties":{"station":"Maiyalap","line":"MRT","n_osm":1,"exits":1},"geometry":{"type":"Point","coordinates":[100.63223,13.85501]}},{"type":"Feature","properties":{"station":"Vacharaphol","line":"MRT","n_osm":1,"exits":1},"geometry":{"type":"Point","coordinates":[100.64288,13.84926]}},{"type":"Feature","properties":{"station":"Ram Inthra Kor Mor 6","line":"MRT","n_osm":1,"exits":1},"geometry":{"type":"Point","coordinates":[100.65024,13.84527]}},{"type":"Feature","properties":{"station":"Ram Inthra Kor Mor 9","line":"MRT","n_osm":1,"exits":1},"geometry":{"type":"Point","coordinates":[100.66757,13.83379]}},{"type":"Feature","properties":{"station":"Khu Bon","line":"MRT","n_osm":1,"exits":1},"geometry":{"type":"Point","coordinates":[100.65879,13.84062]}},{"type":"Feature","properties":{"station":"Outer Ring Road-Ram Inthra","line":"MRT","n_osm":1,"exits":5},"geometry":{"type":"Point","coordinates":[100.67721,13.82445]}},{"type":"Feature","properties":{"station":"Bang Chan","line":"MRT","n_osm":1,"exits":1},"geometry":{"type":"Point","coordinates":[100.70294,13.81272]}},{"type":"Feature","properties":{"station":"Nopparat","line":"MRT","n_osm":1,"exits":1},"geometry":{"type":"Point","coordinates":[100.68565,13.81653]}},{"type":"Feature","properties":{"station":"National Stadium","line":"","n_osm":1,"exits":7},"geometry":{"type":"Point","coordinates":[100.52909,13.74651]}},{"type":"Feature","properties":{"station":"Si Lom","line":"","n_osm":1,"exits":3},"geometry":{"type":"Point","coordinates":[100.53707,13.7292]}},{"type":"Feature","properties":{"station":"Wat Mangkon","line":"","n_osm":1,"exits":2},"geometry":{"type":"Point","coordinates":[100.50991,13.74221]}},{"type":"Feature","properties":{"station":"Sam Yot","line":"","n_osm":1,"exits":4},"geometry":{"type":"Point","coordinates":[100.5023,13.747]}},{"type":"Feature","properties":{"station":"Sanam Chai","line":"","n_osm":1,"exits":7},"geometry":{"type":"Point","coordinates":[100.49462,13.74433]}},{"type":"Feature","properties":{"station":"Sam Yan","line":"","n_osm":1,"exits":5},"geometry":{"type":"Point","coordinates":[100.53012,13.73206]}},{"type":"Feature","properties":{"station":"Itsaraphap","line":"","n_osm":1,"exits":5},"geometry":{"type":"Point","coordinates":[100.4857,13.73836]}},{"type":"Feature","properties":{"station":"Bang Sue","line":"","n_osm":1,"exits":5},"geometry":{"type":"Point","coordinates":[100.54105,13.80239]}},{"type":"Feature","properties":{"station":"Phetchaburi","line":"","n_osm":1,"exits":5},"geometry":{"type":"Point","coordinates":[100.56342,13.74919]}},{"type":"Feature","properties":{"station":"Impact Muang Thong Thani","line":"MRT","n_osm":1,"exits":1},"geometry":{"type":"Point","coordinates":[100.54426,13.91044]}},{"type":"Feature","properties":{"station":"Lake Muang Thong Thani","line":"MRT","n_osm":1,"exits":1},"geometry":{"type":"Point","coordinates":[100.54564,13.91838]}},{"type":"Feature","properties":{"station":"\u0e2d\u0e32\u0e04\u0e32\u0e23\u0e1c\u0e39\u0e49\u0e42\u0e14\u0e22\u0e2a\u0e32\u0e23\u0e2b\u0e25\u0e31\u0e01","line":"","n_osm":1,"exits":1},"geometry":{"type":"Point","coordinates":[100.75048,13.69143]}},{"type":"Feature","properties":{"station":"Midfield Satellite Concourse 1","line":"","n_osm":1,"exits":1},"geometry":{"type":"Point","coordinates":[100.74822,13.68249]}},{"type":"Feature","properties":{"station":"MRTA","line":"MRT","n_osm":1,"exits":1},"geometry":{"type":"Point","coordinates":[100.57811,13.75539]}}]}