{
"type": "FeatureCollection",
"name": "study",
"crs": { "type": "name", "properties": { "name": "urn:ogc:def:crs:OGC:1.3:CRS84" } },
"features": [
{ "type": "Feature", "properties": { "name": "study" }, "geometry": { "type": "Polygon", "coordinates": [ [ [ 100.465868297000043, 13.603900447000058 ], [ 100.463947659000041, 13.605849188000036 ], [ 100.457547899000076, 13.604401302000042 ], [ 100.453968202000055, 13.60601368500005 ], [ 100.450832923000064, 13.594559305000075 ], [ 100.446586515000035, 13.587017189000051 ], [ 100.444462011000041, 13.553194148000046 ], [ 100.453693435000048, 13.501979764000055 ], [ 100.443058911000037, 13.500358685000037 ], [ 100.437083176000044, 13.496768709000037 ], [ 100.43493385000005, 13.498092646000032 ], [ 100.434909593000043, 13.496585818000028 ], [ 100.430737291000071, 13.495834451000064 ], [ 100.425812912000083, 13.49756276200003 ], [ 100.423691207000047, 13.495846568000047 ], [ 100.423045925000054, 13.496820329000059 ], [ 100.421627446000059, 13.494743155000037 ], [ 100.408838252000066, 13.493389571000023 ], [ 100.40682494400005, 13.50222 ], [ 100.406325868000067, 13.535797271000035 ], [ 100.414066977000061, 13.535871970000073 ], [ 100.41484827000005, 13.538832125000056 ], [ 100.418323043000044, 13.540538860000026 ], [ 100.42008972900004, 13.545241469000075 ], [ 100.414644136000049, 13.551455988000043 ], [ 100.415213885000071, 13.557151797000074 ], [ 100.412555998000073, 13.557241341000065 ], [ 100.41189776300007, 13.55547600400007 ], [ 100.408517730000085, 13.554532947000041 ], [ 100.404369170000052, 13.555059349000032 ], [ 100.401019897000083, 13.552822426000034 ], [ 100.395822016000068, 13.553472173000046 ], [ 100.39467028200005, 13.554985738000028 ], [ 100.393121174000044, 13.561474597000029 ], [ 100.391306642000075, 13.563261139000076 ], [ 100.391485228000079, 13.568898409000042 ], [ 100.389487908000035, 13.569784795000032 ], [ 100.387979578000056, 13.574289646000068 ], [ 100.386647362000076, 13.574693936000074 ], [ 100.386604343000045, 13.577947255000026 ], [ 100.384995226000058, 13.579129454000054 ], [ 100.385974913000041, 13.584963827000024 ], [ 100.384361682000076, 13.589517468000054 ], [ 100.378518194000037, 13.594277249000072 ], [ 100.376482084000088, 13.619703151000067 ], [ 100.37179593500008, 13.622730904000036 ], [ 100.366005871000084, 13.633624022000049 ], [ 100.359058883000046, 13.632780154000045 ], [ 100.358697088000042, 13.637319 ], [ 100.35544907600007, 13.636540633000038 ], [ 100.354340409000088, 13.640888890000042 ], [ 100.35024229000004, 13.640497348000054 ], [ 100.348519681000084, 13.641008958000043 ], [ 100.348606162000067, 13.643725023000059 ], [ 100.347358338000049, 13.643637997000042 ], [ 100.347170575000064, 13.645060569000066 ], [ 100.345449337000048, 13.644725233000031 ], [ 100.344676390000075, 13.649228008000023 ], [ 100.346323811000047, 13.649173861000065 ], [ 100.34683704300005, 13.655339513000058 ], [ 100.339383547000068, 13.654990333000057 ], [ 100.341251029000034, 13.661313715000063 ], [ 100.337599800000078, 13.677326406000077 ], [ 100.336068941000065, 13.676991674000021 ], [ 100.333567164000044, 13.681404414000042 ], [ 100.330558200000041, 13.699174627000048 ], [ 100.332353104000049, 13.69991770200005 ], [ 100.333426902000042, 13.706487572000071 ], [ 100.332325335000064, 13.712464130000058 ], [ 100.33414435800006, 13.713061560000028 ], [ 100.336116762000074, 13.71082296000003 ], [ 100.338772100000085, 13.712768633000053 ], [ 100.333110726000086, 13.720837635000066 ], [ 100.330332856000041, 13.719719976000022 ], [ 100.330227860000036, 13.721216534000064 ], [ 100.335739, 13.722985034000033 ], [ 100.334773382000037, 13.728392823000036 ], [ 100.336743631000047, 13.729793667000024 ], [ 100.335140428000045, 13.733485180000059 ], [ 100.337485818000061, 13.733908920000033 ], [ 100.337455281000075, 13.736036289000026 ], [ 100.334988058000079, 13.747094624000056 ], [ 100.335384389000069, 13.753286999000068 ], [ 100.334479133000059, 13.755217604000052 ], [ 100.332777558000032, 13.755373314000053 ], [ 100.333024654000042, 13.759589177000066 ], [ 100.330103982000082, 13.76309221200006 ], [ 100.33094023700005, 13.777563648000068 ], [ 100.331963368000061, 13.777622231000066 ], [ 100.331904701000042, 13.781375941000022 ], [ 100.33389502600005, 13.782166670000038 ], [ 100.330696831000068, 13.798145851000072 ], [ 100.327912387000083, 13.80412552100006 ], [ 100.411057705000076, 13.801346720000026 ], [ 100.464154291000057, 13.797313860000031 ], [ 100.469658381000045, 13.794790355000032 ], [ 100.466176870000083, 13.788917403000028 ], [ 100.500681346000079, 13.800499168000044 ], [ 100.515255130000071, 13.813274840000076 ], [ 100.507400598000061, 13.816038387000049 ], [ 100.502350034000074, 13.819494598000063 ], [ 100.49134071900005, 13.809561513000062 ], [ 100.488676741000063, 13.813647252000067 ], [ 100.487708993000069, 13.819297334000055 ], [ 100.485565949000033, 13.819115367000052 ], [ 100.485659980000037, 13.820849987000031 ], [ 100.481709322000086, 13.820835828000043 ], [ 100.48203903600006, 13.822424898000065 ], [ 100.479347776000054, 13.82501690600003 ], [ 100.479970028000082, 13.828164485000059 ], [ 100.477612354000087, 13.828232601000025 ], [ 100.477403438000067, 13.831619444000069 ], [ 100.473437018000084, 13.832345509000049 ], [ 100.466022012000053, 13.825329969000052 ], [ 100.45631674200007, 13.830977936000068 ], [ 100.440151711000055, 13.827887343000043 ], [ 100.427608736000082, 13.833864894000044 ], [ 100.425478565000049, 13.836702397000067 ], [ 100.424845036000079, 13.835562468000035 ], [ 100.42331712400005, 13.836051511000051 ], [ 100.414508037000076, 13.829122081000037 ], [ 100.40302642000006, 13.82399945800006 ], [ 100.399400431000061, 13.830592680000052 ], [ 100.39310395800004, 13.826503713000022 ], [ 100.384728691000078, 13.824582403000022 ], [ 100.367991842000038, 13.815666601000032 ], [ 100.359431800000038, 13.817129209000029 ], [ 100.349647099000038, 13.816808757000047 ], [ 100.348096656000052, 13.824753517000033 ], [ 100.328110447000086, 13.825585468000043 ], [ 100.319204864000085, 13.822555284000032 ], [ 100.296819108000079, 13.869552457000054 ], [ 100.299642664000032, 13.871904782000058 ], [ 100.301984781000044, 13.878833849000046 ], [ 100.311387657000068, 13.876396319000037 ], [ 100.32239886900004, 13.877365664000024 ], [ 100.322142794000058, 13.884761725000033 ], [ 100.326682606000077, 13.885651290000055 ], [ 100.327939317000073, 13.882434476000071 ], [ 100.331040125000072, 13.881548259000056 ], [ 100.341762890000041, 13.883369329000061 ], [ 100.341410927000084, 13.889987387000076 ], [ 100.332688405000056, 13.911881863000076 ], [ 100.330550745000039, 13.921530104000055 ], [ 100.341011335000076, 13.930645387000027 ], [ 100.356238216000065, 13.949894720000032 ], [ 100.350007737000055, 13.95387480100004 ], [ 100.354976456000031, 13.961937554000031 ], [ 100.356052121000062, 13.975217263000047 ], [ 100.355375819000074, 13.984950114000071 ], [ 100.349646395000036, 13.996636059000025 ], [ 100.355761059000088, 14.000445546000037 ], [ 100.364583911000068, 13.992277255000033 ], [ 100.380499180000072, 13.988812153000026 ], [ 100.381550201000039, 13.994718320000061 ], [ 100.434403516000032, 13.981276530000059 ], [ 100.453476297000066, 13.967342546000054 ], [ 100.456616672000052, 13.970823883000037 ], [ 100.457927895000068, 13.977517345000024 ], [ 100.458391974000051, 13.976268960000027 ], [ 100.46061248400008, 13.976448684000047 ], [ 100.462262040000041, 13.971653835000041 ], [ 100.466944572000045, 13.970493063000049 ], [ 100.46693108900007, 13.968707405000032 ], [ 100.486224656000047, 13.950139861000025 ], [ 100.489138454000056, 13.942662856000027 ], [ 100.500185435000049, 13.936982177000061 ], [ 100.501782098000035, 13.936718788000064 ], [ 100.504571485000042, 13.940604277000034 ], [ 100.50964805600006, 13.943435153000053 ], [ 100.525787902000047, 13.943629395000073 ], [ 100.53152072000006, 13.945224031000066 ], [ 100.537063310000065, 13.949890756000059 ], [ 100.539027389000069, 13.955698917000063 ], [ 100.542045164000058, 13.955478970000058 ], [ 100.542020584000056, 13.953578428000071 ], [ 100.544049248000078, 13.954413181000064 ], [ 100.544525066000062, 13.952933847000054 ], [ 100.55417665300007, 13.950379659000077 ], [ 100.554820761000087, 13.951562705000072 ], [ 100.557110722000061, 13.949833012000056 ], [ 100.560078286000078, 13.950674485000036 ], [ 100.561616137000044, 13.949380860000076 ], [ 100.567548358000067, 13.951203277000047 ], [ 100.574060669000062, 13.954633216000047 ], [ 100.591784818000065, 13.950337601000058 ], [ 100.605677143000037, 13.944099922000078 ], [ 100.604225150000048, 13.954255192000062 ], [ 100.606525949000059, 13.954378499000029 ], [ 100.60142998200007, 13.995609506000051 ], [ 100.653223916000059, 14.007464407000043 ], [ 100.678960689000064, 14.009739669000055 ], [ 100.704077321000057, 14.020803530000023 ], [ 100.721317524000085, 14.030859787000054 ], [ 100.731564678000041, 14.031360764000055 ], [ 100.731553787000053, 14.033284957000035 ], [ 100.755503316000045, 14.044766109000022 ], [ 100.914138307000087, 14.09962936200003 ], [ 100.91483620300005, 14.068209147000061 ], [ 100.913983118000033, 13.946490894000021 ], [ 100.906785141000057, 13.885262996000051 ], [ 100.905894150000051, 13.855226551000044 ], [ 100.904204648000075, 13.848422871000025 ], [ 100.912684787000046, 13.846797639000044 ], [ 100.907549278000033, 13.838104561000023 ], [ 100.93851625700006, 13.814255677000062 ], [ 100.928272351000032, 13.801280228000053 ], [ 100.909794635000083, 13.790478869000026 ], [ 100.878833007000082, 13.737877175000051 ], [ 100.855068558000085, 13.699272504000021 ], [ 100.860766813000055, 13.696903409000072 ], [ 100.859347365000076, 13.689560424000035 ], [ 100.794548593000059, 13.714463680000051 ], [ 100.783357786000067, 13.716618769000036 ], [ 100.78106882700007, 13.709888827000043 ], [ 100.785549413000069, 13.706538465000051 ], [ 100.778136940000081, 13.700601253000059 ], [ 100.763209996000057, 13.674757919000058 ], [ 100.772359939000069, 13.673431694000044 ], [ 100.790674843000033, 13.677215965000073 ], [ 100.79215165100004, 13.670999465000023 ], [ 100.790466371000036, 13.66786475300006 ], [ 100.793529812000088, 13.665012449000074 ], [ 100.78715727000008, 13.656334718000039 ], [ 100.785314740000047, 13.650589054000022 ], [ 100.781980046000058, 13.647352887000068 ], [ 100.783730127000069, 13.647003543000039 ], [ 100.780592402000082, 13.637671383000054 ], [ 100.783359248000068, 13.637232452000035 ], [ 100.782717217000084, 13.631399997000074 ], [ 100.784738643000082, 13.631140536000032 ], [ 100.783899120000058, 13.622923287000049 ], [ 100.786270838000064, 13.614947964000066 ], [ 100.782285146000049, 13.602059637000025 ], [ 100.779536527000062, 13.599262116000034 ], [ 100.779352121000045, 13.594981586000074 ], [ 100.774772548000044, 13.596326856000076 ], [ 100.77020228300006, 13.588580836000062 ], [ 100.769863883000085, 13.582992956000055 ], [ 100.767988550000041, 13.580579502000035 ], [ 100.762349176000043, 13.558933835000062 ], [ 100.763076831000035, 13.555852941000069 ], [ 100.772163445000047, 13.553657159000068 ], [ 100.770798476000039, 13.54531853900005 ], [ 100.764390825000078, 13.530224733000068 ], [ 100.764063180000051, 13.527633147000074 ], [ 100.766806135000081, 13.523510241000054 ], [ 100.765856535000069, 13.521771201000035 ], [ 100.776985074000038, 13.520525471000042 ], [ 100.779849016000071, 13.51561547700004 ], [ 100.783735958000079, 13.516311593000069 ], [ 100.78465953400007, 13.513724556000057 ], [ 100.786757202000047, 13.513122088000046 ], [ 100.783103478000044, 13.510842290000028 ], [ 100.785116776000052, 13.50878440300005 ], [ 100.780954946000065, 13.499532220000049 ], [ 100.780372766000085, 13.491971804000059 ], [ 100.776576444000057, 13.490542093000045 ], [ 100.729402264000043, 13.500489110000046 ], [ 100.707770408000044, 13.50162722500005 ], [ 100.708254580000073, 13.504346732000045 ], [ 100.705657935000033, 13.505303278000042 ], [ 100.681195789000071, 13.506234046000031 ], [ 100.654159746000062, 13.516377467000041 ], [ 100.631174085000055, 13.520638606000034 ], [ 100.622745744000042, 13.526772831000073 ], [ 100.622066164000046, 13.529479410000022 ], [ 100.611889390000044, 13.538899895000043 ], [ 100.597332681000069, 13.538992501000052 ], [ 100.595666200000039, 13.542097223000042 ], [ 100.580187004000038, 13.55371178200005 ], [ 100.57613494800006, 13.563210337000044 ], [ 100.577722401000074, 13.572015873000055 ], [ 100.591880194000055, 13.594288433000031 ], [ 100.592634934000046, 13.599934159000043 ], [ 100.59097065800006, 13.606430354000054 ], [ 100.584753186000057, 13.610162314000036 ], [ 100.562333741000032, 13.612362552000036 ], [ 100.551357408000058, 13.618557683000063 ], [ 100.552479700000049, 13.621011831000033 ], [ 100.557756063000056, 13.623062753000056 ], [ 100.564355247000037, 13.633781299000077 ], [ 100.568773700000065, 13.637330507000058 ], [ 100.572755071000074, 13.633772863000047 ], [ 100.573509311000066, 13.635101256000041 ], [ 100.576756839000041, 13.634223559000077 ], [ 100.581713742000034, 13.630343852000067 ], [ 100.58702487100004, 13.62884232600004 ], [ 100.593405312000073, 13.649730997000063 ], [ 100.592102526000076, 13.663807903000077 ], [ 100.579458378000083, 13.669222685000022 ], [ 100.588769839000065, 13.683015013000045 ], [ 100.588613627000086, 13.690039910000053 ], [ 100.58391953000006, 13.69609611900006 ], [ 100.577717870000072, 13.700222374000077 ], [ 100.567125009000051, 13.70451455400007 ], [ 100.559839923000084, 13.706203358000039 ], [ 100.554867192000074, 13.705483354000023 ], [ 100.551398431000052, 13.700082983000073 ], [ 100.552583705000075, 13.68796425000005 ], [ 100.551624720000063, 13.67976728800005 ], [ 100.547356679000075, 13.672603031000051 ], [ 100.541897224000081, 13.669406051000067 ], [ 100.536549599000068, 13.669280956000023 ], [ 100.530806873000074, 13.671738150000067 ], [ 100.52340115700008, 13.677882705000059 ], [ 100.520401051000078, 13.675643335000075 ], [ 100.522001174000081, 13.673561966000022 ], [ 100.520418629000062, 13.670989284000029 ], [ 100.521063597000079, 13.669191739000041 ], [ 100.517590872000085, 13.667289883000024 ], [ 100.517515207000088, 13.661599672000023 ], [ 100.516224358000045, 13.651347356000031 ], [ 100.516954754000039, 13.645709839000062 ], [ 100.515353103000052, 13.64502948300003 ], [ 100.515095838000036, 13.639479597000047 ], [ 100.518069592000074, 13.634875 ], [ 100.514240487000052, 13.628379719000066 ], [ 100.516387085000076, 13.612715625000021 ], [ 100.520347250000043, 13.609010611000031 ], [ 100.521037943000067, 13.605141864000075 ], [ 100.513744270000075, 13.602594209000074 ], [ 100.511511381000048, 13.596854386000075 ], [ 100.50481534000005, 13.597696220000046 ], [ 100.499637586000063, 13.595640960000026 ], [ 100.499041699000031, 13.591951688000051 ], [ 100.496706269000072, 13.588894774000039 ], [ 100.491196460000083, 13.58615773300005 ], [ 100.488465831000042, 13.58946181500005 ], [ 100.481913080000083, 13.592708303000052 ], [ 100.480629425000075, 13.598007395000025 ], [ 100.47692889700005, 13.599320183000032 ], [ 100.476930166000045, 13.602955251000026 ], [ 100.473097963000043, 13.59903835800003 ], [ 100.473653884000043, 13.593876167000076 ], [ 100.469694497000035, 13.592667428000027 ], [ 100.466863811000053, 13.596954049000033 ], [ 100.465868297000043, 13.603900447000058 ] ] ] } }
]
}
